{"type":"FeatureCollection","features":[{"type":"Feature","properties":{"osm_relation":9678267,"name":"Tour Du Mont Blanc - Variante du Col de Tricot","ref":null,"roundtrip":false,"point_count":1960,"length_m":13434.0,"source":"OpenStreetMap contributors (ODbL)","role":"alternative","slug":"col-de-tricot","label":"Col de Tricot"},"geometry":{"type":"LineString","coordinates":[[6.7274619,45.8166672],[6.7276972,45.8168487],[6.727818,45.8169543],[6.7280232,45.8171592],[6.728142,45.8173053],[6.7281806,45.8173805],[6.7281872,45.8173933],[6.7282323,45.8174812],[6.7282546,45.8175431],[6.7282635,45.8175703],[6.7283298,45.8177726],[6.7284065,45.8180118],[6.7284857,45.8182675],[6.7284941,45.8182999],[6.7285159,45.8185408],[6.7285163,45.8185599],[6.7284981,45.8186648],[6.7284712,45.8187343],[6.7283929,45.8188593],[6.7283826,45.818873],[6.7283171,45.8189603],[6.7282591,45.8190376],[6.7281366,45.8191927],[6.7276501,45.8197996],[6.7275781,45.8199054],[6.72753,45.820013],[6.7275052,45.8201069],[6.7275065,45.8201584],[6.7275082,45.8202232],[6.7275094,45.8202621],[6.7275169,45.8205059],[6.7275133,45.820713],[6.7275099,45.8207583],[6.7275046,45.8208009],[6.7274959,45.8208457],[6.7274861,45.8208962],[6.7274711,45.8209462],[6.7274544,45.8209902],[6.727423,45.8210592],[6.7273783,45.8211283],[6.727326,45.8212138],[6.7273054,45.8212475],[6.7274414,45.8212657],[6.7275376,45.8211726],[6.7276642,45.8211997],[6.7278293,45.821237],[6.7278839,45.8212493],[6.7281224,45.8213043],[6.7281551,45.8213119],[6.7281753,45.8213142],[6.7282446,45.8213221],[6.7282775,45.8213258],[6.7283613,45.8213336],[6.7284916,45.8213606],[6.7287041,45.8213972],[6.7289318,45.8214509],[6.7290482,45.8214786],[6.7291097,45.8214933],[6.7292166,45.8215206],[6.7292968,45.8215746],[6.7293284,45.821638],[6.7293742,45.8217104],[6.7293719,45.8218475],[6.7293888,45.8219469],[6.729455,45.8219581],[6.7295196,45.8219597],[6.7296527,45.8219432],[6.7297245,45.8219343],[6.729909,45.8219285],[6.7300947,45.8219391],[6.7302159,45.8219439],[6.7302599,45.8219237],[6.7303241,45.8218869],[6.7304034,45.8218103],[6.7304994,45.8217719],[6.7305682,45.8217557],[6.730619,45.8217571],[6.7306674,45.8217644],[6.7307015,45.8217769],[6.730793,45.8218105],[6.7309904,45.8218814],[6.7310976,45.8219304],[6.7312648,45.822007],[6.731439,45.8221099],[6.7315207,45.8222183],[6.7315995,45.8222793],[6.7316473,45.8223223],[6.7317198,45.8223842],[6.7317745,45.822407],[6.7318457,45.8224229],[6.7320626,45.8224439],[6.7321613,45.8224576],[6.7324558,45.8224916],[6.7326272,45.822519],[6.7328557,45.8225466],[6.7330596,45.8225674],[6.7331591,45.8225942],[6.7331654,45.822676],[6.7331769,45.8227203],[6.7332886,45.8227274],[6.7334517,45.8227438],[6.733564,45.8227514],[6.7337473,45.8227675],[6.7339324,45.8227812],[6.7339719,45.822785],[6.7341357,45.8228006],[6.7342736,45.8228209],[6.7343574,45.8228349],[6.7344313,45.8228619],[6.734556,45.8228328],[6.7346425,45.8228295],[6.7347122,45.8228399],[6.7347608,45.8228744],[6.7348285,45.822962],[6.7348835,45.8230208],[6.7350598,45.8230896],[6.7351301,45.8230804],[6.7352501,45.823057],[6.7353152,45.8230505],[6.7354111,45.8230434],[6.7354687,45.8230416],[6.7355525,45.8230392],[6.7356303,45.8230406],[6.7357215,45.8230472],[6.7359341,45.823009],[6.7361227,45.8229635],[6.7363291,45.8229199],[6.7364147,45.8229156],[6.7365376,45.8229291],[6.7366556,45.8229467],[6.7367515,45.8229505],[6.7368608,45.8229472],[6.7370459,45.8229313],[6.7371558,45.8229149],[6.7372464,45.8229065],[6.7373315,45.8228944],[6.737412,45.8228888],[6.7375739,45.8228704],[6.7378324,45.8228911],[6.7379961,45.8229266],[6.7382589,45.8229733],[6.7385204,45.8230042],[6.7388222,45.8229948],[6.7390206,45.8229846],[6.7392363,45.8229612],[6.7393371,45.8229472],[6.7394967,45.8228799],[6.7396483,45.8229276],[6.7398763,45.823007],[6.7400318,45.823078],[6.740355,45.8232219],[6.7407039,45.8233771],[6.7409239,45.8234579],[6.7411061,45.8234696],[6.7412784,45.823484],[6.7414594,45.8235584],[6.7415372,45.8236009],[6.7416065,45.8236144],[6.741725,45.8236579],[6.7418356,45.8236855],[6.7418769,45.8237046],[6.7420287,45.8237673],[6.7422775,45.8238425],[6.7424653,45.8239322],[6.7426155,45.8239976],[6.7427583,45.8240626],[6.7428461,45.8241117],[6.7429479,45.8241628],[6.7430366,45.8242037],[6.7431459,45.8242344],[6.7433882,45.8242773],[6.7434832,45.8243275],[6.7435896,45.8243715],[6.743628,45.8244061],[6.7436689,45.8244509],[6.7437202,45.8245144],[6.7437514,45.8245752],[6.7437822,45.8246275],[6.7438283,45.8246857],[6.7438795,45.8247868],[6.7438736,45.8249077],[6.7438051,45.8249804],[6.7435864,45.8250466],[6.7431493,45.8252172],[6.7427777,45.825372],[6.7426752,45.8253911],[6.7425851,45.8253991],[6.7422417,45.8254234],[6.7419844,45.825422],[6.7414852,45.825313],[6.7411723,45.8252424],[6.7409247,45.8252041],[6.7407969,45.8252259],[6.7406704,45.8252873],[6.7406527,45.825338],[6.7406749,45.8254098],[6.7407171,45.8254785],[6.7408244,45.825627],[6.7408518,45.825611],[6.74086,45.8255948],[6.740859,45.8255697],[6.7408407,45.8255073],[6.7408171,45.8254719],[6.7408385,45.8254331],[6.7408727,45.8254084],[6.7409049,45.8254261],[6.7409284,45.8254677],[6.7409713,45.8255046],[6.7410856,45.8255953],[6.7411443,45.8256373],[6.7411919,45.8256873],[6.7412113,45.8257069],[6.7412462,45.825777],[6.7412871,45.82587],[6.7413555,45.8259499],[6.7414293,45.8260649],[6.7414507,45.8261247],[6.7414682,45.8262415],[6.7414735,45.8263233],[6.7414514,45.8264653],[6.741438,45.8265359],[6.7414199,45.8265719],[6.7413703,45.8266321],[6.7413126,45.8266803],[6.7412616,45.8267204],[6.7412341,45.8267611],[6.7411927,45.8268381],[6.7411268,45.8269405],[6.7410591,45.8269952],[6.7410296,45.8270447],[6.7410155,45.8271321],[6.7410155,45.8271732],[6.7410276,45.8272008],[6.7410524,45.8272153],[6.7411007,45.8272288],[6.7411322,45.8272288],[6.7411751,45.8272363],[6.7411899,45.8272461],[6.7412073,45.8272657],[6.7412415,45.8272928],[6.7412891,45.8273251],[6.7413408,45.8273503],[6.7413609,45.8273625],[6.7413716,45.8273858],[6.7413864,45.8274311],[6.7414165,45.8274872],[6.7414507,45.827519],[6.7415091,45.8275503],[6.7415808,45.8275783],[6.741674,45.8276036],[6.7418236,45.8276423],[6.7419704,45.8276867],[6.7420938,45.8277442],[6.7422004,45.8278064],[6.7423198,45.8278839],[6.7423701,45.8279353],[6.7423848,45.827983],[6.7423882,45.828047],[6.7423781,45.8281507],[6.7423801,45.8282087],[6.7424103,45.8282717],[6.7424391,45.8283516],[6.7424887,45.8284082],[6.742537,45.8284292],[6.7425652,45.8284479],[6.7425766,45.8284717],[6.7425913,45.8285091],[6.7426255,45.8285502],[6.7426845,45.8285979],[6.7427811,45.82866],[6.7429045,45.8287095],[6.7430118,45.8287422],[6.7430507,45.8287703],[6.7430654,45.8288049],[6.7430654,45.8288413],[6.7430359,45.8289048],[6.7429776,45.8289721],[6.742938,45.82901],[6.7429022,45.8290845],[6.7428073,45.8291455],[6.7427959,45.8291665],[6.7427925,45.8292053],[6.7428171,45.8292386],[6.74283,45.8292474],[6.7428629,45.8292698],[6.7429514,45.8292754],[6.7430399,45.8292744],[6.7430849,45.8292857],[6.7431238,45.8293048],[6.7431432,45.829337],[6.7432009,45.8293814],[6.7432344,45.8293978],[6.7432646,45.8293969],[6.7432901,45.8293931],[6.7433115,45.8293992],[6.7433249,45.8294235],[6.7433457,45.8294487],[6.7433913,45.8294842],[6.7434179,45.8294918],[6.7434631,45.8294945],[6.7434845,45.8295104],[6.7434887,45.829545],[6.7434995,45.829559],[6.7435328,45.8295718],[6.7435603,45.829531],[6.743628,45.8294118],[6.7436582,45.8293548],[6.7436736,45.8292817],[6.7436877,45.8292067],[6.7437073,45.8291754],[6.74377,45.8291543],[6.743832,45.8291647],[6.7438895,45.8292116],[6.7439257,45.8292431],[6.7439593,45.8292908],[6.743966,45.8293272],[6.7439619,45.8293674],[6.74397,45.829444],[6.7440236,45.8295067],[6.7440816,45.8295592],[6.7442283,45.8296419],[6.7443265,45.8297178],[6.7444669,45.8298566],[6.7445131,45.8298954],[6.7445587,45.829915],[6.7446104,45.8299501],[6.7446734,45.829994],[6.7447445,45.8300519],[6.7448001,45.8301547],[6.7449108,45.8303391],[6.7450186,45.8304856],[6.7450838,45.8305486],[6.745182,45.8305976],[6.7454031,45.8307046],[6.7455652,45.8307929],[6.7457148,45.8308976],[6.7457899,45.8309911],[6.7458294,45.8310728],[6.7458623,45.8311873],[6.7458837,45.8313195],[6.7459112,45.8314569],[6.7459461,45.8316036],[6.7459716,45.8316863],[6.7459863,45.8318278],[6.7460051,45.8319988],[6.7460172,45.832103],[6.7460232,45.8322194],[6.746034,45.832317],[6.7460413,45.8324539],[6.746044,45.832531],[6.7460628,45.8326081],[6.7461017,45.8327048],[6.7461278,45.8327786],[6.7461547,45.8328468],[6.7461842,45.8329216],[6.7461915,45.8329683],[6.7461969,45.8330234],[6.7461902,45.8331113],[6.7461895,45.8332085],[6.7462009,45.8332781],[6.7462197,45.8333514],[6.746292,45.8334987],[6.7463277,45.8336388],[6.7463551,45.8337177],[6.7464329,45.8338415],[6.7465087,45.833985],[6.7465509,45.8340723],[6.7465965,45.8341583],[6.7466488,45.8342494],[6.7467488,45.8343811],[6.7467964,45.8344358],[6.7468279,45.8344942],[6.7468896,45.8345545],[6.7470056,45.8346442],[6.7470753,45.834697],[6.7471363,45.8347404],[6.7472383,45.8347843],[6.7473643,45.834832],[6.7474683,45.8348885],[6.7475769,45.834931],[6.7476788,45.8349815],[6.7477216,45.8350106],[6.7478183,45.8350871],[6.7479879,45.835266],[6.748053,45.8353365],[6.7481153,45.8354118],[6.7481495,45.8354903],[6.7481734,45.8355497],[6.7481965,45.8356183],[6.7482259,45.8356672],[6.7482803,45.8357103],[6.7483247,45.8357346],[6.7483818,45.835759],[6.7484317,45.8357845],[6.7484972,45.8358236],[6.7485314,45.8358481],[6.7485546,45.8358736],[6.7485827,45.8359046],[6.7486354,45.8359581],[6.748746,45.836064],[6.7487916,45.8361011],[6.7488221,45.8361195],[6.7488724,45.8361452],[6.7489287,45.8361679],[6.7489871,45.8361857],[6.7490467,45.8361934],[6.7491054,45.8361969],[6.749339,45.8361947],[6.7493956,45.8361458],[6.7494416,45.8361178],[6.7494911,45.8360902],[6.7495528,45.836065],[6.7496168,45.8360439],[6.749678,45.8360257],[6.7497368,45.8360054],[6.7499487,45.8359267],[6.7499918,45.835908],[6.7500343,45.8358861],[6.7500942,45.8358476],[6.7501915,45.8357689],[6.7502899,45.8356931],[6.750457,45.8355738],[6.7505362,45.8355239],[6.750581,45.8354943],[6.7506089,45.8354712],[6.7506398,45.8354549],[6.7506771,45.8354464],[6.7507143,45.8354489],[6.7507562,45.8354562],[6.7508075,45.8354695],[6.7508564,45.8354732],[6.7509134,45.8354728],[6.7509827,45.8354683],[6.7510474,45.8354687],[6.7511434,45.8354789],[6.751219,45.8354858],[6.7512674,45.8354862],[6.7513315,45.8354854],[6.7514066,45.8354801],[6.7514514,45.8354805],[6.751484,45.8354854],[6.7515114,45.8354975],[6.7515824,45.8355357],[6.7516331,45.8355588],[6.7516715,45.835571],[6.7517257,45.8355815],[6.7517635,45.8355896],[6.7517984,45.8356046],[6.751845,45.8356318],[6.7518765,45.8356553],[6.7519207,45.8357044],[6.7519533,45.8357677],[6.7519708,45.83579],[6.7520354,45.8358679],[6.752075,45.8359145],[6.7521146,45.8359454],[6.752165,45.8359746],[6.7522246,45.8360164],[6.7522607,45.8360439],[6.7522869,45.8360715],[6.7523079,45.8361032],[6.7523254,45.8361344],[6.7523422,45.8361794],[6.7523714,45.8362743],[6.7523894,45.8363401],[6.7524028,45.8363796],[6.7524127,45.8364023],[6.7524284,45.8364234],[6.7524521,45.8364363],[6.7524795,45.8364485],[6.7525112,45.8364554],[6.7525347,45.836458],[6.7525685,45.8364588],[6.7526242,45.836453],[6.7527173,45.8364318],[6.7528256,45.8364067],[6.7528494,45.8363978],[6.7528826,45.8363851],[6.7529277,45.8363611],[6.7529655,45.8363422],[6.7529966,45.8363321],[6.7530261,45.8363249],[6.7530806,45.8363143],[6.7531539,45.8363068],[6.7532396,45.8363002],[6.7532977,45.8362903],[6.7533564,45.8362841],[6.753397,45.8362837],[6.7534292,45.8362793],[6.7534506,45.8362695],[6.7534908,45.8362464],[6.7535211,45.8362302],[6.753555,45.8362176],[6.7536841,45.8361917],[6.7537229,45.8361808],[6.753793,45.8361606],[6.7538663,45.8361375],[6.7539233,45.8361158],[6.7539628,45.8360978],[6.7540006,45.8360793],[6.7540531,45.8360644],[6.7540999,45.8360537],[6.7541518,45.8360482],[6.7542003,45.8360451],[6.7542494,45.8360426],[6.7543253,45.8360411],[6.7544579,45.836035],[6.75451,45.8360396],[6.7545371,45.8360494],[6.7545523,45.8360628],[6.7545641,45.8360777],[6.7545857,45.8360877],[6.7546237,45.836102],[6.754679,45.836121],[6.7546922,45.8361352],[6.7547005,45.8361555],[6.7547273,45.8361761],[6.7547612,45.8361971],[6.7547719,45.8362097],[6.7547833,45.8362286],[6.7548098,45.8362487],[6.7548128,45.8362599],[6.7548065,45.8362747],[6.7548098,45.8362996],[6.7548138,45.8363221],[6.7548286,45.8363328],[6.75485,45.8363363],[6.7548732,45.836327],[6.7549194,45.8363218],[6.7549734,45.8363141],[6.75502,45.8363034],[6.7550713,45.8363123],[6.7551199,45.8363389],[6.7551642,45.8363737],[6.7551907,45.8363933],[6.755201,45.836421],[6.7552017,45.8364463],[6.7551964,45.8364706],[6.7551964,45.836491],[6.7552128,45.8365087],[6.7552158,45.8365265],[6.7552162,45.8365423],[6.7552078,45.8365552],[6.7551984,45.8365697],[6.7551997,45.8365886],[6.7552173,45.8366075],[6.7552239,45.8366363],[6.7552164,45.8366583],[6.7552212,45.8366823],[6.7552266,45.8367187],[6.7552423,45.8367379],[6.7552644,45.8367537],[6.755296,45.8367619],[6.7553308,45.8367493],[6.7553438,45.8367504],[6.7553871,45.8367673],[6.7554235,45.8367985],[6.755474,45.8368292],[6.755515,45.8368623],[6.755534,45.836886],[6.7555552,45.8369172],[6.7555535,45.8369459],[6.7555205,45.8370166],[6.7555853,45.8370263],[6.7556111,45.8370755],[6.7556161,45.8371754],[6.7555967,45.8372193],[6.755588,45.8372665],[6.7556061,45.8372992],[6.7555866,45.8373431],[6.7555384,45.8373758],[6.7555404,45.8374085],[6.7555518,45.8374426],[6.7555095,45.8374753],[6.7555046,45.8374954],[6.7554769,45.8375431],[6.7554599,45.8375639],[6.7554713,45.8376028],[6.7554551,45.8376322],[6.7554834,45.8376897],[6.7554834,45.8377411],[6.755468,45.837779],[6.755472,45.8378018],[6.7555082,45.8378154],[6.7555484,45.8378574],[6.755538,45.8378827],[6.7555705,45.8379518],[6.7556076,45.8380395],[6.755641,45.8381672],[6.755651,45.8382242],[6.7556832,45.8382447],[6.7556785,45.8382882],[6.7556902,45.8383195],[6.7557093,45.8383704],[6.7557704,45.8385536],[6.7558171,45.83863],[6.755806,45.838692],[6.7557663,45.8387625],[6.7557643,45.8388175],[6.7557568,45.8388641],[6.755767,45.8388973],[6.7557422,45.8389665],[6.7557477,45.8390336],[6.7557697,45.8391309],[6.7557851,45.8392033],[6.7558079,45.8392356],[6.7558654,45.8392842],[6.755907,45.8393739],[6.7559185,45.8394032],[6.755908,45.8394411],[6.7559261,45.8394811],[6.7559159,45.8395152],[6.7559004,45.8395784],[6.7559131,45.8395982],[6.7559435,45.8396088],[6.7561991,45.8395514],[6.756299,45.8394762],[6.7563794,45.8393941],[6.7563819,45.8393456],[6.7563916,45.8393157],[6.7564422,45.8392782],[6.7564586,45.8392407],[6.7564756,45.8391654],[6.7566046,45.8390233],[6.7566316,45.8390005],[6.7566518,45.8389931],[6.7566747,45.8389882],[6.7566946,45.8390041],[6.7567433,45.8390767],[6.7568014,45.8391205],[6.7568071,45.8391605],[6.756828,45.8391779],[6.7568663,45.8391791],[6.7568972,45.8391583],[6.7569514,45.8390886],[6.7570336,45.8390282],[6.7570565,45.8389906],[6.757122,45.8389273],[6.7571639,45.8389015],[6.7571944,45.8389016],[6.7572323,45.8389644],[6.7572519,45.8390265],[6.7573015,45.8391173],[6.7573024,45.8391547],[6.7573168,45.8391815],[6.757336,45.8391904],[6.7573763,45.8391687],[6.7574347,45.8391311],[6.7574517,45.8391011],[6.7574755,45.8390618],[6.7575148,45.8390309],[6.7576436,45.8389669],[6.7577622,45.8389014],[6.757868,45.8389027],[6.7579198,45.8389464],[6.7580061,45.8389128],[6.7581144,45.8388976],[6.7581482,45.8388851],[6.7582718,45.8388861],[6.7584899,45.8388706],[6.7587,45.838865],[6.7588437,45.838887],[6.7589759,45.8389048],[6.7590592,45.8388551],[6.7590873,45.8388792],[6.7591444,45.8389279],[6.7591576,45.8389395],[6.7592284,45.8388927],[6.7592901,45.8388574],[6.7593193,45.8388539],[6.7593417,45.8388565],[6.7593632,45.8388639],[6.7593944,45.8388903],[6.7594266,45.8389158],[6.7594517,45.8389282],[6.7595248,45.838938],[6.7596509,45.8389446],[6.7598066,45.8390046],[6.7601262,45.8391221],[6.7602821,45.839162],[6.7601956,45.8392674],[6.7601799,45.8393084],[6.7601596,45.8393727],[6.7601645,45.8394084],[6.7601838,45.8394487],[6.7602672,45.8395553],[6.7602867,45.8395862],[6.7602892,45.8396284],[6.7602658,45.8397],[6.7602483,45.8397308],[6.760196,45.8397747],[6.7601807,45.8398006],[6.7601732,45.8398312],[6.7601685,45.8398779],[6.7601544,45.8399125],[6.7601363,45.8399545],[6.7601198,45.8400311],[6.7601035,45.8401119],[6.7600979,45.8402067],[6.7601008,45.8402572],[6.7600914,45.8403096],[6.7600507,45.8404187],[6.7600445,45.8404511],[6.7600465,45.8404787],[6.7600733,45.8405235],[6.760078,45.8405539],[6.7600742,45.8405855],[6.7600537,45.8406821],[6.7600545,45.8407099],[6.7600717,45.8407332],[6.7601068,45.840758],[6.760197,45.8407935],[6.7603094,45.8408349],[6.7604119,45.8408577],[6.7605675,45.8408977],[6.7608022,45.8409701],[6.7609319,45.8410128],[6.7610377,45.8410327],[6.7611801,45.8410631],[6.7613189,45.8410983],[6.7613926,45.8411014],[6.7615009,45.8410993],[6.7616256,45.8411364],[6.7617147,45.8411664],[6.7617886,45.8411868],[6.7618469,45.8411939],[6.7619227,45.8411946],[6.7619814,45.841188],[6.7620216,45.8411702],[6.7620339,45.841173],[6.76209,45.8411817],[6.7621208,45.8412018],[6.7621339,45.8412156],[6.7621936,45.8412378],[6.7622405,45.8412863],[6.7623103,45.8413256],[6.762361,45.8413539],[6.7624188,45.8413753],[6.7624739,45.8413826],[6.7625235,45.841405],[6.7625731,45.8414386],[6.762618,45.841491],[6.7626239,45.8415185],[6.7626617,45.841552],[6.7627467,45.8415822],[6.7628293,45.8416339],[6.7628561,45.8416663],[6.7628816,45.8417152],[6.762926,45.8417698],[6.7629661,45.8417899],[6.7630224,45.8418002],[6.7630451,45.8418235],[6.7631444,45.8419011],[6.7631619,45.841945],[6.7631816,45.8419814],[6.7631766,45.8420123],[6.7632034,45.8420478],[6.7632437,45.8420665],[6.7632859,45.8420763],[6.7633141,45.8421181],[6.763359,45.842187],[6.7633764,45.8422164],[6.763408,45.8422435],[6.763414,45.842287],[6.7634502,45.8423098],[6.7634824,45.8423215],[6.7634995,45.8423523],[6.7635323,45.8423729],[6.7635521,45.84239],[6.7635541,45.8424276],[6.7635585,45.8424402],[6.7635679,45.8424619],[6.76359,45.8424836],[6.7636252,45.8425035],[6.7636271,45.8425282],[6.7636178,45.8425605],[6.7636376,45.842584],[6.7636743,45.8425926],[6.7636916,45.8426252],[6.7637613,45.8427074],[6.7637781,45.8427433],[6.7637955,45.8427971],[6.76383,45.842811],[6.763813,45.8428484],[6.7638217,45.8428695],[6.7638352,45.8428882],[6.7638566,45.8429157],[6.7638981,45.8429409],[6.7639665,45.8429624],[6.7639726,45.8429979],[6.7639854,45.8430298],[6.7640129,45.8430875],[6.7640662,45.8431501],[6.7641195,45.8431677],[6.7641295,45.8431955],[6.7641845,45.843217],[6.7642066,45.8432506],[6.7642381,45.843267],[6.7643038,45.8433006],[6.7643088,45.843327],[6.7643028,45.8433478],[6.7643583,45.8433802],[6.7643558,45.8434209],[6.7643313,45.8434508],[6.7643347,45.8434653],[6.7643863,45.8434959],[6.7644158,45.843512],[6.764444,45.8435273],[6.7644692,45.8435953],[6.7645421,45.8436165],[6.7645658,45.8436479],[6.7646321,45.8436776],[6.7646549,45.8437138],[6.7647035,45.8437402],[6.7647482,45.8437788],[6.7647226,45.8437974],[6.7647199,45.8438278],[6.7647196,45.8438628],[6.7647179,45.8438927],[6.7647333,45.8439263],[6.764732,45.8439469],[6.7647129,45.8439607],[6.7646817,45.8439673],[6.7646518,45.8439637],[6.7646015,45.8439399],[6.7645828,45.8439368],[6.7645791,45.8439501],[6.764592,45.8439633],[6.7645968,45.8439758],[6.7645922,45.8439841],[6.7645687,45.8439833],[6.7645672,45.8439909],[6.7645803,45.8440103],[6.7645702,45.8440265],[6.7646079,45.8440592],[6.7646079,45.8440849],[6.764608,45.8441018],[6.7646252,45.8441228],[6.7646325,45.8441524],[6.7646498,45.8441683],[6.7646706,45.8441662],[6.7646844,45.8441711],[6.7646924,45.8441874],[6.7646884,45.8442036],[6.7646931,45.844225],[6.7647243,45.8442446],[6.7647792,45.8442767],[6.7647792,45.8442986],[6.7647725,45.8443194],[6.7647673,45.8443429],[6.7647957,45.84436],[6.7648186,45.8443809],[6.7648393,45.8444126],[6.7648547,45.8444338],[6.7648681,45.8444521],[6.7648627,45.8444731],[6.764857,45.8444853],[6.7648574,45.8445214],[6.7648621,45.844556],[6.7648892,45.8445829],[6.7649107,45.8445999],[6.7649345,45.8446205],[6.7649512,45.8446352],[6.7649888,45.8447053],[6.7649921,45.8447211],[6.7650213,45.8447377],[6.7650484,45.8447603],[6.765042,45.8447754],[6.765045,45.8447905],[6.7650754,45.844848],[6.7651655,45.8448739],[6.7652178,45.8448991],[6.7653009,45.8449383],[6.7653511,45.8449624],[6.765392,45.8449606],[6.7654092,45.8449593],[6.7654327,45.8449689],[6.7654632,45.8449794],[6.7654912,45.8449796],[6.7655044,45.8449909],[6.7655081,45.8450213],[6.765592,45.8450473],[6.7656248,45.8450458],[6.7656278,45.8450656],[6.7656268,45.8450801],[6.7656024,45.8450934],[6.765594,45.845102],[6.7656064,45.8451165],[6.7656348,45.8451214],[6.7656852,45.8451096],[6.7657197,45.8451092],[6.7657396,45.8451291],[6.7657395,45.8451572],[6.7657541,45.8451583],[6.7657848,45.8451673],[6.7657706,45.8452008],[6.7657559,45.84522],[6.7657559,45.8452433],[6.7657841,45.845248],[6.7658799,45.8452477],[6.7659219,45.8452382],[6.7659562,45.8452544],[6.7659705,45.8452807],[6.7659547,45.8452987],[6.7659574,45.8453195],[6.765997,45.8453723],[6.7660382,45.8454175],[6.7660979,45.8454596],[6.7661123,45.8454699],[6.7660969,45.8454954],[6.7661237,45.8455292],[6.7661174,45.8455489],[6.7661563,45.8455661],[6.766157,45.845585],[6.7661929,45.8456076],[6.7661993,45.8456394],[6.7662308,45.8456776],[6.7662437,45.8457055],[6.7662827,45.8457191],[6.7662852,45.8457451],[6.7663278,45.8457636],[6.7663641,45.8458036],[6.7663811,45.8458411],[6.7663826,45.8458569],[6.7663628,45.8458775],[6.7663423,45.8458945],[6.7663379,45.8459258],[6.7663591,45.8459356],[6.7664077,45.8459367],[6.7664731,45.8459655],[6.7665267,45.8459786],[6.7665159,45.8459946],[6.7664955,45.8460148],[6.7664686,45.8460389],[6.7664702,45.8460519],[6.7665304,45.8460678],[6.7666233,45.8460722],[6.7666464,45.8460809],[6.7666548,45.8460966],[6.7667216,45.8461002],[6.7668103,45.8461068],[6.7669288,45.8461074],[6.7669569,45.8461208],[6.7669626,45.846136],[6.7669649,45.8461722],[6.7669612,45.8462093],[6.7669475,45.8462357],[6.7669408,45.846274],[6.7669124,45.8463171],[6.7668948,45.8463606],[6.7668942,45.8463845],[6.766862,45.8464431],[6.7668609,45.8464768],[6.766883,45.8464979],[6.7669377,45.846519],[6.7669991,45.8465339],[6.767041,45.8465363],[6.7670809,45.8465246],[6.7671164,45.8465204],[6.7671339,45.846537],[6.7671362,45.846555],[6.767147,45.8465704],[6.7671302,45.8465972],[6.7671104,45.8466096],[6.7671067,45.8466313],[6.7670772,45.8466561],[6.7670688,45.8466773],[6.767098,45.8466876],[6.7670893,45.8467138],[6.7670722,45.8467504],[6.7670688,45.8467906],[6.7670588,45.8468233],[6.7670262,45.8468683],[6.7669707,45.8468933],[6.7668316,45.8468945],[6.7668107,45.8469148],[6.7668287,45.8469352],[6.7668972,45.8469585],[6.7669729,45.8470048],[6.7670967,45.8470522],[6.7671739,45.8470842],[6.7672476,45.847085],[6.7672589,45.8471041],[6.767333,45.847111],[6.7673669,45.8471517],[6.7674212,45.8471503],[6.7674752,45.8471479],[6.767529,45.8471553],[6.7675832,45.8471514],[6.7675972,45.8471647],[6.7675825,45.8471797],[6.7675721,45.8471949],[6.7675724,45.847211],[6.7675611,45.8472281],[6.7675225,45.8472453],[6.7674997,45.8472558],[6.7674836,45.8473035],[6.7674239,45.8473336],[6.7673991,45.8473542],[6.7673438,45.8473962],[6.7673079,45.8474058],[6.7672747,45.8474065],[6.7672579,45.8474156],[6.7672449,45.8474352],[6.7672496,45.8474427],[6.7672814,45.8474539],[6.7673082,45.8474782],[6.7673334,45.847495],[6.7674623,45.8475084],[6.7675013,45.847533],[6.7675409,45.8475403],[6.7675949,45.8475888],[6.7676837,45.8476054],[6.7677319,45.8476324],[6.7677791,45.8476479],[6.7678381,45.847645],[6.7678635,45.8476652],[6.7679457,45.8476412],[6.7680196,45.8476549],[6.7681029,45.8476415],[6.7681612,45.8476433],[6.7681981,45.847654],[6.7682373,45.8476346],[6.7682614,45.8476454],[6.7682992,45.8476388],[6.7683553,45.8476328],[6.7683902,45.8476164],[6.7684312,45.8476155],[6.7684237,45.8476402],[6.7684053,45.8476616],[6.7683972,45.84769],[6.7684063,45.8477154],[6.7684025,45.8477348],[6.7683774,45.8477619],[6.768353,45.8477858],[6.7683417,45.8478165],[6.7683019,45.8478393],[6.7682919,45.8478717],[6.7682708,45.8478964],[6.7682349,45.8479158],[6.7682205,45.8479646],[6.7682007,45.8479833],[6.7681789,45.8480158],[6.7681605,45.848062],[6.768129,45.8480989],[6.7680961,45.8481174],[6.7680796,45.8481421],[6.768081,45.8481831],[6.7681883,45.8481879],[6.7683704,45.848144],[6.7684391,45.8481281],[6.7685129,45.8481515],[6.7685263,45.8481795],[6.7684847,45.848257],[6.7683922,45.8483439],[6.7683479,45.848399],[6.7683613,45.8484317],[6.7684539,45.8484392],[6.7685947,45.8484037],[6.7687047,45.8483841],[6.7687623,45.8484009],[6.7687771,45.8484429],[6.7687221,45.8485027],[6.7686966,45.8485298],[6.7687033,45.8485728],[6.7689053,45.8485963],[6.7689018,45.8486181],[6.7688535,45.8486732],[6.7687637,45.8487152],[6.7687808,45.8487452],[6.768875,45.8487611],[6.7688711,45.8487893],[6.7688122,45.8488363],[6.7688154,45.8488641],[6.7689117,45.8488461],[6.7689839,45.8488581],[6.7690837,45.8488775],[6.7691499,45.8488764],[6.7691589,45.8488987],[6.7689839,45.848966],[6.7689637,45.8489943],[6.7689529,45.8490641],[6.7689656,45.8490816],[6.7690856,45.8490428],[6.7691189,45.8490481],[6.7691436,45.8490712],[6.7691137,45.8490908],[6.769106,45.8491251],[6.7691262,45.8491301],[6.7691621,45.8491129],[6.7691791,45.8491232],[6.7691754,45.8491384],[6.7691452,45.8491487],[6.7690906,45.8491743],[6.7690516,45.8492081],[6.7690608,45.8492282],[6.7691252,45.8492201],[6.7691735,45.8492287],[6.7691628,45.8492582],[6.7691856,45.8492578],[6.7691677,45.8493139],[6.7691841,45.8493215],[6.769238,45.8492965],[6.7692613,45.8493053],[6.7692719,45.8493157],[6.7692297,45.8493473],[6.769226,45.8493668],[6.769228,45.8493785],[6.7692599,45.8493871],[6.7692929,45.8493902],[6.7693443,45.8494053],[6.769389,45.8493915],[6.7694439,45.8494108],[6.7695028,45.8494171],[6.7695472,45.8494367],[6.7694989,45.8494645],[6.769454,45.8495181],[6.7694305,45.8495306],[6.7693969,45.8495913],[6.769384,45.8496115],[6.7693456,45.8496093],[6.7693292,45.8496198],[6.7693392,45.8496324],[6.7694036,45.8496315],[6.7694531,45.8496595],[6.7695511,45.8496834],[6.7695907,45.8496755],[6.7696594,45.8496946],[6.7697186,45.8496929],[6.7697049,45.8497401],[6.7696435,45.8497963],[6.7695634,45.8499197],[6.7695699,45.8499498],[6.769505,45.8500157],[6.7694825,45.8500613],[6.7694972,45.8500922],[6.7695145,45.8501048],[6.7696231,45.8500671],[6.7697565,45.8500363],[6.7698034,45.8500084],[6.7698423,45.8499753],[6.7698764,45.8499676],[6.7699388,45.8499898],[6.7699809,45.8499521],[6.7700268,45.8499561],[6.7700968,45.8499797],[6.7701365,45.8500015],[6.7701946,45.8500053],[6.7701966,45.8500251],[6.7701825,45.8500453],[6.7701584,45.8500613],[6.7700997,45.8500683],[6.7700712,45.8500891],[6.7700722,45.8501048],[6.7701111,45.8501244],[6.7701296,45.8501316],[6.7701705,45.8501277],[6.7702196,45.8501327],[6.7702588,45.8501514],[6.7701886,45.8501865],[6.7701309,45.8502239],[6.7700981,45.8502365],[6.7700572,45.8502617],[6.7700139,45.8503042],[6.7699783,45.8503597],[6.7699586,45.8503765],[6.7699528,45.8504313],[6.7700591,45.8505773],[6.7700487,45.8506294],[6.7700828,45.8506986],[6.7701083,45.8508092],[6.770114,45.8508764],[6.7701821,45.8510049],[6.7702956,45.8512124],[6.7703183,45.8512756],[6.770341,45.8513902],[6.7704112,45.8515312],[6.7704944,45.8516904],[6.7705507,45.8517778],[6.7706843,45.8520265],[6.7707874,45.8521645],[6.77088,45.8523546],[6.7709396,45.8524593],[6.7710106,45.8526036],[6.7710474,45.8527439],[6.7710762,45.8529024],[6.7711207,45.8530026],[6.7711442,45.8530664],[6.7711782,45.8531721],[6.7712175,45.8532978],[6.7713169,45.8534345],[6.7714242,45.8535639],[6.7716544,45.8538062],[6.7717041,45.8538827],[6.771746,45.8539775],[6.7718087,45.8541324],[6.771848,45.8542289],[6.7718951,45.854402],[6.7719579,45.8545041],[6.7719917,45.8546132],[6.7720051,45.8546935],[6.7720285,45.8548448],[6.7720887,45.8549778],[6.7721384,45.8550671],[6.7722195,45.8551819],[6.7723137,45.8553204],[6.7724,45.8554479],[6.7725491,45.8555955],[6.7726695,45.8557158],[6.7727689,45.855836],[6.7728446,45.8559573],[6.772905,45.8560483],[6.7729224,45.8560992],[6.7729674,45.8561319],[6.7730122,45.8561986],[6.7730907,45.856379],[6.773086,45.8564542],[6.7730874,45.8565172],[6.7730941,45.856576],[6.7730907,45.8566386],[6.7731062,45.8566863],[6.7731129,45.856726],[6.7731041,45.8567474],[6.7731196,45.8568091],[6.7731263,45.8568502],[6.7731772,45.8568955],[6.7732356,45.8569599],[6.773257,45.8570029],[6.7733201,45.8570275],[6.773441,45.857094],[6.7735904,45.8571516],[6.7737023,45.8572219],[6.7738364,45.857305],[6.7739432,45.8573672],[6.7740389,45.8574031],[6.77411,45.8574671],[6.774179,45.8575143],[6.7745921,45.857737],[6.7747792,45.8578762],[6.7749073,45.857971],[6.7751963,45.8581452],[6.7753538,45.858233],[6.7755027,45.8583394],[6.7756429,45.8584581],[6.7757019,45.8584898],[6.7757267,45.8585389],[6.7758118,45.8585884],[6.7758675,45.8586374],[6.7758717,45.8586675],[6.7759685,45.8587167],[6.7760286,45.8587239],[6.7760862,45.8587094],[6.7760836,45.8586656],[6.7760522,45.8585654],[6.7760156,45.8584798],[6.7759999,45.8583869],[6.7759999,45.8583213],[6.775958,45.8581573],[6.775893,45.858056],[6.7758373,45.8579318],[6.7758132,45.8578566],[6.7757689,45.8577692],[6.7757314,45.8576964],[6.7757012,45.8576091],[6.7756643,45.8575278],[6.7756382,45.8574283],[6.7755926,45.8573242],[6.7755731,45.8572065],[6.7755557,45.8571196],[6.7755429,45.8570459],[6.7755175,45.8569394],[6.7754953,45.8569044],[6.7754745,45.8568497],[6.7754745,45.8568007],[6.7754839,45.8567115],[6.7754598,45.8566288],[6.7754189,45.8565476],[6.7754129,45.8565111],[6.7754544,45.8564485],[6.7754992,45.8563191],[6.7755228,45.8562688],[6.7755577,45.8562085],[6.7755979,45.8562347],[6.7756355,45.8562566],[6.7757191,45.8562676],[6.7757448,45.85629],[6.77581,45.8562967],[6.7758637,45.8563194],[6.7759407,45.8563516],[6.7760259,45.8564131],[6.7760694,45.8564733],[6.7762422,45.8565895],[6.7762932,45.8566124],[6.776328,45.8566461],[6.7763772,45.8567151],[6.7764109,45.8567415],[6.776424,45.8567934],[6.7764394,45.8568067],[6.7764292,45.8568437],[6.7764416,45.8568612],[6.7764972,45.8568815],[6.7765338,45.8569019],[6.7765519,45.8569516],[6.7766238,45.8569737],[6.7767056,45.8569875],[6.776756,45.8569884],[6.7768083,45.8570033],[6.7768376,45.8570182],[6.7768738,45.857036],[6.77693,45.8570484],[6.7769711,45.8570801],[6.7770516,45.8571045],[6.7770672,45.8571233],[6.7770652,45.8571481],[6.7770765,45.857163],[6.777111,45.8571776],[6.7771512,45.8572015],[6.7771881,45.8571992],[6.7772032,45.8572066],[6.7772593,45.8573289],[6.7772997,45.8573415],[6.7773115,45.8573715],[6.7773457,45.8573777],[6.7773799,45.8574048],[6.7773811,45.8574512],[6.7773978,45.8574655],[6.7774098,45.8574869],[6.7774084,45.8575099],[6.7775056,45.8575402],[6.7775158,45.8575547],[6.777532,45.8575678],[6.7775792,45.8575632],[6.777677,45.8575876],[6.7777497,45.8576119],[6.7777807,45.8576295],[6.7777979,45.8576681],[6.7778172,45.8576711],[6.7779038,45.8576647],[6.7780234,45.8576487],[6.778063,45.8576783],[6.7781217,45.8576906],[6.778145,45.8577087],[6.7781792,45.8577076],[6.7781907,45.85772],[6.7782152,45.8577282],[6.7782196,45.8577734],[6.7782549,45.8578035],[6.7782515,45.8578239],[6.7782801,45.8578383],[6.7782768,45.8578782],[6.7783068,45.8578836],[6.7783124,45.8578978],[6.7783146,45.8579695],[6.7783381,45.8579847],[6.7783327,45.8580553],[6.7783373,45.8580968],[6.7783931,45.8581526],[6.7784008,45.8581645],[6.7784068,45.8581942],[6.7784291,45.8581998],[6.7784545,45.8582241],[6.778476,45.8582315],[6.7785097,45.8582501],[6.7785486,45.8582604],[6.7785632,45.8582833],[6.778572,45.8583014],[6.778593,45.8583188],[6.7786259,45.8583229],[6.7786418,45.8583351],[6.7786658,45.8583288],[6.7786838,45.8583316],[6.7786911,45.8583492],[6.7786913,45.8583829],[6.778715,45.8583929],[6.7787385,45.8583986],[6.778783,45.8583924],[6.7788134,45.8584002],[6.7788401,45.8584436],[6.7788595,45.8584493],[6.7788938,45.8584434],[6.778919,45.8584485],[6.7789411,45.8584672],[6.7789641,45.8584715],[6.7789851,45.8584864],[6.7790308,45.8585096],[6.7790353,45.8585407],[6.7790579,45.8585651],[6.7790885,45.8585704],[6.7791277,45.8586095],[6.7791332,45.8586307],[6.7791427,45.858653],[6.7791671,45.8586787],[6.7791657,45.8587208],[6.7791788,45.8587378],[6.7792165,45.8587616],[6.7792698,45.858776],[6.7793021,45.8587746],[6.7793603,45.8587644],[6.7794121,45.8587837],[6.7794647,45.8587875],[6.7794969,45.858777],[6.7795222,45.8588009],[6.7795081,45.8588346],[6.7795498,45.8588786],[6.7795954,45.8589064],[6.7796034,45.8589504],[6.7796305,45.8589627],[6.7796697,45.8589931],[6.7796753,45.8590165],[6.7796994,45.8590459],[6.7797,45.8590705],[6.7797274,45.8591036],[6.7797542,45.8591257],[6.7797744,45.8591347],[6.7797957,45.8591394],[6.7798638,45.8591324],[6.7798976,45.8591355],[6.7799184,45.859152],[6.7799304,45.8591808],[6.7799431,45.8591903],[6.7799726,45.8591987],[6.7799907,45.8592127],[6.7800048,45.8592337],[6.7800001,45.8592613],[6.7800035,45.8593024],[6.780022,45.8593638],[6.7800283,45.8594073],[6.7800083,45.8594516],[6.7800303,45.8594871],[6.7800767,45.8595145],[6.7801352,45.8595438],[6.7801932,45.8595999],[6.7802516,45.8596867],[6.7802777,45.8597556],[6.7803301,45.8598132],[6.7803466,45.8598313],[6.7803562,45.8598675],[6.7803801,45.8599031],[6.7804023,45.8599172],[6.7804132,45.8599338],[6.7804269,45.8599465],[6.7804595,45.8599626],[6.7804816,45.8599793],[6.7804938,45.8600098],[6.7805058,45.8600319],[6.780532,45.8600496],[6.7805702,45.860069],[6.7805743,45.860086],[6.780598,45.8601064],[6.780643,45.860114],[6.7807101,45.8601008],[6.7807337,45.8601011],[6.7807521,45.8601076],[6.7807517,45.8601227],[6.7807585,45.8601347],[6.7807654,45.860153],[6.7807557,45.860173],[6.7807572,45.8602366],[6.7807541,45.8602981],[6.7807594,45.860348],[6.7808051,45.8604285],[6.7808431,45.8604784],[6.7808744,45.8604986],[6.7809185,45.8605224],[6.7809456,45.8605284],[6.7809693,45.8605315],[6.7809906,45.8605291],[6.7811046,45.8604924],[6.7811404,45.8604827],[6.7811692,45.8604823],[6.7812021,45.8605267],[6.7812601,45.860553],[6.7813244,45.8605679],[6.781346,45.8605815],[6.7813539,45.8606085],[6.7813821,45.8606408],[6.7813955,45.8606734],[6.7814022,45.8606903],[6.7814572,45.8607435],[6.7814899,45.8608025],[6.7814753,45.8608414],[6.7815011,45.8608906],[6.7815021,45.8609751],[6.7815273,45.8610495],[6.7815541,45.8610923],[6.7815914,45.8611762],[6.7815912,45.8611978],[6.7816017,45.8612127],[6.7816518,45.8612263],[6.7817663,45.8612609],[6.7818455,45.861288],[6.7818877,45.8613039],[6.7819045,45.8613272],[6.7819521,45.8613422],[6.781989,45.8613674],[6.7820882,45.8614141],[6.7821995,45.8614332],[6.782276,45.8614379],[6.7823256,45.8614505],[6.7823484,45.8614906],[6.7823694,45.8615026],[6.7824644,45.8615233],[6.782663,45.8615583],[6.7827313,45.8615859],[6.7827144,45.8616067],[6.7827297,45.8616212],[6.7827475,45.8616329],[6.7827668,45.8616376],[6.7827717,45.8616417],[6.7827708,45.861647],[6.7827583,45.8616541],[6.7827363,45.8616559],[6.7827248,45.8616645],[6.782726,45.8616706],[6.7827351,45.8616745],[6.7827471,45.8616751],[6.7828189,45.861667],[6.7829428,45.861631],[6.7830195,45.8616243],[6.7830169,45.8616317],[6.7829672,45.8616614],[6.7829618,45.8616697],[6.7829661,45.8616775],[6.7829781,45.861681],[6.7829896,45.8616827],[6.7830468,45.8616889],[6.7831051,45.8617004],[6.7831257,45.8617062],[6.783136,45.8617125],[6.7831385,45.8617222],[6.783143,45.8617319],[6.7831384,45.8617455],[6.7831119,45.8617713],[6.7831017,45.8617978],[6.7830552,45.8618227],[6.7830242,45.8618475],[6.7829996,45.8618828],[6.7829928,45.8619192],[6.782998,45.8619305],[6.7830138,45.861944],[6.7830266,45.8619655],[6.7830399,45.8619752],[6.7830409,45.8619859],[6.7830383,45.8620028],[6.7830222,45.8620171],[6.7829973,45.862043],[6.7829718,45.8620521],[6.7829447,45.862055],[6.7829199,45.8620568],[6.782902,45.862064],[6.782862,45.8621221],[6.7828479,45.862193],[6.7828498,45.8622152],[6.7828634,45.8622359],[6.7829063,45.862269],[6.7829438,45.8622685],[6.7829693,45.8622636],[6.7830016,45.8622622],[6.7830197,45.8622682],[6.7830421,45.8622882],[6.7830725,45.8623478],[6.7830305,45.8624009],[6.7830248,45.8624564],[6.7830157,45.8624762],[6.78302,45.8625036],[6.7830311,45.8625239],[6.7830454,45.862544],[6.7830467,45.8625581],[6.7830404,45.8625706],[6.7830018,45.862603],[6.7829779,45.8626172],[6.7829348,45.86263],[6.7829039,45.8626428],[6.7828954,45.862652],[6.7828959,45.8626642],[6.7829485,45.8627351],[6.7831683,45.862949],[6.7831857,45.8629591],[6.7832004,45.8629599],[6.7833652,45.8629252],[6.7833879,45.8629252],[6.7834015,45.8629295],[6.7834054,45.8629426],[6.7833935,45.8629739],[6.7834192,45.8630366],[6.7834548,45.8631157],[6.7835151,45.8631876],[6.7835019,45.8632148],[6.7834883,45.8632866],[6.7835024,45.8633375],[6.7834796,45.8633776],[6.7834759,45.8634158],[6.7834816,45.8634612],[6.7835078,45.863493],[6.7835648,45.8635289],[6.7836114,45.8635409],[6.7837512,45.8635654],[6.7837922,45.8635625],[6.7838544,45.8635392],[6.7839121,45.8635266],[6.7840282,45.8635355],[6.7840851,45.8635602],[6.7841193,45.8636004],[6.7841911,45.8636163],[6.7843064,45.8636564],[6.7843902,45.8636634],[6.7844781,45.863655],[6.7845506,45.8636646],[6.7846216,45.8636597],[6.7846946,45.8636466],[6.7847772,45.8636245],[6.7848113,45.8636032],[6.7848317,45.8635726],[6.7848556,45.8635654],[6.7848837,45.8635677],[6.7849113,45.8635791],[6.7850011,45.8636429],[6.7850216,45.8636768],[6.7850574,45.8636956],[6.7850849,45.8637363],[6.7851342,45.8637859],[6.7851949,45.8638581],[6.7852204,45.8638833],[6.7852512,45.8638913],[6.7854048,45.8638916],[6.7854698,45.8639016],[6.7855214,45.8639142],[6.7855713,45.863917],[6.7856341,45.8639104],[6.7857429,45.8638858],[6.7858064,45.863867],[6.7859506,45.8638063],[6.7860173,45.8637657],[6.7860339,45.8637638],[6.7860378,45.8637732],[6.7860175,45.8638289],[6.7860184,45.8638405],[6.78603,45.8638488],[6.7860542,45.8638509],[6.7861467,45.8637939],[6.786163,45.863791],[6.7861746,45.8637932],[6.786192,45.8638226],[6.786201,45.8638245],[6.7862185,45.8638208],[6.7862473,45.8638007],[6.7862584,45.8638026],[6.7862607,45.8638117],[6.7862554,45.8638275],[6.7862647,45.8638378],[6.7862875,45.863843],[6.7863315,45.8638433],[6.7863891,45.8638647],[6.7864079,45.8639286],[6.7864394,45.8639347],[6.7864582,45.8639473],[6.7864763,45.8639809],[6.7865253,45.864014],[6.7866596,45.8640692],[6.7866734,45.8640893],[6.7866828,45.8641179],[6.7867097,45.8641308],[6.7868483,45.8641425],[6.7868954,45.8641971],[6.786947,45.864234],[6.7869651,45.86427],[6.7870094,45.8643041],[6.7870297,45.8643374],[6.7870362,45.864369],[6.7870449,45.8644073],[6.787057,45.8644392],[6.787108,45.8644768],[6.7871448,45.8644904],[6.7871529,45.8645077],[6.7871609,45.8645305],[6.7871924,45.8645497],[6.7872557,45.8646033],[6.7873755,45.8647196],[6.7874332,45.8647598],[6.7874419,45.8647794],[6.7874687,45.8647934],[6.7875076,45.8648121],[6.7875317,45.8648322],[6.7875841,45.8649064],[6.7875996,45.8649282],[6.7875908,45.8649461],[6.7875666,45.8649606],[6.7874942,45.8649839],[6.7873292,45.8650787],[6.7872185,45.8651265],[6.7869768,45.8652016],[6.7869155,45.8652146],[6.7868612,45.8652193],[6.7867737,45.8652198],[6.786713,45.8652179],[6.7866647,45.865223],[6.7865648,45.8652426],[6.7865379,45.8652494],[6.7865172,45.8652678],[6.7863761,45.8653912],[6.7863538,45.8654237],[6.7863281,45.8654574],[6.7863157,45.8654917],[6.7862771,45.8655097],[6.7862009,45.8655355],[6.7859917,45.8656334],[6.7859192,45.8656685],[6.7858186,45.8656884],[6.7857286,45.8657105],[6.7856604,45.8657222],[6.7855963,45.8657256],[6.7854055,45.8657237],[6.7852818,45.8657292],[6.785216,45.8657401],[6.7851875,45.8657567],[6.7851745,45.8657871],[6.7851799,45.8658037],[6.7851917,45.8658378],[6.7852619,45.8659357],[6.7852539,45.8659869],[6.7852466,45.8660647],[6.7852513,45.8662351],[6.78527,45.8663941],[6.7852794,45.8665632],[6.7852557,45.8666836],[6.7852557,45.8667414],[6.7852859,45.866788],[6.7852651,45.8668418],[6.7851846,45.8670399],[6.7851855,45.8671047],[6.7851947,45.8671527],[6.7852224,45.8672151],[6.7852163,45.8673073],[6.785199,45.8673676],[6.7851304,45.8674577],[6.7850795,45.8675156],[6.7850293,45.8675555],[6.7849816,45.8676632],[6.7849797,45.8677115],[6.7850185,45.8677892],[6.785079,45.867844],[6.7850994,45.8678714],[6.7851031,45.8679005],[6.7850656,45.867933],[6.7850212,45.8679446],[6.7848835,45.8679755],[6.784797,45.8679938],[6.7847483,45.8680078],[6.7847087,45.8680302],[6.7846751,45.868074],[6.7846457,45.8681147],[6.7846362,45.8681443],[6.7846242,45.8682323],[6.7846162,45.8682638],[6.7844955,45.8683846],[6.7844543,45.8684498],[6.7844432,45.8684742],[6.7844392,45.8685097],[6.7844353,45.8685492],[6.7844207,45.8685813],[6.7843858,45.86861],[6.7841978,45.8686964],[6.784067,45.8687483],[6.7840166,45.8687774],[6.7839604,45.8688183],[6.7838752,45.8689028],[6.783839,45.8689531],[6.7838162,45.8689999],[6.7838155,45.8690485],[6.783818,45.8690922],[6.7838075,45.869133],[6.7837686,45.8691969],[6.7837384,45.8692236],[6.7837037,45.8692419],[6.7836687,45.8692679],[6.7836339,45.8692802],[6.7835441,45.8692761],[6.7835024,45.8692782],[6.7834777,45.869288],[6.7834608,45.8693109],[6.7834503,45.8693427],[6.7834437,45.8694128],[6.783434,45.8694393],[6.7834154,45.8694526],[6.783383,45.8694589],[6.7833509,45.869457],[6.7832207,45.869446],[6.7831906,45.8694412],[6.7831477,45.8694482],[6.7830739,45.8694612],[6.783031,45.8694795],[6.7829895,45.8695129],[6.7828353,45.8696089],[6.7827239,45.8696746],[6.7826588,45.8697008],[6.7826131,45.8697251],[6.7825804,45.869747],[6.7825026,45.8698725],[6.7823652,45.8700336],[6.7822693,45.8701898],[6.782227,45.8703315],[6.7821868,45.8703815],[6.7821486,45.8704144],[6.7820875,45.8704618],[6.7820613,45.8705332],[6.7820279,45.8706444],[6.7820004,45.8707052],[6.7819595,45.8707434],[6.7819145,45.8707844],[6.7819017,45.8708182],[6.7819018,45.8708856],[6.7818991,45.8709371],[6.7818891,45.8709609],[6.7818488,45.8709819],[6.7818053,45.8709928],[6.7816579,45.8709999],[6.7810133,45.8712994],[6.7808738,45.8713769],[6.7804857,45.8715532],[6.7804098,45.8716113],[6.7803468,45.8716505],[6.7802663,45.8716748],[6.7796727,45.8717774],[6.7791988,45.8718811],[6.7789856,45.8719073],[6.7786865,45.871954],[6.7785899,45.8719661],[6.7783566,45.8720446],[6.7780508,45.8721566],[6.7779022,45.8722267],[6.7778215,45.8722649],[6.7777296,45.8722939],[6.7776089,45.8723302],[6.7775512,45.8723527],[6.777503,45.8723914],[6.7772457,45.8724962],[6.7768657,45.8726461],[6.77669,45.8727225],[6.7764775,45.8728187],[6.7762869,45.8728943],[6.7760291,45.8729771],[6.7758648,45.8729942],[6.7755965,45.8730003],[6.7753586,45.8730417],[6.7747811,45.8731782],[6.7743038,45.8733369],[6.7740607,45.8733952],[6.7738961,45.8734527],[6.7734411,45.8735707],[6.7732231,45.8736305],[6.7731115,45.8736557],[6.7730046,45.8736736],[6.7728125,45.8736968],[6.7726481,45.8737044],[6.772524,45.8736865],[6.7722449,45.8736313],[6.7719971,45.873574],[6.7718241,45.8735446],[6.7717713,45.8735314],[6.7717349,45.873518],[6.7716906,45.8734947],[6.7715763,45.8734246],[6.7715324,45.8734032],[6.7714874,45.8733901],[6.7714472,45.873384],[6.7713942,45.8733798],[6.7713472,45.8733798],[6.7712682,45.873384],[6.7711703,45.8734046],[6.7710599,45.8734369],[6.770943,45.8734821],[6.7708752,45.8735152],[6.7708236,45.873546],[6.7707468,45.8735989],[6.7706244,45.8737034],[6.7705031,45.8738103],[6.7703769,45.873936],[6.7702912,45.8740344],[6.7701775,45.8741729],[6.770129,45.8742362],[6.7701054,45.8742533],[6.7700699,45.8742739],[6.7700319,45.8742913],[6.7697994,45.8743808],[6.7695663,45.8744881],[6.769394,45.8745502],[6.7692487,45.8745919],[6.7692056,45.8746114],[6.7690647,45.8746866],[6.7690165,45.8747071],[6.7689554,45.8747314],[6.7688922,45.8747625],[6.7687858,45.874843],[6.7686954,45.8749006],[6.7685866,45.8749508],[6.7684905,45.8749824],[6.7679962,45.8752409],[6.7679349,45.8752678],[6.7678524,45.8752907],[6.767597,45.8753543],[6.7675104,45.8753831],[6.7674259,45.8754177],[6.7672729,45.8754964],[6.7670863,45.8756286],[6.7670236,45.8756618],[6.7669538,45.8756889],[6.7669005,45.8757045],[6.7668606,45.8757132],[6.7668191,45.8757174],[6.7667795,45.8757188],[6.7667386,45.8757183],[6.7666833,45.8757058],[6.7664346,45.8756245],[6.7663423,45.8756053],[6.7663021,45.8755965],[6.7662754,45.8755955],[6.7662598,45.875596],[6.766237,45.8755983],[6.7662075,45.8756021],[6.766174,45.8756119],[6.7661449,45.875623],[6.7660975,45.8756488],[6.766042,45.8756907],[6.7660218,45.8757225],[6.7659947,45.8758019],[6.7659768,45.8758266],[6.7659527,45.8758434],[6.7659253,45.8758569],[6.7658957,45.8758663],[6.7658635,45.8758714],[6.7658374,45.8758728],[6.7657992,45.8758694],[6.765655,45.8758504],[6.7655003,45.8758351],[6.7653472,45.8758112],[6.7651818,45.8757794],[6.7650477,45.8757479],[6.7649741,45.8757409],[6.7649213,45.8757596],[6.7648814,45.8757889],[6.7648421,45.87585],[6.764747,45.8759474],[6.7642493,45.8761446],[6.7640022,45.8762256],[6.7636621,45.8763183],[6.7634633,45.8763968],[6.7632161,45.8765209],[6.7631444,45.8765446],[6.7630866,45.8765587],[6.7628252,45.8766011],[6.7627443,45.8766102],[6.7626744,45.8766151],[6.7625936,45.876611],[6.7625302,45.8766025],[6.7622606,45.8765563],[6.7620685,45.876539],[6.7616578,45.8765302],[6.7615304,45.8765194],[6.7614023,45.8765205],[6.7612677,45.8765526]]}}]}
