{"type":"FeatureCollection","features":[{"type":"Feature","properties":{"osm_relation":9678296,"name":"Tour Du Mont Blanc - Variante du Col des Fours","ref":null,"roundtrip":false,"point_count":496,"length_m":6567.6,"source":"OpenStreetMap contributors (ODbL)","role":"alternative","slug":"col-des-fours","label":"Col des Fours"},"geometry":{"type":"LineString","coordinates":[[6.7168247,45.7244834],[6.7168455,45.7245166],[6.7168817,45.7245428],[6.7169333,45.72457],[6.7170071,45.7245939],[6.7170735,45.724606],[6.7171506,45.724621],[6.7172197,45.7246276],[6.7172813,45.7246365],[6.7173397,45.7246444],[6.7173947,45.7246505],[6.7174631,45.7246617],[6.7175268,45.7246617],[6.7175898,45.7246763],[6.7176307,45.7246866],[6.7176582,45.7247039],[6.7176843,45.7247287],[6.7177071,45.7247465],[6.717738,45.7247586],[6.7177574,45.7247675],[6.7177715,45.7247816],[6.7177843,45.7247867],[6.7178003,45.7247909],[6.7178406,45.7248251],[6.7179023,45.7248747],[6.717964,45.7249183],[6.7180082,45.7249431],[6.7180753,45.7249758],[6.7181356,45.7250213],[6.7182282,45.7250816],[6.718265,45.7251121],[6.7182764,45.7251369],[6.7182731,45.7251603],[6.7182704,45.7251851],[6.7182805,45.7252146],[6.7183354,45.7252797],[6.7184032,45.725363],[6.7184508,45.7254201],[6.7184997,45.725458],[6.7185467,45.7254889],[6.7186216,45.7255215],[6.7187567,45.7255823],[6.7188236,45.7256209],[6.7188662,45.7256592],[6.7189041,45.725759],[6.7189242,45.7258774],[6.7189557,45.7259561],[6.7190429,45.7261213],[6.7190985,45.7262145],[6.7191663,45.7262777],[6.7194787,45.726508],[6.7195686,45.7265604],[6.7196323,45.7265866],[6.7197382,45.7266138],[6.7199059,45.7266788],[6.7200829,45.7267687],[6.7202026,45.7268286],[6.7207067,45.7270223],[6.7211062,45.7274161],[6.7212638,45.7275162],[6.7213295,45.7276075],[6.7214381,45.7277231],[6.7215273,45.727843],[6.721487,45.7279591],[6.7215407,45.7282399],[6.7217634,45.7283959],[6.7217925,45.7284163],[6.7220664,45.728957],[6.7224314,45.729439],[6.7225107,45.7296243],[6.7225331,45.7297153],[6.7227477,45.7298951],[6.7229281,45.7301601],[6.7231242,45.7304739],[6.7231693,45.7305703],[6.7232705,45.7306327],[6.7233772,45.7307199],[6.7234298,45.7308168],[6.7235016,45.7308973],[6.7238202,45.7311511],[6.7239386,45.7312334],[6.7240767,45.7312633],[6.724358,45.7312675],[6.7247152,45.7311952],[6.7249876,45.73113],[6.7251943,45.7310984],[6.725533,45.7309342],[6.7259017,45.7307792],[6.7259636,45.7308499],[6.7263823,45.7306539],[6.7266533,45.7305579],[6.7268238,45.7304827],[6.7270707,45.730583],[6.7271331,45.7304961],[6.7272681,45.7304921],[6.7273128,45.7303669],[6.727524,45.7303543],[6.7279348,45.7305147],[6.7283869,45.7301012],[6.728637,45.7301319],[6.7288836,45.7299838],[6.7288352,45.7298438],[6.7289762,45.7298114],[6.729094,45.7298255],[6.7291218,45.7297401],[6.7292318,45.7297446],[6.7292601,45.7297078],[6.7293218,45.7297228],[6.7294064,45.7295283],[6.7296242,45.72929],[6.7298391,45.7291353],[6.7301493,45.7290753],[6.7303509,45.7291012],[6.7306306,45.7289419],[6.7308937,45.7288852],[6.7311666,45.7290255],[6.7313891,45.728953],[6.7316633,45.728942],[6.7318092,45.7288178],[6.7319944,45.7288372],[6.732258,45.7289259],[6.7324853,45.7290412],[6.732755,45.7290712],[6.7330071,45.7291574],[6.7333389,45.7291631],[6.7337167,45.729312],[6.7339284,45.7293639],[6.7340666,45.7294259],[6.7341972,45.7294845],[6.7343966,45.7296631],[6.7348714,45.7297189],[6.7350784,45.7297824],[6.7351708,45.7298108],[6.7352353,45.7298501],[6.7353489,45.7299278],[6.7354312,45.7300013],[6.7355877,45.730051],[6.7357025,45.7300585],[6.7357232,45.7300539],[6.735808,45.7300201],[6.7359207,45.7299983],[6.7360974,45.7299993],[6.736264,45.7300235],[6.7363792,45.7300001],[6.7365247,45.7300348],[6.7366295,45.7300139],[6.7367367,45.7300529],[6.7368101,45.7299796],[6.7368603,45.7298948],[6.7368913,45.7298208],[6.7370074,45.7297611],[6.7370651,45.7298124],[6.7371103,45.7297404],[6.7373497,45.7296809],[6.7375216,45.7295964],[6.7376277,45.729565],[6.7377065,45.7295499],[6.7377664,45.7295608],[6.7378072,45.7295804],[6.7378669,45.729658],[6.7380182,45.7297779],[6.7380562,45.7297924],[6.7381622,45.7298018],[6.7382473,45.7298433],[6.7383297,45.7299267],[6.7383485,45.7300363],[6.7384252,45.7301022],[6.7385817,45.7301282],[6.7386961,45.7301585],[6.7387395,45.7302485],[6.7387176,45.730387],[6.7386642,45.7304538],[6.7386988,45.7305167],[6.7387158,45.7305477],[6.7388524,45.7305425],[6.7388517,45.7305822],[6.7388787,45.7306077],[6.7388706,45.7306366],[6.7387618,45.7306762],[6.7386826,45.730718],[6.7386808,45.7307829],[6.7386648,45.730869],[6.7387102,45.7309281],[6.7388248,45.7310787],[6.7389732,45.7311664],[6.7390436,45.7312186],[6.7390726,45.7312577],[6.7390582,45.7313615],[6.7390106,45.7314165],[6.7390193,45.731464],[6.7390242,45.7314807],[6.7390597,45.7315082],[6.7390517,45.7315643],[6.7390322,45.7316044],[6.7390475,45.7316475],[6.7390968,45.7316838],[6.7391517,45.7316906],[6.7393012,45.7317995],[6.7395469,45.7320365],[6.7396887,45.7321017],[6.739821,45.7321594],[6.7402157,45.7321933],[6.7403844,45.7321612],[6.7404972,45.732138],[6.7405758,45.7321693],[6.7408611,45.7323239],[6.7409009,45.7323533],[6.7408741,45.7323865],[6.7408204,45.7323973],[6.740809,45.7324437],[6.7407075,45.7324959],[6.7407671,45.7325666],[6.7406801,45.7326418],[6.7406929,45.7326987],[6.7406961,45.7327776],[6.740613,45.732856],[6.7405876,45.7329103],[6.7406221,45.7330128],[6.7406467,45.7331618],[6.7406944,45.7332967],[6.7407288,45.7333938],[6.7407223,45.7334935],[6.7407795,45.733569],[6.7407734,45.7336617],[6.7408304,45.733698],[6.7409147,45.7337038],[6.7410035,45.7336713],[6.741121,45.7336129],[6.7412665,45.7335658],[6.7413593,45.7335254],[6.7415758,45.7334258],[6.7416724,45.7334364],[6.7419541,45.7333665],[6.7421589,45.7333119],[6.7423056,45.7333194],[6.7426565,45.7332689],[6.7427708,45.7332207],[6.7429533,45.7331609],[6.7431816,45.7331189],[6.7434483,45.7330878],[6.7435638,45.7330217],[6.7436646,45.7329953],[6.7438081,45.732992],[6.7441749,45.7329979],[6.7444216,45.7330091],[6.7445318,45.7330027],[6.7446962,45.7329524],[6.7449926,45.7329373],[6.7451959,45.7328992],[6.7454348,45.7328738],[6.7455447,45.7328072],[6.7456798,45.7326365],[6.7457841,45.7325874],[6.7459862,45.7325549],[6.7461596,45.7325027],[6.7464403,45.7324603],[6.746545,45.7324072],[6.7467179,45.7323566],[6.7468187,45.7323711],[6.7469723,45.732416],[6.7471561,45.7324539],[6.7472736,45.73245],[6.747446,45.7324398],[6.74758,45.7324307],[6.7476875,45.7323987],[6.7478213,45.7323676],[6.7479636,45.7323845],[6.7481258,45.7323716],[6.7482408,45.7324141],[6.7483655,45.7323499],[6.7484459,45.732157],[6.7485044,45.732115],[6.7485985,45.7320669],[6.7487105,45.731994],[6.7488303,45.7319002],[6.7488426,45.731753],[6.7489815,45.7315757],[6.7491594,45.7315288],[6.7493069,45.7312975],[6.7494573,45.7311929],[6.7495302,45.7311656],[6.7496004,45.7311719],[6.7496069,45.7311352],[6.7497095,45.7310828],[6.7498176,45.7310518],[6.7498969,45.7309856],[6.7500647,45.7309003],[6.7502008,45.7308537],[6.7503039,45.7307836],[6.750589,45.7306338],[6.7507941,45.7305188],[6.7509021,45.7304895],[6.7512925,45.7304286],[6.751865,45.7301952],[6.7519753,45.7301768],[6.7521474,45.7301133],[6.7522342,45.7300557],[6.7526287,45.7298873],[6.7527317,45.7298466],[6.7528339,45.7298335],[6.7529696,45.7298435],[6.7531182,45.7298176],[6.7532203,45.7297924],[6.7533695,45.7297881],[6.7535601,45.7297407],[6.7537277,45.7297041],[6.7539084,45.7297108],[6.7539841,45.729689],[6.7541069,45.7296572],[6.7542559,45.7296206],[6.7543237,45.7295794],[6.7543823,45.7295324],[6.7544715,45.7295146],[6.7545673,45.7295209],[6.7549677,45.7296289],[6.7551196,45.7297063],[6.7553885,45.7297868],[6.7555698,45.7298],[6.7557309,45.7297895],[6.7557423,45.729704],[6.7559201,45.7296186],[6.7560418,45.7295714],[6.756114,45.7295464],[6.7561405,45.7295456],[6.7562122,45.7295436],[6.7564065,45.7295652],[6.756635,45.7296097],[6.7570891,45.7297538],[6.7572966,45.7297905],[6.757489,45.7298143],[6.7576756,45.7298239],[6.758087,45.729822],[6.758431,45.7298501],[6.7586915,45.7298476],[6.7591193,45.7298718],[6.7593025,45.7298876],[6.7594313,45.7299378],[6.7595546,45.7299916],[6.7596163,45.7300119],[6.7597233,45.730012],[6.7599808,45.7299932],[6.7601723,45.7299568],[6.7603373,45.7298882],[6.760486,45.7298046],[6.7606108,45.7297688],[6.7606744,45.7297652],[6.7607897,45.7298107],[6.7609076,45.7298193],[6.760993,45.7298029],[6.7610409,45.7297724],[6.7611496,45.7296438],[6.761204,45.7296099],[6.7612936,45.7295969],[6.76138,45.7296056],[6.7614517,45.7296362],[6.7616386,45.729754],[6.7618425,45.7298653],[6.7619565,45.7299079],[6.7621225,45.7299301],[6.7623169,45.7299401],[6.7624743,45.7299582],[6.7627777,45.7300246],[6.7629175,45.73007],[6.7630158,45.7301393],[6.763205,45.7303127],[6.7633248,45.7303733],[6.7634502,45.7303928],[6.7635779,45.7304011],[6.7637772,45.7303859],[6.7638995,45.7303827],[6.7639627,45.7303926],[6.7640469,45.7304286],[6.7643158,45.7305987],[6.7647595,45.730867],[6.7648448,45.7308868],[6.7649192,45.7308778],[6.7649635,45.7308402],[6.7649705,45.7308002],[6.7649506,45.7307544],[6.7648459,45.7306816],[6.764622,45.7305571],[6.764518,45.7304992],[6.7643251,45.7302294],[6.7641698,45.7300549],[6.7638544,45.7298893],[6.7637678,45.7298798],[6.7636887,45.7298626],[6.7636384,45.7298201],[6.7636281,45.729764],[6.7636361,45.7297005],[6.7636569,45.7296252],[6.7636583,45.7295658],[6.7635497,45.7293885],[6.7635303,45.7292824],[6.7635272,45.7291366],[6.7635133,45.7290788],[6.7634182,45.728872],[6.7633744,45.7288133],[6.7633272,45.7287501],[6.7632461,45.7286923],[6.7631788,45.7286612],[6.7629869,45.7286069],[6.7628919,45.7285614],[6.7626132,45.728401],[6.7624547,45.7282785],[6.7621983,45.7280726],[6.7618964,45.7279022],[6.7617999,45.7278688],[6.7617708,45.7278327],[6.7617685,45.7277988],[6.7618031,45.7277782],[6.761863,45.727781],[6.7619304,45.7278141],[6.7620125,45.727863],[6.7621461,45.7279145],[6.7622928,45.7279451],[6.7624333,45.7279862],[6.7626257,45.7280663],[6.7627708,45.7281071],[6.7629664,45.7281405],[6.7631785,45.7281649],[6.7632871,45.7281551],[6.763424,45.7281339],[6.7635248,45.7281212],[6.7636737,45.7281376],[6.7642499,45.7282778],[6.7643852,45.7283367],[6.764482,45.7284226],[6.7646922,45.7287048],[6.7647449,45.7287402],[6.7648007,45.7287477],[6.7648354,45.728735],[6.764873,45.7287018],[6.7648502,45.7285848],[6.7648408,45.7284524],[6.764796,45.7282261],[6.7647207,45.7280745],[6.7646122,45.727935],[6.7645465,45.7278828],[6.7644803,45.7278336],[6.7642943,45.7277654],[6.7638176,45.7276409],[6.7637018,45.7275964],[6.7636602,45.7275441],[6.7636616,45.7275025],[6.7636773,45.7274671],[6.763726,45.7274436],[6.7637922,45.7274424],[6.7639311,45.72745],[6.7640741,45.7274414],[6.7643431,45.7274165],[6.7645153,45.7274261],[6.7646543,45.7274427],[6.7647962,45.7274744],[6.7649266,45.7275477],[6.7650762,45.7276541],[6.7652622,45.7278282],[6.765523,45.728041],[6.7657006,45.728193],[6.7658753,45.7283059],[6.7660685,45.7284825],[6.7661273,45.7285485],[6.7661886,45.7285688],[6.7662263,45.728543],[6.7662309,45.7285092],[6.7661814,45.7284417],[6.7661621,45.7284059],[6.7660924,45.7282768],[6.7659822,45.7280529],[6.7658988,45.7279342],[6.7658394,45.727871],[6.7658291,45.727833],[6.7658436,45.7277993],[6.76589,45.7277769],[6.7659549,45.7277852],[6.7661112,45.7278592],[6.7663399,45.7279172],[6.7663798,45.7279255],[6.7665197,45.727991],[6.7665843,45.7280044],[6.7666479,45.7279925],[6.7666742,45.7279555],[6.7666484,45.727874],[6.7666039,45.7277957],[6.7665999,45.7277252],[6.7666364,45.7276725],[6.7666711,45.7276307],[6.7667614,45.7275956],[6.7668756,45.7275512],[6.766977,45.7276099],[6.7670591,45.7275439],[6.7671063,45.7275195],[6.7671664,45.7274884],[6.7673465,45.7274182],[6.7673769,45.7274378],[6.767454,45.7274447]]}}]}
