{"type":"FeatureCollection","features":[{"type":"Feature","properties":{"osm_relation":9678380,"name":"Tour Du Mont Blanc - Variante de la Fenêtre d'Arpette","ref":null,"roundtrip":false,"point_count":1258,"length_m":9993.8,"source":"OpenStreetMap contributors (ODbL)","role":"alternative","slug":"fenetre-darpette","label":"Fenêtre d'Arpette"},"geometry":{"type":"LineString","coordinates":[[7.0087703,46.0323069],[7.0087632,46.0322539],[7.0087735,46.0322027],[7.00879,46.0321884],[7.0088774,46.0321397],[7.0089454,46.0320896],[7.008984,46.0320505],[7.0091244,46.0319897],[7.0091742,46.0319723],[7.0093002,46.0319282],[7.0093508,46.0319133],[7.0093588,46.0319124],[7.0093684,46.031913],[7.0093768,46.0319166],[7.0093783,46.0319253],[7.0093753,46.0319522],[7.0093565,46.0319763],[7.0093573,46.0319825],[7.0093604,46.0319888],[7.0093731,46.0319917],[7.0093867,46.0319898],[7.0094537,46.0319613],[7.0094807,46.0319558],[7.0095327,46.0319609],[7.0095628,46.0319434],[7.0095791,46.0319245],[7.0096676,46.0318109],[7.0097331,46.0316778],[7.0097658,46.0316348],[7.0098085,46.0315789],[7.009868,46.0315044],[7.0099997,46.0312109],[7.0100978,46.0310294],[7.0103536,46.0307824],[7.0104759,46.0306496],[7.0106432,46.0305851],[7.01104,46.030449],[7.0111038,46.0303183],[7.0113125,46.030157],[7.0113929,46.0302114],[7.0116533,46.0300407],[7.0117402,46.0299976],[7.0117865,46.029981],[7.0118026,46.0299573],[7.0118523,46.0299517],[7.0118858,46.0299254],[7.0119153,46.0298883],[7.011928,46.0298665],[7.0120192,46.0298255],[7.0121071,46.0297603],[7.0121898,46.0296868],[7.0122177,46.0296593],[7.0123465,46.0296402],[7.0124772,46.0295895],[7.0125168,46.0295555],[7.0126026,46.0295369],[7.0126368,46.0295112],[7.0126616,46.0294815],[7.0127106,46.0294437],[7.0127562,46.0294149],[7.0127884,46.0293981],[7.0128138,46.0293907],[7.0128601,46.0294032],[7.0129171,46.0293553],[7.0129748,46.0293301],[7.013007,46.0293031],[7.0130458,46.0292789],[7.0130888,46.0292463],[7.0131116,46.029224],[7.0131531,46.0292017],[7.0131786,46.0291975],[7.0132108,46.0292077],[7.0132577,46.0291961],[7.0132852,46.0291947],[7.0133134,46.029197],[7.0133335,46.0292086],[7.0133248,46.029224],[7.0133422,46.0292324],[7.0133664,46.0292277],[7.0134006,46.0292193],[7.013416,46.0292408],[7.0134374,46.0292398],[7.0134877,46.0292259],[7.0135175,46.0292272],[7.0135374,46.0292417],[7.0135823,46.0292361],[7.0136299,46.0292543],[7.0136406,46.0292775],[7.0136748,46.0292617],[7.0137231,46.0292608],[7.0138796,46.0292691],[7.0139384,46.0292585],[7.0139712,46.0292328],[7.0140047,46.029244],[7.0140376,46.0292538],[7.0140363,46.029285],[7.0140363,46.0292992],[7.0140423,46.029305],[7.0140597,46.0293055],[7.0140835,46.0292875],[7.0140989,46.0292596],[7.0141187,46.0292445],[7.0141345,46.0292466],[7.0141352,46.0292675],[7.0141466,46.0292882],[7.0141707,46.0292924],[7.0142079,46.0292745],[7.0142361,46.0292722],[7.0142592,46.0292908],[7.0142849,46.0292928],[7.0143102,46.0292708],[7.0143377,46.0292475],[7.0143554,46.0292477],[7.0143729,46.0292526],[7.0143688,46.0292727],[7.0143564,46.0292862],[7.0143709,46.0293034],[7.0143749,46.0293246],[7.0143943,46.0293339],[7.0144071,46.0293166],[7.0144329,46.0292945],[7.0144647,46.0292754],[7.0144835,46.0292938],[7.0144906,46.029308],[7.0145207,46.0293062],[7.0145402,46.0293159],[7.0145502,46.0293281],[7.0145868,46.0293306],[7.0146102,46.0293332],[7.0146273,46.0293416],[7.0146267,46.0293597],[7.0146166,46.0293825],[7.0146277,46.0294011],[7.0146408,46.0294065],[7.0146733,46.0294077],[7.0147175,46.0293904],[7.014744,46.0293688],[7.0147615,46.0293502],[7.0147732,46.0293325],[7.0148047,46.0293276],[7.0148302,46.0293374],[7.0148409,46.0293548],[7.0148543,46.0293718],[7.0148728,46.02938],[7.0148993,46.029363],[7.0149304,46.0293644],[7.0149469,46.0293569],[7.0149683,46.0293511],[7.0149707,46.0293253],[7.014965,46.0293057],[7.0149918,46.0292885],[7.0150669,46.0292361],[7.0151031,46.0292156],[7.015136,46.02921],[7.0151514,46.0291916],[7.0151671,46.0291579],[7.0152,46.0291518],[7.0152084,46.0291688],[7.0152345,46.0291777],[7.0152778,46.0291721],[7.0152949,46.0291991],[7.015324,46.0292326],[7.015324,46.0292431],[7.0153572,46.0292452],[7.0153814,46.029231],[7.0153981,46.0292431],[7.0154048,46.0292689],[7.0153951,46.0292948],[7.0154162,46.0293069],[7.0154431,46.0293076],[7.0154679,46.029295],[7.0155051,46.0292875],[7.0155312,46.0292862],[7.0155554,46.0292713],[7.0156127,46.0292659],[7.0156607,46.0292522],[7.0156811,46.0292142],[7.0157039,46.0292026],[7.015711,46.0292284],[7.0157254,46.0292398],[7.0157103,46.0292505],[7.015716,46.0292696],[7.0157415,46.0292864],[7.015774,46.0292831],[7.0157867,46.029255],[7.0158474,46.029234],[7.0158742,46.0292352],[7.0158803,46.0292568],[7.0158749,46.0292834],[7.015894,46.0292997],[7.0159322,46.0293087],[7.0159544,46.0293022],[7.0159755,46.0292782],[7.016004,46.0292552],[7.0160335,46.0292335],[7.0160643,46.0291956],[7.0161096,46.0291965],[7.0161616,46.0291816],[7.0164731,46.029082],[7.0166373,46.0290071],[7.0167791,46.0288587],[7.0169967,46.0287203],[7.0171704,46.028565],[7.0175725,46.0283288],[7.0176713,46.0282789],[7.0177276,46.0282398],[7.0179196,46.0280624],[7.0184644,46.0277676],[7.0191303,46.0272832],[7.0194393,46.027108],[7.0196453,46.0270499],[7.0199114,46.0270892],[7.0205607,46.0267088],[7.0206311,46.0266485],[7.0207129,46.0266056],[7.0207599,46.026546],[7.0208766,46.0264557],[7.0208974,46.026412],[7.0209919,46.0263742],[7.0210831,46.026344],[7.0211287,46.0263333],[7.0211535,46.0263309],[7.0211609,46.0263454],[7.0212159,46.0263589],[7.0212212,46.0263742],[7.0211944,46.0263859],[7.0211877,46.0264008],[7.0212138,46.0264273],[7.0212534,46.026438],[7.0212977,46.0264702],[7.0213238,46.0265032],[7.0213996,46.0265102],[7.0214995,46.0264702],[7.0215444,46.0264241],[7.0216343,46.0264031],[7.0216618,46.0263742],[7.0216443,46.0263379],[7.0216799,46.0263021],[7.0216671,46.0262667],[7.0216423,46.0262443],[7.021651,46.0262257],[7.0216068,46.0262355],[7.0216108,46.0262076],[7.0216484,46.0261643],[7.0217268,46.0261093],[7.0217992,46.0260637],[7.0218482,46.0259864],[7.021867,46.0259478],[7.0219689,46.0258979],[7.0220172,46.0258388],[7.0220471,46.0257918],[7.0223514,46.0255643],[7.0223846,46.0255124],[7.0224363,46.0254915],[7.0224859,46.0254533],[7.0225456,46.0253928],[7.0225891,46.0253737],[7.0226609,46.0253127],[7.0226884,46.0252778],[7.0227461,46.0252438],[7.0227863,46.0252443],[7.0228098,46.0252149],[7.0228165,46.0252024],[7.0228453,46.0252047],[7.0228708,46.0251865],[7.0229164,46.0251768],[7.0229975,46.0251302],[7.0230491,46.0251339],[7.023076,46.0251148],[7.0233572,46.0249648],[7.0234956,46.0249847],[7.0235635,46.0248739],[7.0235816,46.024856],[7.0236345,46.0248466],[7.0236365,46.0248788],[7.0236238,46.0249174],[7.0236466,46.0249449],[7.0236862,46.0249174],[7.0237103,46.0248723],[7.0237458,46.0247926],[7.0237747,46.0247624],[7.0238263,46.0247638],[7.0238645,46.0247666],[7.0239835,46.0247016],[7.0239725,46.0246637],[7.0240409,46.0246069],[7.0240806,46.0246031],[7.0241696,46.0245747],[7.024226,46.0245822],[7.0243225,46.0245426],[7.0243742,46.0245016],[7.0244023,46.0245002],[7.0244151,46.0245346],[7.024405,46.0245594],[7.0244238,46.0245696],[7.0244412,46.0245543],[7.024464,46.024517],[7.0245016,46.0244839],[7.0245425,46.0244411],[7.0245465,46.0244011],[7.0246088,46.0243368],[7.0246531,46.0243042],[7.0246665,46.0243145],[7.0246457,46.0243322],[7.0246638,46.0243536],[7.0246672,46.0243745],[7.0246665,46.0243927],[7.0246826,46.0243932],[7.0247195,46.0243694],[7.0247617,46.024348],[7.0247819,46.0243564],[7.0247705,46.0243783],[7.0247899,46.0243843],[7.0248335,46.0243699],[7.0248999,46.0243524],[7.0249528,46.0243403],[7.0250155,46.0243245],[7.0251285,46.0242863],[7.0251279,46.02426],[7.0251426,46.0241957],[7.0251533,46.0241399],[7.0252023,46.0241049],[7.0252204,46.0241175],[7.0252646,46.0241403],[7.0253337,46.0241431],[7.0253558,46.0241292],[7.0253357,46.024097],[7.0253726,46.024077],[7.0253914,46.0240626],[7.0254175,46.024071],[7.0254497,46.0240374],[7.0254879,46.0240402],[7.0255268,46.02401],[7.0255657,46.0240011],[7.0255932,46.0239494],[7.0256249,46.0239371],[7.0256717,46.0239303],[7.0256972,46.0238973],[7.0257488,46.0238251],[7.0258232,46.0237632],[7.025893,46.0237497],[7.0259842,46.0237371],[7.0260311,46.0236961],[7.026072,46.0236161],[7.0261364,46.0235565],[7.0261558,46.0235248],[7.026188,46.0235048],[7.0262021,46.0234522],[7.0262182,46.0234159],[7.0262785,46.023373],[7.0263154,46.0233432],[7.0263174,46.0233199],[7.0263503,46.023279],[7.0265025,46.0231817],[7.0266024,46.0231303],[7.0267083,46.0230933],[7.0268205,46.0229998],[7.0269488,46.0229562],[7.0269793,46.0229225],[7.026996,46.0229074],[7.0269759,46.0228846],[7.0269894,46.0228559],[7.0270114,46.0228283],[7.0270463,46.0228175],[7.0271,46.0228003],[7.0271429,46.0227882],[7.027161,46.0227919],[7.0272093,46.022812],[7.027279,46.0228068],[7.0273112,46.0228124],[7.0273608,46.0228464],[7.0274057,46.0228529],[7.0274446,46.0228515],[7.0274768,46.0228594],[7.027505,46.0228241],[7.027549,46.022838],[7.0275861,46.0228841],[7.0275915,46.0229474],[7.0275874,46.0229908],[7.0276065,46.023016],[7.0276102,46.0230429],[7.0275895,46.0230708],[7.0275861,46.0230937],[7.0276082,46.0231058],[7.0276337,46.0231016],[7.0276639,46.0230699],[7.0277088,46.0230573],[7.0277504,46.0230354],[7.0277873,46.0230387],[7.0278302,46.0230159],[7.0278885,46.0229935],[7.0279334,46.0229759],[7.027973,46.0229619],[7.0280045,46.0229414],[7.028024,46.0229381],[7.0280629,46.0228958],[7.0280796,46.0228674],[7.0280937,46.0228427],[7.0281105,46.0228404],[7.0281172,46.0228594],[7.0281404,46.0228817],[7.0281427,46.0229093],[7.028146,46.0229395],[7.0281581,46.0229665],[7.0281581,46.0229921],[7.0281433,46.0230238],[7.0281319,46.0230387],[7.0281286,46.0230555],[7.028148,46.0230676],[7.028142,46.023089],[7.0281742,46.0231174],[7.0281728,46.0231379],[7.0281675,46.0231565],[7.0281474,46.0231626],[7.0281326,46.0231747],[7.0281433,46.0231924],[7.0281748,46.0232021],[7.028203,46.0231993],[7.028209,46.0231826],[7.0282613,46.0231817],[7.0282888,46.0231695],[7.0283063,46.0231481],[7.0283036,46.0231113],[7.0283217,46.023082],[7.0283391,46.0230625],[7.0283425,46.0230434],[7.0284015,46.0230112],[7.0284297,46.0229889],[7.028429,46.02296],[7.0284276,46.022926],[7.0284498,46.022893],[7.0284907,46.0228613],[7.0285376,46.0228404],[7.0286104,46.022818],[7.0286858,46.0227533],[7.0287247,46.02273],[7.0287968,46.0227112],[7.0288233,46.0226914],[7.028826,46.0226425],[7.0288353,46.0226159],[7.0288602,46.0226187],[7.0288729,46.0226448],[7.028895,46.0226425],[7.0289165,46.0226127],[7.0289627,46.0225849],[7.0289902,46.0225745],[7.029011,46.0225382],[7.0290519,46.0225126],[7.0290818,46.0224678],[7.0291619,46.0224539],[7.029254,46.0224338],[7.029296,46.0224045],[7.0293088,46.0223701],[7.0292987,46.0223254],[7.0293047,46.0223156],[7.0293315,46.022338],[7.0293632,46.022339],[7.0294194,46.0223086],[7.0295005,46.0222914],[7.0295555,46.0222677],[7.0296199,46.0222253],[7.0296957,46.0221731],[7.0297278,46.0221545],[7.0298325,46.0221391],[7.0298713,46.0221107],[7.0298854,46.0220819],[7.029927,46.022074],[7.0299612,46.0220842],[7.0299867,46.0220646],[7.0300135,46.022039],[7.0300651,46.0219948],[7.030096,46.0220018],[7.0301101,46.0219869],[7.0301268,46.0219529],[7.030165,46.0219454],[7.0301563,46.0219273],[7.0301852,46.0219194],[7.0301878,46.021898],[7.0302247,46.0218654],[7.030277,46.0218323],[7.0304245,46.0217648],[7.0305137,46.0217303],[7.0305714,46.0216977],[7.0306076,46.0216642],[7.0306224,46.0216256],[7.0306364,46.0216],[7.030672,46.0215706],[7.0306901,46.0215464],[7.0306881,46.0215245],[7.030737,46.0215092],[7.0307478,46.0214835],[7.0307598,46.0214589],[7.0308007,46.0214212],[7.0308483,46.0213765],[7.0308886,46.0213411],[7.0309067,46.0212926],[7.0309818,46.0212167],[7.03102,46.0211767],[7.0310381,46.0211455],[7.0310817,46.0211041],[7.0310904,46.021084],[7.03113,46.0210547],[7.0311695,46.021031],[7.0311896,46.0210058],[7.0312171,46.0209723],[7.0312406,46.0209118],[7.03125,46.020874],[7.0312963,46.0208447],[7.0313264,46.0207781],[7.031368,46.0207167],[7.0313868,46.0206561],[7.0314646,46.020549],[7.0314927,46.0204792],[7.0315102,46.0203907],[7.031542,46.0203696],[7.0316336,46.020346],[7.0316657,46.0203027],[7.0317013,46.0202268],[7.0317402,46.0201607],[7.0317569,46.0201057],[7.031824,46.0200471],[7.0318783,46.0199865],[7.0319306,46.0199395],[7.0319543,46.0200123],[7.0319696,46.0200652],[7.031946,46.020157],[7.0319601,46.0202273],[7.0319906,46.0202714],[7.0320003,46.0202855],[7.0320237,46.0203476],[7.0320406,46.0203646],[7.0320607,46.0203851],[7.0320533,46.0204592],[7.0320714,46.020523],[7.0320914,46.0205858],[7.0321093,46.0206515],[7.0321301,46.0206778],[7.0321586,46.0207015],[7.0321898,46.0207032],[7.0321948,46.0207297],[7.0322018,46.0207465],[7.0322401,46.0207441],[7.0322595,46.0207574],[7.0322699,46.0207777],[7.0322716,46.0207965],[7.03229,46.0208082],[7.0323185,46.0208077],[7.032339,46.0208005],[7.0323655,46.0208135],[7.0323832,46.0208387],[7.0323851,46.0208671],[7.0324188,46.0208896],[7.0324694,46.0208936],[7.0324866,46.0209099],[7.0324912,46.0209346],[7.0325173,46.0209602],[7.032565,46.0210175],[7.0326005,46.0210561],[7.0326186,46.0210985],[7.0326515,46.0211367],[7.0326796,46.0212023],[7.0327299,46.0212852],[7.0327561,46.0213467],[7.0327762,46.0214104],[7.0328043,46.021444],[7.032803,46.0214775],[7.0328332,46.0215096],[7.0328291,46.021558],[7.0328325,46.0215869],[7.0328265,46.0216179],[7.0328245,46.0216656],[7.0328426,46.0216996],[7.0328325,46.0217275],[7.0328251,46.0217648],[7.0328593,46.0217722],[7.0329103,46.0217448],[7.0329351,46.0217392],[7.0329358,46.021769],[7.0329686,46.021809],[7.0330746,46.0219082],[7.0331047,46.0219664],[7.0331182,46.0220009],[7.0331309,46.0220325],[7.0331597,46.0220367],[7.0331778,46.0220074],[7.0332134,46.0219638],[7.0332442,46.021931],[7.0333227,46.0218602],[7.0333374,46.0218966],[7.0333529,46.0219273],[7.0333575,46.0219524],[7.0333897,46.0219478],[7.0334072,46.0219133],[7.0334902,46.0218373],[7.0335299,46.0217923],[7.0335419,46.0217327],[7.0335638,46.0216834],[7.0336251,46.0216474],[7.0337003,46.0216292],[7.0337632,46.0215818],[7.03383,46.0215267],[7.0339449,46.0214831],[7.0339852,46.0214728],[7.0340194,46.0214714],[7.0340127,46.0215022],[7.0340522,46.0215082],[7.0341151,46.0215014],[7.0341909,46.0214725],[7.034188,46.0214403],[7.0343785,46.0213765],[7.0344417,46.0213647],[7.0344564,46.0213155],[7.034586,46.0212428],[7.0346121,46.0212451],[7.0346645,46.0212149],[7.0347007,46.0211883],[7.034711,46.0211674],[7.0347784,46.0211646],[7.0348413,46.0211491],[7.0348755,46.0211028],[7.0349528,46.021084],[7.0349756,46.0210556],[7.0350406,46.0209976],[7.035097,46.02097],[7.0351097,46.0209038],[7.0351546,46.0208624],[7.0353076,46.0208157],[7.0358331,46.0205724],[7.0359217,46.0205509],[7.0359888,46.0205108],[7.0360921,46.020489],[7.0361631,46.020441],[7.0361833,46.0204028],[7.0362177,46.0203768],[7.0362905,46.0203507],[7.0363227,46.0203125],[7.0363887,46.0202858],[7.0365071,46.0202158],[7.0365863,46.0202366],[7.036647,46.0202269],[7.0368532,46.0201249],[7.036974,46.0199983],[7.0370519,46.0199308],[7.0371763,46.0199124],[7.037289,46.0198645],[7.0373654,46.0197919],[7.0374043,46.0197547],[7.0375049,46.0198264],[7.0375666,46.0198441],[7.0377477,46.0197565],[7.0379126,46.0196634],[7.0379971,46.0196923],[7.0380749,46.0196736],[7.0380953,46.0196283],[7.0381795,46.0196034],[7.0381661,46.0196387],[7.0381828,46.0196471],[7.0382056,46.0196336],[7.0382251,46.0196494],[7.0382194,46.0196657],[7.038215,46.0196802],[7.0382224,46.0196881],[7.0382479,46.0196839],[7.0382546,46.0196899],[7.0382439,46.0197141],[7.0382516,46.0197332],[7.0383102,46.0197335],[7.0383555,46.0197167],[7.0383934,46.0197027],[7.0384145,46.0197104],[7.0384648,46.0197037],[7.0385084,46.0196797],[7.0385288,46.0196492],[7.0385852,46.0196634],[7.0387126,46.0196154],[7.0388661,46.0195437],[7.0390546,46.0194115],[7.0391116,46.0193966],[7.0391746,46.0194171],[7.0392691,46.0194185],[7.0393771,46.0193817],[7.0395233,46.0193528],[7.0396581,46.0192685],[7.0398926,46.0191044],[7.0400597,46.019072],[7.0401838,46.0190725],[7.0402763,46.0190883],[7.0403058,46.0190385],[7.040332,46.0190776],[7.0403568,46.0190264],[7.0403936,46.0190799],[7.0404272,46.0190636],[7.0404647,46.019032],[7.0404949,46.019072],[7.0405472,46.0190329],[7.0406156,46.0189691],[7.0406988,46.0189505],[7.0408436,46.0189365],[7.0410588,46.018883],[7.0411169,46.0188528],[7.0412835,46.0187503],[7.0416296,46.0187405],[7.0417294,46.0187051],[7.0418966,46.018713],[7.0421843,46.0187513],[7.0424638,46.0186711],[7.0427124,46.0186632],[7.0428948,46.0187042],[7.0430544,46.0187433],[7.0432341,46.0187107],[7.0434071,46.0186898],[7.0436236,46.0187146],[7.0437907,46.0187582],[7.0440052,46.0187722],[7.044264,46.0187918],[7.044374,46.0187759],[7.0444679,46.0187358],[7.0446356,46.0187386],[7.0447254,46.0187936],[7.044763,46.0188411],[7.0447938,46.01891],[7.044862,46.0189495],[7.0449615,46.0189156],[7.0450889,46.0188522],[7.0452761,46.0188298],[7.0455895,46.0186472],[7.0458418,46.0185767],[7.0460675,46.0185467],[7.0465971,46.0185278],[7.0468245,46.0185374],[7.0469585,46.018572],[7.0470567,46.0185973],[7.0471448,46.0185961],[7.0472373,46.0185738],[7.0473231,46.0186099],[7.0476196,46.0186176],[7.0477042,46.0186433],[7.0479099,46.0186241],[7.0480547,46.0186371],[7.0481405,46.0186399],[7.048175,46.0186791],[7.048408,46.0186632],[7.0485331,46.0186885],[7.0485965,46.0186668],[7.0486581,46.0186899],[7.0487334,46.0186566],[7.0488045,46.0186793],[7.0492423,46.0186228],[7.0494515,46.0185711],[7.0496083,46.0184627],[7.0497358,46.0184574],[7.0497774,46.0185151],[7.0498632,46.0185095],[7.0499946,46.0184788],[7.0500083,46.0184998],[7.0502826,46.0185536],[7.0504194,46.0185778],[7.0505907,46.0187158],[7.0506286,46.0187272],[7.0506679,46.0187698],[7.0506853,46.0187992],[7.0507114,46.0188229],[7.0507436,46.0188294],[7.050812,46.0188103],[7.0508717,46.018801],[7.0508938,46.0188117],[7.050937,46.0188019],[7.0510018,46.0187931],[7.0510735,46.0188001],[7.0511198,46.0187866],[7.0511634,46.018768],[7.0512164,46.018767],[7.0512626,46.0187647],[7.0513022,46.0187582],[7.0513511,46.0187475],[7.0513753,46.0187158],[7.0514034,46.0186963],[7.0514511,46.0186852],[7.0515227,46.0186842],[7.0515516,46.0186995],[7.051561,46.018733],[7.0516053,46.0187596],[7.0516777,46.0187805],[7.0517153,46.018781],[7.0517347,46.0187945],[7.0517736,46.0187838],[7.0518601,46.0187838],[7.0519064,46.0187973],[7.0519506,46.0187819],[7.0520116,46.0187731],[7.0520693,46.0187722],[7.0521042,46.0187722],[7.0521411,46.0187945],[7.0521766,46.018802],[7.0522463,46.0188099],[7.0523074,46.0188183],[7.052355,46.0188434],[7.0524475,46.0188923],[7.0525085,46.0189305],[7.0525796,46.0189714],[7.0526225,46.0189836],[7.0526648,46.0190022],[7.0527063,46.019039],[7.0527593,46.0190585],[7.0527855,46.0190874],[7.0528109,46.0191097],[7.0528364,46.0191181],[7.0528753,46.0191358],[7.0529189,46.0191349],[7.0529531,46.0191456],[7.053,46.0191386],[7.0530503,46.0191326],[7.0531033,46.0191475],[7.0531502,46.0191596],[7.0532046,46.0191558],[7.0532535,46.0191661],[7.0533239,46.0191838],[7.053344,46.0191745],[7.0533957,46.0191829],[7.0534547,46.019187],[7.0535009,46.0191908],[7.0535412,46.0192201],[7.0535941,46.0192383],[7.0536692,46.0192755],[7.0537135,46.019275],[7.0537692,46.019289],[7.0538201,46.0193062],[7.0538449,46.0193323],[7.0538865,46.0193188],[7.0539448,46.0193351],[7.0539985,46.019357],[7.0540481,46.0193873],[7.0541058,46.0194124],[7.0541634,46.019411],[7.0542312,46.0194497],[7.0542694,46.0194837],[7.0542801,46.0195209],[7.0543116,46.0195419],[7.0543244,46.019574],[7.0543686,46.0195852],[7.0543961,46.0196196],[7.0544183,46.0196443],[7.0544216,46.0196722],[7.0544296,46.0196969],[7.0544625,46.0196988],[7.0544699,46.0197314],[7.0544934,46.0197263],[7.0545141,46.0197165],[7.0545396,46.0197263],[7.0545477,46.0197509],[7.0545926,46.0197449],[7.0546449,46.0197365],[7.0547032,46.0197412],[7.0547475,46.0197467],[7.0547864,46.0197523],[7.0548481,46.0197756],[7.0548709,46.0197728],[7.054901,46.0197635],[7.0549641,46.0197514],[7.0550305,46.0197533],[7.0550915,46.019757],[7.0551445,46.0197435],[7.055172,46.0197109],[7.0552122,46.0196923],[7.0552464,46.0196741],[7.0552437,46.0196434],[7.0553047,46.0196294],[7.0553208,46.0196136],[7.0553081,46.0195968],[7.0553463,46.0195777],[7.0553684,46.0195712],[7.0553631,46.01954],[7.0553812,46.019526],[7.0553812,46.0195079],[7.0554221,46.0194683],[7.0554556,46.0194371],[7.0554777,46.0194175],[7.0555133,46.0193984],[7.0555575,46.0193863],[7.0556286,46.0193728],[7.0556715,46.0193719],[7.0557131,46.0193826],[7.055805,46.0193956],[7.0558566,46.019404],[7.0558847,46.0194222],[7.0559464,46.0194227],[7.0559873,46.019438],[7.0560544,46.0194315],[7.0561121,46.0194259],[7.0561644,46.0194194],[7.0562696,46.0194129],[7.0563434,46.0194185],[7.0564165,46.0194348],[7.056503,46.0194357],[7.0565855,46.0194222],[7.0566686,46.0194255],[7.0567652,46.0194431],[7.056849,46.0194501],[7.0568906,46.0194385],[7.056855,46.0193952],[7.0568839,46.0193747],[7.0569489,46.0193807],[7.0570341,46.01937],[7.0570938,46.0193882],[7.0571628,46.0193877],[7.0572869,46.019384],[7.0574059,46.0193799],[7.0575524,46.019342],[7.0576297,46.0193565],[7.0577398,46.0193347],[7.057856,46.0193692],[7.057992,46.019346],[7.0581424,46.0193401],[7.0584515,46.0193612],[7.0586301,46.0193682],[7.0585895,46.0193234],[7.0585773,46.0192674],[7.0585242,46.0192101],[7.0585851,46.0192162],[7.0586174,46.0192238],[7.0586399,46.0191855],[7.0586836,46.0191973],[7.0588202,46.019265],[7.0590866,46.0192602],[7.0593506,46.0192467],[7.0595002,46.0192246],[7.0596684,46.0192378],[7.0597577,46.0192057],[7.0598656,46.0192382],[7.0600615,46.0192466],[7.0602798,46.0192697],[7.0603705,46.0193306],[7.0604581,46.0193583],[7.0606111,46.0193646],[7.0607864,46.0194329],[7.0609607,46.0195114],[7.0609948,46.0195548],[7.0610687,46.0195915],[7.0611896,46.0196363],[7.0613225,46.0196923],[7.0614375,46.0197922],[7.0615484,46.0198457],[7.0616459,46.0198897],[7.0617813,46.0200539],[7.0618646,46.0201434],[7.0619892,46.0202096],[7.0622399,46.0203953],[7.0624112,46.0204779],[7.0624884,46.0205339],[7.0625643,46.0206418],[7.0626768,46.0207145],[7.0627449,46.0207495],[7.0626714,46.0208239],[7.0626752,46.0208839],[7.062718,46.0209259],[7.062882,46.0209806],[7.0631704,46.0211339],[7.0633966,46.0213874],[7.0635865,46.021459],[7.0637035,46.0214929],[7.063784,46.0214841],[7.0638543,46.02146],[7.0639766,46.0215307],[7.0642109,46.0215875],[7.0643643,46.0215774],[7.0646347,46.0217553],[7.0647149,46.0217176],[7.0647842,46.0218067],[7.0649163,46.0218586],[7.0650858,46.0220067],[7.0652073,46.0220967],[7.0653422,46.0221546],[7.0654712,46.0221663],[7.0655649,46.0221708],[7.0655093,46.0222492],[7.0655033,46.022316],[7.0656223,46.0224075],[7.0657045,46.0224556],[7.0658529,46.0225842],[7.0659135,46.0226566],[7.0661584,46.0227514],[7.0663013,46.0228357],[7.0665664,46.0228729],[7.0667613,46.0228453],[7.0669795,46.0228706],[7.0670228,46.022865],[7.0670806,46.0228023],[7.0673991,46.0228474],[7.0675781,46.02284],[7.0678087,46.0229312],[7.0679212,46.0229518],[7.0680454,46.0230468],[7.0681349,46.0230665],[7.0682043,46.0231619],[7.0684033,46.0232546],[7.0685038,46.0233783],[7.068646,46.0234786],[7.0690181,46.0236272],[7.06938,46.0237308],[7.0695188,46.0237418],[7.0696886,46.0237202],[7.0697625,46.0236803],[7.0699804,46.0237111],[7.070162,46.0236823],[7.0704457,46.0237173],[7.070581,46.0237578],[7.0708641,46.0238767],[7.0709409,46.0239531],[7.0710202,46.023944],[7.0710502,46.0239935],[7.0711748,46.0239783],[7.0712118,46.0240257],[7.0713351,46.0240368],[7.0715228,46.0240925],[7.0715876,46.0241094],[7.0715636,46.0241747],[7.0716183,46.0242192],[7.0715983,46.0242887],[7.0716072,46.0243483],[7.0717402,46.0243716],[7.0718938,46.0243506],[7.0720074,46.0243482],[7.0720995,46.0244547],[7.0722544,46.0244877],[7.0724551,46.0245837],[7.0725747,46.0246232],[7.0727319,46.0245508],[7.072819,46.0245426],[7.0729875,46.0245268],[7.0730733,46.0245262],[7.0730757,46.0244732],[7.0731577,46.0244547],[7.0732651,46.0244799],[7.0733171,46.0244268],[7.073398,46.0244395],[7.0734292,46.0243896],[7.0735531,46.0244188],[7.0736289,46.024392],[7.0736484,46.0243496],[7.0737233,46.0243386],[7.0737845,46.0243448],[7.0738175,46.0242662],[7.0738829,46.0241915],[7.0739532,46.0241747],[7.0740153,46.0242376],[7.0741322,46.0243312],[7.0742637,46.0243631],[7.0744275,46.0243913],[7.0746578,46.0245367],[7.0751865,46.024746],[7.0753705,46.0247785],[7.0756065,46.0247983],[7.0758169,46.0248264],[7.0760357,46.02492],[7.0762032,46.0250294],[7.0766137,46.025215],[7.0768221,46.0252789],[7.0770469,46.0252984],[7.0773404,46.025273],[7.0774721,46.0252902],[7.077655,46.0253924],[7.0777842,46.025462],[7.0779699,46.025508],[7.0782167,46.0255123],[7.0783469,46.0254759],[7.0784793,46.0255068],[7.0789515,46.0256276],[7.0792386,46.0257448],[7.07936,46.0257651],[7.0795736,46.0258315],[7.0798548,46.025995],[7.0799906,46.0260341],[7.080195,46.0260591],[7.0804041,46.0260814],[7.0807621,46.0260761],[7.08085,46.0261156],[7.080965,46.0262325],[7.0810415,46.0263074],[7.0811479,46.0264656],[7.0812579,46.026583],[7.0813493,46.0266519],[7.0815089,46.0267461],[7.0816184,46.0267939],[7.0817792,46.0268232],[7.0819744,46.0268724],[7.0821763,46.0269439],[7.0823322,46.0270352],[7.0824301,46.0271279],[7.0824877,46.0272223],[7.082557,46.0272937],[7.0826765,46.0273796],[7.0828318,46.0274181],[7.0833349,46.0275459],[7.0839391,46.0278809],[7.0841775,46.0279717],[7.0843902,46.0280292],[7.0846498,46.0280796],[7.0848752,46.0280852],[7.085115,46.0280676],[7.0852756,46.0280085],[7.0854279,46.0279903],[7.0856067,46.0280104],[7.0859753,46.0280829],[7.0862529,46.0281749],[7.0865063,46.0282914],[7.0867529,46.0284059],[7.0868307,46.0284316],[7.086895,46.0284446],[7.08694,46.0284405],[7.0869883,46.0284303],[7.0870901,46.0283824],[7.0871914,46.0283689],[7.0873284,46.028371],[7.0874493,46.0284025],[7.0875961,46.0283967],[7.0876637,46.0284249],[7.0877166,46.0284737],[7.0878869,46.0286347],[7.0880617,46.0287463],[7.0882077,46.0288329],[7.0883634,46.0288708],[7.0886208,46.0289238],[7.088754,46.0289751],[7.0889775,46.0290209],[7.0893042,46.0290628],[7.0895606,46.029126],[7.0896591,46.0291153],[7.0896775,46.0290896],[7.0897055,46.0290336],[7.0897724,46.0289878],[7.0898684,46.0289737],[7.0901109,46.028982],[7.0906299,46.0289396],[7.0908576,46.0289616],[7.091017,46.0290105],[7.0912177,46.0291023],[7.0914005,46.0291297],[7.0916412,46.0291194],[7.0918184,46.0291681],[7.0921085,46.0292866],[7.0924089,46.0294087],[7.092594,46.0294652],[7.0927508,46.0295155],[7.0931867,46.0296745],[7.0933491,46.0297224],[7.0934814,46.0297421],[7.0936168,46.0297796],[7.0938234,46.0298451],[7.0939456,46.0299358],[7.0940551,46.0301003],[7.0940136,46.0301354],[7.0940137,46.0301768],[7.0939875,46.0302305],[7.0940291,46.0302696],[7.0941063,46.0303235],[7.094057,46.030333],[7.0941249,46.0303697],[7.0940972,46.0304036],[7.0941686,46.0304197],[7.0942213,46.0304407],[7.094248,46.0304606],[7.0943013,46.0305421],[7.0943538,46.0307499],[7.0943391,46.0307732],[7.0943586,46.0308097],[7.0944106,46.0308351],[7.0944258,46.0308726],[7.0944392,46.0309501],[7.0944669,46.0310697],[7.0943379,46.0310876],[7.0942333,46.0311658],[7.0942135,46.0312193],[7.0942363,46.0312799],[7.0943154,46.0312808],[7.0943382,46.0312966],[7.09435,46.0313827],[7.0943205,46.0313914],[7.0943153,46.0314154],[7.0943822,46.0313954],[7.0944328,46.0314375],[7.0944319,46.031468],[7.0944576,46.0315255],[7.0945661,46.0315909],[7.094664,46.0315468],[7.094872,46.0315307],[7.0949798,46.031568],[7.095124,46.0316262],[7.0951094,46.03175],[7.0951402,46.0318386],[7.095049,46.0318879],[7.0949766,46.0319372],[7.0949384,46.0319667],[7.0950255,46.0320129],[7.0950678,46.0320152],[7.0950614,46.0320543],[7.0952737,46.0320615],[7.0954265,46.0320839],[7.0955472,46.0321388],[7.0957853,46.0323245],[7.0958523,46.0323585],[7.0961098,46.0323292],[7.0964538,46.0322901],[7.096771,46.0322975],[7.0969695,46.0322137],[7.0971975,46.0322575],[7.0974851,46.0323162],[7.0976273,46.0323674],[7.0976333,46.0323818],[7.0976575,46.0323913],[7.0977155,46.0324018],[7.0979019,46.0324591],[7.0980564,46.0324758],[7.0981108,46.0325107],[7.0984192,46.0325517],[7.0985969,46.032602],[7.0986854,46.0326402],[7.0988564,46.0326783],[7.0990851,46.0326988],[7.0991984,46.0327254],[7.0995578,46.0327631],[7.0997529,46.0328064],[7.0998307,46.0328026],[7.1000393,46.0327379],[7.1001868,46.0326923],[7.1003209,46.0326946],[7.1003833,46.0326811],[7.1004255,46.0326811],[7.1007615,46.0325815],[7.1009573,46.0325447],[7.1011378,46.0325302],[7.1013422,46.0325829],[7.1014025,46.0325871],[7.1014729,46.032568],[7.1015963,46.032568],[7.1016694,46.0325634],[7.1017311,46.0325373],[7.1018271,46.0325196],[7.1019282,46.032622],[7.1019752,46.0326504],[7.1021475,46.0326602],[7.102293,46.0326537],[7.1024298,46.0326248],[7.1025418,46.032581],[7.1026377,46.0325242],[7.102751,46.032454],[7.1028317,46.032388],[7.1029216,46.0323301],[7.1030503,46.0322733],[7.1031441,46.0322495],[7.1032466,46.0322182],[7.1032926,46.0322002],[7.1033734,46.0321411],[7.1035379,46.032],[7.1038472,46.031818],[7.1039059,46.0318032],[7.104183,46.0317242],[7.1043463,46.0316344],[7.1044799,46.0315594]]}}]}
