{"type":"FeatureCollection","features":[{"type":"Feature","properties":{"osm_relation":9678501,"name":"Tour du Mont Blanc - Variante du Tour","ref":null,"roundtrip":false,"point_count":853,"length_m":6189.7,"source":"OpenStreetMap contributors (ODbL)","role":"alternative","slug":"le-tour","label":"Le Tour"},"geometry":{"type":"LineString","coordinates":[[6.9264137,45.9969644],[6.9265093,45.996874],[6.9266538,45.9967265],[6.9267233,45.9966734],[6.9267768,45.996652],[6.9268539,45.9966382],[6.92693,45.9966342],[6.9270982,45.996651],[6.9273276,45.9966628],[6.9274322,45.9966383],[6.927713,45.9965013],[6.9279234,45.9964758],[6.9279971,45.9964164],[6.9280263,45.9963794],[6.9280712,45.9963504],[6.9281125,45.9963085],[6.9281204,45.9962628],[6.9281118,45.9962153],[6.9281182,45.9961775],[6.9281414,45.9961356],[6.9283526,45.9960768],[6.9284699,45.9960215],[6.9286213,45.9959619],[6.9287829,45.9958786],[6.9288245,45.9958581],[6.9288861,45.9958185],[6.9289881,45.995749],[6.929023,45.9957188],[6.9290498,45.9956945],[6.9290981,45.995682],[6.9291624,45.9956703],[6.9292111,45.995645],[6.9294162,45.995713],[6.9296099,45.9957759],[6.9296738,45.9958006],[6.9297463,45.9958287],[6.9299608,45.9959304],[6.9302338,45.9960281],[6.9304083,45.9961109],[6.9304816,45.9961758],[6.9307593,45.9963017],[6.9310863,45.9965029],[6.9311956,45.9965382],[6.931263,45.9965588],[6.9314316,45.9966529],[6.9316107,45.9967103],[6.9318694,45.9968528],[6.9321622,45.9970775],[6.9326067,45.9972619],[6.9326735,45.9972775],[6.9327952,45.9973143],[6.9329484,45.9973692],[6.9333588,45.9975281],[6.9333889,45.9975579],[6.9334419,45.9975914],[6.9334996,45.9976166],[6.933566,45.9976361],[6.9336142,45.9976445],[6.9336538,45.9976408],[6.9336853,45.9976194],[6.9337128,45.9975882],[6.9337423,45.9975439],[6.9338178,45.997412],[6.9339007,45.9973048],[6.9340345,45.9971463],[6.9341088,45.9971125],[6.9343585,45.9967896],[6.9343943,45.9967473],[6.9344244,45.9967234],[6.9344869,45.9966945],[6.9345786,45.9966541],[6.9346575,45.9966216],[6.9347488,45.9965987],[6.9348273,45.9966954],[6.9348755,45.9967557],[6.9349534,45.9968479],[6.9350727,45.9969843],[6.9352103,45.9971295],[6.9353864,45.9972856],[6.9356786,45.9975077],[6.93616,45.99786],[6.9362381,45.9979102],[6.9362859,45.9979409],[6.9364578,45.99803],[6.9366511,45.9981088],[6.937025,45.998264],[6.9373003,45.9983763],[6.9375666,45.9984959],[6.9376769,45.9985583],[6.9377843,45.9986225],[6.9380191,45.9987823],[6.9382808,45.9989767],[6.93921,45.9996401],[6.9395985,45.9999019],[6.9401032,46.0002391],[6.9403587,46.0004096],[6.9404358,46.0004543],[6.941171,46.0008646],[6.9413497,46.0009754],[6.9416808,46.0012041],[6.9419405,46.0013496],[6.9421986,46.0015009],[6.9423508,46.0016002],[6.9424951,46.0017099],[6.9427961,46.0019481],[6.9430206,46.0021095],[6.9432226,46.0022476],[6.9434591,46.0023964],[6.9437934,46.0026186],[6.9439259,46.0026906],[6.9440957,46.0027663],[6.9442392,46.0028119],[6.9443135,46.002787],[6.9443839,46.0027693],[6.9444321,46.0027624],[6.9447484,46.0027375],[6.944793,46.0027338],[6.9448582,46.0027331],[6.9449103,46.0027378],[6.9449719,46.0027482],[6.9450201,46.002786],[6.9450719,46.0028236],[6.9451283,46.0028583],[6.9451975,46.0029018],[6.9454684,46.0030528],[6.9456796,46.003163],[6.9457727,46.0032128],[6.9458625,46.0032427],[6.9459121,46.0032563],[6.9459852,46.0032714],[6.9460781,46.0032828],[6.9461281,46.0032937],[6.9462181,46.0033215],[6.9463308,46.0033763],[6.9464877,46.0034536],[6.946615,46.0035273],[6.946748,46.0036129],[6.9472475,46.0038068],[6.9473083,46.0038476],[6.9473451,46.0038792],[6.9474028,46.0039342],[6.9474632,46.004011],[6.9476838,46.0042663],[6.9477837,46.0043795],[6.9478333,46.0043976],[6.9479004,46.0044302],[6.9479486,46.0044577],[6.9479922,46.0044945],[6.9480325,46.0045369],[6.9480599,46.0045839],[6.9481384,46.0047335],[6.9481853,46.004815],[6.9482457,46.0049095],[6.9482638,46.0049575],[6.9482859,46.0050264],[6.9483047,46.0050991],[6.9483604,46.0051303],[6.9483899,46.0051582],[6.9484147,46.0051978],[6.9484355,46.0052444],[6.9484656,46.0052961],[6.9485327,46.0053604],[6.9485608,46.0053911],[6.9485743,46.0054111],[6.9485863,46.0054479],[6.9485984,46.0054726],[6.9486158,46.0054982],[6.9486453,46.005536],[6.9488083,46.0057223],[6.9488968,46.0058438],[6.9489384,46.0059188],[6.94899,46.0060199],[6.9490001,46.006059],[6.9490041,46.0061163],[6.9490094,46.0061563],[6.9490202,46.0062066],[6.949039,46.0062714],[6.9490463,46.0063161],[6.9490622,46.0064365],[6.94909,46.0065134],[6.9490738,46.0065356],[6.9490556,46.006581],[6.9490575,46.0066422],[6.9490949,46.0067854],[6.9490968,46.006898],[6.9490709,46.0070864],[6.9490653,46.00719],[6.9490753,46.0072666],[6.9490827,46.0073188],[6.9490885,46.0073752],[6.949097,46.0074287],[6.9490975,46.0074836],[6.949079,46.007601],[6.9489682,46.0078606],[6.9489173,46.0080507],[6.9489213,46.0080816],[6.9489426,46.0081101],[6.9490069,46.0080459],[6.9491489,46.0079424],[6.949383,46.0078744],[6.9496795,46.0078596],[6.9497868,46.0079222],[6.9499054,46.0079313],[6.9499013,46.0079651],[6.9498805,46.0079858],[6.9498503,46.0080412],[6.9498356,46.0080794],[6.94979,46.0082354],[6.9497655,46.0082794],[6.9497652,46.0082883],[6.9497722,46.0082976],[6.9497819,46.0083013],[6.9498215,46.0082915],[6.9499432,46.0082895],[6.9500387,46.0082741],[6.950085,46.0082706],[6.9502144,46.0082664],[6.9502781,46.0082499],[6.9503345,46.0082282],[6.9503821,46.0082149],[6.950535,46.0081914],[6.9506513,46.0081944],[6.9507043,46.0082121],[6.9507271,46.008221],[6.9507492,46.008224],[6.9507787,46.0082263],[6.9508186,46.0082224],[6.9508401,46.0082035],[6.9508588,46.0081558],[6.9509131,46.0080619],[6.9509638,46.0080298],[6.9510094,46.0080091],[6.9510268,46.0080081],[6.9510831,46.0080219],[6.9511029,46.0080256],[6.9511249,46.0080247],[6.9511289,46.0080275],[6.9511059,46.0080515],[6.9510804,46.0080976],[6.951061,46.008187],[6.951069,46.0081993],[6.9510845,46.0081958],[6.9511056,46.008177],[6.9511807,46.0081483],[6.9512213,46.0081367],[6.9512394,46.0081344],[6.9513738,46.0081416],[6.9514784,46.0081053],[6.9515076,46.0081018],[6.9515197,46.008108],[6.9515244,46.0081167],[6.951523,46.0081516],[6.9514995,46.0082021],[6.9514704,46.0082489],[6.9514251,46.0082995],[6.951407,46.0083116],[6.9513068,46.0083442],[6.9512917,46.0083565],[6.9512954,46.0083914],[6.9513031,46.0084038],[6.9513229,46.0084124],[6.9513584,46.0084031],[6.9513986,46.0084024],[6.9514234,46.0083924],[6.951527,46.0083938],[6.9515599,46.0083877],[6.9516313,46.0083612],[6.9516715,46.0083512],[6.9517403,46.0083228],[6.9518053,46.0082671],[6.9518596,46.0082343],[6.9518942,46.0082184],[6.95198,46.0081914],[6.9520584,46.0081763],[6.9521168,46.00817],[6.9521312,46.0081795],[6.9521232,46.0081912],[6.952036,46.0082247],[6.9520065,46.0082433],[6.9519679,46.0082804],[6.9519351,46.008347],[6.9518989,46.0084515],[6.9518895,46.0085419],[6.9518975,46.0085777],[6.951923,46.0086178],[6.9520095,46.0087221],[6.952035,46.0087799],[6.9520457,46.0088157],[6.9520504,46.0088553],[6.9520584,46.0090924],[6.9520766,46.0091525],[6.9521201,46.009213],[6.9521416,46.009267],[6.9521872,46.009335],[6.9523032,46.0094589],[6.9523615,46.0095334],[6.9523662,46.0095595],[6.9523649,46.0096422],[6.9523897,46.009719],[6.9523914,46.0097439],[6.952389,46.0097677],[6.9523719,46.0098091],[6.9523689,46.0098403],[6.9523699,46.0098741],[6.9523857,46.0099414],[6.9524531,46.0101163],[6.9524762,46.0101582],[6.9525597,46.010273],[6.9526073,46.010323],[6.9526613,46.010402],[6.9527203,46.0105391],[6.9527441,46.0106358],[6.9527434,46.0106735],[6.9527206,46.0107606],[6.9527183,46.010789],[6.9527283,46.0108288],[6.9527397,46.0108353],[6.9527518,46.0108686],[6.9527639,46.0108901],[6.9527783,46.0109136],[6.9527853,46.0109343],[6.9527927,46.0109578],[6.9527961,46.010979],[6.9528108,46.0109837],[6.9528229,46.0110028],[6.9528178,46.0110789],[6.952839,46.0110968],[6.9528537,46.011121],[6.9528534,46.0111548],[6.95284,46.0112058],[6.9528477,46.0112188],[6.9528571,46.0112221],[6.9528745,46.0112186],[6.9529811,46.0111415],[6.9529949,46.011138],[6.953009,46.0111394],[6.9530214,46.0111529],[6.953019,46.0111623],[6.9529959,46.0111893],[6.9529845,46.0112102],[6.9529644,46.0113078],[6.9529302,46.0113432],[6.9528849,46.0114217],[6.9528842,46.0114326],[6.9528899,46.0114426],[6.9529111,46.0114536],[6.9529265,46.0114543],[6.9530036,46.0114405],[6.9530673,46.0114398],[6.9531136,46.0114252],[6.9531327,46.0114144],[6.9531628,46.0113874],[6.9532074,46.0113611],[6.9532463,46.0113593],[6.9533177,46.0113735],[6.9533389,46.0113721],[6.9533563,46.0113665],[6.9534495,46.0113171],[6.9534834,46.0113111],[6.9535005,46.0113157],[6.9535206,46.0113306],[6.9535484,46.011393],[6.9535585,46.0114037],[6.9535907,46.01142],[6.9536061,46.0114396],[6.9536098,46.0114522],[6.9536068,46.0114973],[6.9536322,46.0115516],[6.9536235,46.0116249],[6.9536617,46.0116904],[6.953704,46.0117239],[6.9537462,46.0117688],[6.9538284,46.0118038],[6.9538646,46.0118587],[6.953874,46.0118843],[6.9538944,46.0119039],[6.9539152,46.0119148],[6.9539668,46.0119218],[6.9539829,46.0119286],[6.9540205,46.0119644],[6.9540413,46.0119777],[6.9540721,46.0119859],[6.9541512,46.0119863],[6.9541683,46.011991],[6.9541841,46.0119984],[6.954216,46.0120504],[6.9542377,46.0120636],[6.9542626,46.0120594],[6.9542716,46.0120506],[6.9542709,46.0120259],[6.9542595,46.0119901],[6.9542632,46.0119421],[6.9542736,46.0118878],[6.9543035,46.0118368],[6.9543085,46.0117805],[6.9543229,46.0117502],[6.9543326,46.0117388],[6.9543729,46.0117251],[6.9543843,46.0117176],[6.9544131,46.011678],[6.9544262,46.0116692],[6.9544543,46.0116578],[6.9544989,46.0116575],[6.9545318,46.0116517],[6.9545432,46.0116473],[6.9545633,46.011614],[6.9545774,46.0116021],[6.9545995,46.0115916],[6.9546129,46.0115914],[6.9546236,46.011597],[6.9546287,46.0116177],[6.954619,46.0116419],[6.9546139,46.0116974],[6.9546179,46.0117251],[6.9546444,46.0117688],[6.9546471,46.0117824],[6.9546354,46.0118333],[6.9546354,46.0119023],[6.9546314,46.0119193],[6.9546156,46.0119463],[6.9546106,46.0119956],[6.9546535,46.0120504],[6.9546837,46.012073],[6.9547303,46.0120846],[6.9547557,46.0121074],[6.9547826,46.0121829],[6.9548339,46.0122846],[6.9548788,46.0123519],[6.954913,46.0123924],[6.9549371,46.0124611],[6.9549438,46.012538],[6.9549542,46.0125838],[6.9549536,46.0126169],[6.9549368,46.0126709],[6.9549422,46.0126998],[6.9549629,46.0127401],[6.9549646,46.0128295],[6.9549723,46.0128667],[6.9550109,46.0129277],[6.9550149,46.0129436],[6.9550119,46.0129729],[6.9550179,46.0129913],[6.9551252,46.0131275],[6.9551309,46.0131443],[6.9551306,46.013172],[6.9551437,46.013182],[6.9551557,46.0131802],[6.9551188,46.0132125],[6.9550948,46.013224],[6.9551182,46.0132216],[6.9551286,46.0132258],[6.9551279,46.01324],[6.9551209,46.0132731],[6.9551178,46.013298],[6.9551199,46.0133117],[6.9551289,46.0133245],[6.9551383,46.0133301],[6.9551618,46.0133373],[6.9551846,46.0133487],[6.955209,46.0133671],[6.9552241,46.0133846],[6.9552298,46.0134007],[6.9552292,46.0134202],[6.9552268,46.0134428],[6.9552285,46.01346],[6.9552369,46.0134707],[6.955252,46.0134784],[6.9552805,46.0134908],[6.9552945,46.0135008],[6.9553063,46.0135129],[6.9553177,46.0135359],[6.9553311,46.0135553],[6.9553398,46.0135762],[6.9553475,46.0135897],[6.9553623,46.0135988],[6.95538,46.0136014],[6.9553981,46.0135974],[6.9554055,46.0135907],[6.9554089,46.0135765],[6.9554159,46.0135494],[6.9554253,46.0135292],[6.9554447,46.0134998],[6.9554645,46.0134652],[6.9554783,46.0134496],[6.9554967,46.0134372],[6.9555158,46.0134272],[6.9555222,46.0134181],[6.9555225,46.0134037],[6.9555185,46.0133897],[6.9555158,46.0133732],[6.9555212,46.0133573],[6.9555333,46.0133471],[6.9555587,46.0133452],[6.9555775,46.0133536],[6.9555869,46.013365],[6.9556006,46.0134009],[6.9556087,46.0134256],[6.9556204,46.0134514],[6.9556278,46.0134684],[6.9556328,46.0134875],[6.9556345,46.0135038],[6.9556352,46.0135841],[6.9556362,46.0135981],[6.9556422,46.0136095],[6.955666,46.0136212],[6.9556915,46.0136065],[6.9557177,46.0135953],[6.9557492,46.0135893],[6.9557793,46.0135907],[6.9558095,46.0135981],[6.9558343,46.0136144],[6.9558618,46.0136433],[6.9558813,46.0136787],[6.9558947,46.013722],[6.9559141,46.0138249],[6.9559202,46.0139017],[6.9559275,46.0139902],[6.9559456,46.0140534],[6.9559727,46.0141062],[6.9560207,46.0141875],[6.9560617,46.0142431],[6.9561127,46.0142855],[6.9561898,46.0143424],[6.9562998,46.0144078],[6.9563909,46.0144661],[6.9564449,46.0145085],[6.9564989,46.0145724],[6.9565499,46.0146516],[6.9565679,46.01471],[6.9565785,46.014785],[6.9566464,46.0151632],[6.956785,46.0154892],[6.9568362,46.0155677],[6.9571221,46.0158506],[6.95723,46.0158161],[6.9572787,46.0157901],[6.9574242,46.0158247],[6.9574316,46.0158487],[6.9574621,46.0158965],[6.9574994,46.0159493],[6.9575322,46.0159829],[6.9575424,46.0160044],[6.9575492,46.0160364],[6.9575511,46.0161063],[6.9575536,46.01619],[6.957555,46.01623],[6.957554,46.0162663],[6.957556,46.0162955],[6.9575482,46.0163204],[6.957526,46.016359],[6.9575246,46.0164206],[6.9575069,46.0164984],[6.9575065,46.0165262],[6.9575124,46.0165543],[6.957525,46.0165789],[6.9575694,46.0166171],[6.9576074,46.0166445],[6.9576268,46.0166647],[6.957667,46.0166887],[6.9576794,46.0167036],[6.9577341,46.0167339],[6.9577507,46.0167508],[6.9577646,46.0167762],[6.9578338,46.0168406],[6.9578774,46.0168762],[6.9579196,46.0169031],[6.9579608,46.0169212],[6.9580733,46.0169599],[6.9581252,46.0169873],[6.9581668,46.017018],[6.958218,46.0170426],[6.9583647,46.0170752],[6.9584333,46.0171079],[6.958488,46.0171209],[6.9586135,46.0171333],[6.9586478,46.0171271],[6.958656,46.0171289],[6.9586581,46.0171348],[6.958651,46.0171443],[6.9586385,46.0171495],[6.958602,46.0171542],[6.9585763,46.0171639],[6.9584684,46.0172189],[6.9584495,46.0172333],[6.9584406,46.0172472],[6.9584377,46.0172656],[6.9584524,46.0172981],[6.958457,46.0173323],[6.9584752,46.0173832],[6.9584545,46.0174323],[6.9584499,46.0174613],[6.9584663,46.0175159],[6.9584702,46.0175528],[6.9585074,46.0176625],[6.9585249,46.0176977],[6.9586328,46.017824],[6.9586835,46.0178696],[6.958746,46.0179416],[6.958861,46.0180909],[6.9589546,46.0181812],[6.9590482,46.0182559],[6.959159,46.018392],[6.9593243,46.0185382],[6.9593569,46.0185545],[6.9594483,46.0186136],[6.9594869,46.0186587],[6.9595237,46.0186915],[6.9595544,46.018745],[6.9596744,46.0188391],[6.9597259,46.0188909],[6.9598202,46.0189519],[6.9599313,46.0190407],[6.9600442,46.0191144],[6.9601649,46.0191789],[6.9602838,46.0192364],[6.9603474,46.0192776],[6.9603889,46.019329],[6.960469,46.0193987],[6.9605096,46.0194437],[6.9605529,46.0194805],[6.9606825,46.0195327],[6.9607674,46.0195827],[6.9608395,46.0196164],[6.9609446,46.0196555],[6.9610615,46.019727],[6.9611806,46.0197808],[6.9612949,46.0198594],[6.9613853,46.0199017],[6.9614698,46.0199508],[6.9615874,46.019999],[6.9616608,46.0200354],[6.9618754,46.0201268],[6.9621757,46.0202172],[6.9621978,46.0202318],[6.9622114,46.0202507],[6.9622214,46.0202963],[6.962235,46.020324],[6.9622542,46.0203486],[6.9622885,46.0203716],[6.9624301,46.0204177],[6.9625589,46.0204761],[6.9625924,46.0204825],[6.9626673,46.0205063],[6.9627186,46.0205358],[6.9627348,46.020565],[6.9627521,46.0205837],[6.962786,46.0206095],[6.9628842,46.0207002],[6.9631139,46.0208052],[6.9631567,46.0208172],[6.9631999,46.020839],[6.9632732,46.0208659],[6.963312,46.0208971],[6.9634075,46.0209294],[6.9634211,46.0209409],[6.9634433,46.0209494],[6.9634868,46.020954],[6.9635882,46.0209955],[6.9636351,46.0210191],[6.9636609,46.0210488],[6.9636915,46.0210651],[6.9637892,46.0211325],[6.9638825,46.0212093],[6.9639467,46.0212501],[6.9641016,46.0213371],[6.9641145,46.0213592],[6.964137,46.0213725],[6.96431,46.0214483],[6.9644247,46.0215136],[6.9644512,46.0215523],[6.9644774,46.0215709],[6.9645313,46.0215973],[6.9646939,46.0216616],[6.9647846,46.0217033],[6.9648293,46.0217274],[6.9649277,46.0217907],[6.9651147,46.021888],[6.9651487,46.0219013],[6.9651822,46.0219082],[6.9653084,46.02191],[6.9653371,46.0219151],[6.9653995,46.0219392],[6.9654703,46.0219561],[6.965499,46.0219892],[6.9655197,46.0220032],[6.9656336,46.0220342],[6.9656761,46.022055],[6.9657273,46.0220673],[6.9657495,46.0220775],[6.9658085,46.0220949],[6.9658225,46.0221044],[6.9658269,46.0221349],[6.9658391,46.0221561],[6.9658627,46.0221792],[6.9659036,46.0222094],[6.9659339,46.0222268],[6.96597,46.0222365],[6.9660626,46.0222506],[6.9660873,46.0222588],[6.9661061,46.0222698],[6.9661138,46.0222832],[6.9660862,46.0223331],[6.9660884,46.0223572],[6.9661013,46.022383],[6.9661773,46.0224711],[6.9661902,46.0224929],[6.9662053,46.0225418],[6.9662621,46.0226294],[6.9662975,46.0226709],[6.9663517,46.0227116],[6.966355,46.0227259],[6.9663506,46.0227467],[6.9663337,46.0227854],[6.9663322,46.0228035],[6.9663414,46.0228227],[6.9663621,46.0228376],[6.9663905,46.0228501],[6.966445,46.0228873],[6.9664572,46.0228983],[6.9664779,46.0229405],[6.9665313,46.0229925],[6.9666324,46.0230568],[6.9666597,46.0230822],[6.9667113,46.023119],[6.9667213,46.0231193],[6.9667283,46.0231147],[6.9667349,46.0230599],[6.9667493,46.023042],[6.9667792,46.0230174],[6.9668268,46.0229518],[6.9668422,46.0229193],[6.9668706,46.0228778],[6.966895,46.0228512],[6.9669079,46.0228435],[6.9669271,46.0228412],[6.9669433,46.0228463],[6.966951,46.0228589],[6.9669507,46.0228747],[6.966944,46.0229024],[6.9669477,46.0229259],[6.9669964,46.0230427],[6.9670632,46.023095],[6.9670989,46.0231685],[6.9671174,46.0231956],[6.9671402,46.0232176],[6.9671849,46.0232504],[6.9671982,46.0232806],[6.9672454,46.023317],[6.967266,46.0233452],[6.9672944,46.023391],[6.9672981,46.0234281],[6.9673287,46.0234927],[6.9673372,46.0235316],[6.9673527,46.0235472],[6.9674748,46.023613],[6.9675345,46.0236602],[6.9675861,46.0236942],[6.9676282,46.0237178],[6.9677185,46.0237585],[6.9678041,46.023821],[6.9678403,46.0238415],[6.9679111,46.0238635],[6.9679328,46.0238758],[6.9679454,46.0238886],[6.9679749,46.0239506],[6.9680151,46.0239928],[6.9680221,46.0240066],[6.9680213,46.0240271],[6.9680272,46.0240466],[6.9680763,46.0241122],[6.9681087,46.0241429],[6.9681597,46.0241922],[6.9682112,46.0242288],[6.9683159,46.0242838],[6.9684841,46.0243628],[6.9685119,46.0243806],[6.9685287,46.0244104],[6.9685287,46.02443],[6.9685115,46.024499],[6.9685131,46.0245288],[6.9685793,46.0246462],[6.9686002,46.024665],[6.9686116,46.0246842],[6.9686082,46.0247683],[6.9686116,46.0247926],[6.9686234,46.0248048],[6.9686364,46.0248098],[6.9686512,46.0248048],[6.9686745,46.0247791],[6.9688347,46.0247101],[6.9688678,46.0246866],[6.9689078,46.024643],[6.9689531,46.0245865],[6.9689676,46.0245558],[6.9689835,46.0245532],[6.9689953,46.0245595],[6.9690216,46.0246472],[6.9690254,46.0246795],[6.9690441,46.0247125],[6.9690639,46.0247384],[6.9690901,46.0247625],[6.9691255,46.024786],[6.9691796,46.0248455],[6.9692036,46.0248782],[6.9692473,46.0249232],[6.9693147,46.025021],[6.9693532,46.0250569],[6.9693848,46.0250773],[6.9694087,46.0251016],[6.9694285,46.0251362],[6.9694407,46.0251611],[6.9694323,46.0252168],[6.9694472,46.025261],[6.9694826,46.0253358],[6.9694929,46.0254203],[6.9695359,46.0255107],[6.9695412,46.0255393],[6.9695515,46.0255578],[6.9695861,46.0255884],[6.969596,46.0256151],[6.9696048,46.0256199],[6.9696185,46.0256191],[6.9696272,46.0256117],[6.9696246,46.0255728],[6.9696466,46.0254909],[6.969695,46.0254116],[6.9697091,46.0253839],[6.9697117,46.025363],[6.9697197,46.0253479],[6.9697319,46.0253445],[6.9697433,46.0253508],[6.9697506,46.0253955],[6.9697616,46.0254214],[6.9697909,46.0254528],[6.969832,46.0255276],[6.9698773,46.0255583],[6.9698929,46.0255805],[6.9699028,46.0256043],[6.9699028,46.0256598],[6.9699139,46.0257066],[6.9699363,46.0257478],[6.9699877,46.0258181],[6.9699961,46.0258792],[6.970014,46.0259138],[6.9700281,46.0259571],[6.9701011,46.0260589],[6.9701232,46.0260676],[6.9701476,46.0260708],[6.9701534,46.0261113],[6.9701626,46.0262464],[6.9701771,46.0263568],[6.9701986,46.0264326],[6.970205,46.0264549]]}}]}
