{"type":"FeatureCollection","features":[{"type":"Feature","properties":{"osm_relation":9678437,"name":"Tour Du Mont Blanc - Variante des Grands","ref":null,"roundtrip":false,"point_count":1226,"length_m":9117.4,"source":"OpenStreetMap contributors (ODbL)","role":"alternative","slug":"les-grands","label":"Les Grands"},"geometry":{"type":"LineString","coordinates":[[7.0008428,46.0528079],[7.0009003,46.0526867],[7.0009175,46.052581],[7.0008824,46.0525116],[7.0008096,46.0524542],[7.0006767,46.0522988],[7.0005651,46.0520866],[7.0005307,46.0519758],[7.0005508,46.0518951],[7.0006554,46.0516566],[7.0006709,46.0515434],[7.0006795,46.051436],[7.0006071,46.0512024],[7.0005266,46.0510181],[7.0004188,46.0508613],[7.0004079,46.0507696],[7.0004368,46.0506746],[7.0005273,46.0504559],[7.0006075,46.0502967],[7.0006406,46.0502358],[7.0006648,46.0501637],[7.0006447,46.050011],[7.0005544,46.0498021],[7.0004958,46.049661],[7.0004582,46.04946],[7.000358,46.0493562],[7.0002034,46.0492445],[7.0001263,46.0491893],[7.0001015,46.0490374],[6.9999848,46.0488783],[6.9999902,46.0487144],[7.0000653,46.0484873],[7.0001028,46.0482677],[7.0000733,46.0479968],[6.9999902,46.0476785],[7.0000023,46.0472689],[7.0000425,46.0471051],[7.0000841,46.0469813],[7.0002289,46.0468226],[7.0002866,46.0467179],[7.0003047,46.0466448],[7.0003087,46.046575],[7.0002772,46.0464973],[7.0002121,46.0464414],[7.0001015,46.0463795],[7.0000438,46.0463311],[7.0000063,46.0462785],[6.9999862,46.046205],[6.9999915,46.0460989],[7.0000483,46.0459398],[7.0000346,46.0457305],[7.0000438,46.0456372],[7.0000854,46.045451],[7.0001417,46.0453793],[7.000246,46.0453083],[7.0004743,46.0451354],[7.000528,46.0450563],[7.0006393,46.0449688],[7.0007506,46.0448199],[7.0008745,46.0446591],[7.0011476,46.044535],[7.0012535,46.0444429],[7.0012455,46.0443917],[7.0010134,46.0442723],[7.0008619,46.0441264],[7.0007533,46.0441115],[7.0006486,46.0440641],[7.0004384,46.0438901],[7.0002933,46.0437377],[7.0002732,46.0436935],[7.0002866,46.0436488],[7.0003858,46.0435297],[7.0003711,46.0434138],[7.0003429,46.0433123],[7.000359,46.0432058],[7.0004167,46.043068],[7.0004361,46.0429972],[7.0004334,46.0428953],[7.0004562,46.0428413],[7.0005246,46.0427743],[7.0006648,46.0425281],[7.0007387,46.0423755],[7.0007452,46.0422981],[7.0007037,46.0421315],[7.0007171,46.0420729],[7.0007935,46.04195],[7.0008351,46.0418243],[7.0008753,46.0416558],[7.0009281,46.0414709],[7.0009373,46.0413935],[7.0009217,46.041319],[7.0008862,46.0412675],[7.0008125,46.0412204],[7.000793,46.0411948],[7.0007813,46.0411693],[7.0007633,46.0410819],[7.0007687,46.0410018],[7.0008497,46.0408916],[7.0009095,46.0408045],[7.0009424,46.0407565],[7.0010872,46.0407333],[7.0011891,46.04069],[7.001283,46.0406002],[7.0013199,46.0405047],[7.0013393,46.0403516],[7.0013561,46.0402618],[7.0013407,46.0401919],[7.0013018,46.0401244],[7.0013005,46.0400979],[7.0013293,46.0400197],[7.001344,46.0399331],[7.0013454,46.0398619],[7.0013548,46.0398028],[7.0013769,46.0397567],[7.0013963,46.0397023],[7.0014714,46.0396469],[7.0014768,46.0395761],[7.0014587,46.0395366],[7.0014681,46.0394802],[7.0015144,46.0394244],[7.0015874,46.039369],[7.0017631,46.0393071],[7.0020421,46.0392321],[7.0022426,46.0391558],[7.0023613,46.0390553],[7.0024565,46.0389552],[7.0026657,46.0386866],[7.0027924,46.0385823],[7.0031451,46.0382146],[7.0032276,46.0380461],[7.0032947,46.03796],[7.0034684,46.0377889],[7.0036905,46.0376148],[7.0037521,46.037561],[7.0037936,46.0374998],[7.0038358,46.0373805],[7.0038875,46.0372664],[7.0040149,46.0370435],[7.0041012,46.0368267],[7.0041074,46.0367572],[7.0041047,46.0366513],[7.0041071,46.0366245],[7.004122,46.0366035],[7.0041373,46.0365841],[7.0041532,46.0365695],[7.0041769,46.0365621],[7.0042393,46.0365608],[7.0042935,46.036561],[7.004345,46.036551],[7.0043776,46.0365314],[7.0043985,46.0365143],[7.0044133,46.0364977],[7.0044254,46.0364667],[7.0044624,46.0363645],[7.0045336,46.0362521],[7.0046447,46.0360966],[7.0047237,46.03601],[7.0048266,46.0358594],[7.0049037,46.0357167],[7.0049755,46.0356057],[7.005048,46.0355132],[7.0050925,46.0354629],[7.0051388,46.0354264],[7.0052609,46.0353252],[7.0052799,46.0353131],[7.0053582,46.0352784],[7.0054116,46.0352418],[7.0054457,46.0351927],[7.0055165,46.0351159],[7.0055894,46.0350461],[7.0056121,46.0349923],[7.0056559,46.0349447],[7.0057159,46.0348896],[7.0057407,46.034868],[7.0057778,46.0348548],[7.0058097,46.0348343],[7.0058271,46.0348087],[7.0058282,46.034783],[7.0058407,46.0346612],[7.0058624,46.0345666],[7.0059232,46.0344461],[7.0059367,46.0343747],[7.0059225,46.0342769],[7.0059282,46.0341938],[7.0059458,46.0341289],[7.0059716,46.0340736],[7.0059976,46.0340286],[7.00605,46.0339638],[7.0061955,46.0337904],[7.0062944,46.0336078],[7.0063626,46.0335084],[7.0064239,46.0334538],[7.0067275,46.0331893],[7.0068947,46.0330629],[7.0070023,46.0330345],[7.0071145,46.0330266],[7.007224,46.0330106],[7.0073274,46.0329819],[7.0075384,46.0328938],[7.0077618,46.0327821],[7.007935,46.0327398],[7.0081153,46.032686],[7.0083501,46.0326034],[7.0085202,46.0325204],[7.0080783,46.0320887],[7.0082286,46.0320473],[7.0083681,46.0319335],[7.0083976,46.0318143],[7.0085277,46.0317082],[7.0085129,46.0316765],[7.0085726,46.0315953],[7.0087671,46.0315057],[7.0088455,46.0314838],[7.0088603,46.0314549],[7.0089695,46.0314035],[7.0089459,46.0313575],[7.0090185,46.0312714],[7.0090004,46.0312193],[7.0089651,46.0312038],[7.0089857,46.0311137],[7.0090185,46.031025],[7.0090111,46.0309829],[7.0089696,46.0309396],[7.0089843,46.0309084],[7.0089622,46.030873],[7.0089287,46.0308306],[7.0088904,46.0308129],[7.0089179,46.0307789],[7.0089166,46.0307361],[7.0089293,46.030664],[7.0089816,46.0305951],[7.0090017,46.0305266],[7.0090004,46.0305066],[7.0089883,46.0304759],[7.0090614,46.030387],[7.0090567,46.0303437],[7.0090936,46.0303092],[7.0091305,46.0302621],[7.0091627,46.0302059],[7.0091588,46.0301711],[7.0089944,46.030211],[7.0089354,46.0302221],[7.0088757,46.0302254],[7.0087349,46.0303013],[7.0086698,46.0303027],[7.0087054,46.0302659],[7.0087188,46.0302417],[7.008635,46.0302547],[7.0086054,46.0302473],[7.0086155,46.0302329],[7.0086551,46.0302096],[7.0086692,46.030183],[7.008608,46.0301868],[7.0085357,46.0301798],[7.0084727,46.0301951],[7.0083248,46.0301953],[7.0081864,46.0302374],[7.0080439,46.0302501],[7.0079723,46.0302974],[7.0078164,46.0303201],[7.007837,46.0302682],[7.0079155,46.0301844],[7.0080455,46.0300033],[7.0081327,46.0299167],[7.0081803,46.0298762],[7.0082507,46.0298292],[7.0082246,46.0297869],[7.0082675,46.0297096],[7.0083117,46.0296565],[7.0083158,46.0296248],[7.0083795,46.0295978],[7.0083828,46.0295704],[7.0084807,46.0294889],[7.0084713,46.0294484],[7.0084888,46.0294279],[7.0086081,46.0293544],[7.0086842,46.0292772],[7.0087181,46.0291914],[7.0088482,46.0290424],[7.0089582,46.0289205],[7.0090038,46.0288367],[7.0088093,46.0288422],[7.0089139,46.0287678],[7.0089761,46.0286515],[7.0092894,46.0283702],[7.0095053,46.0282156],[7.0097148,46.0280913],[7.0098601,46.0279781],[7.0100203,46.0278795],[7.0101169,46.0277826],[7.0101933,46.0276513],[7.0102268,46.0275806],[7.0103221,46.0275023],[7.010432,46.0274176],[7.0105058,46.0273543],[7.0105983,46.0272807],[7.0107056,46.027182],[7.0107928,46.0271019],[7.0108706,46.0270126],[7.0110235,46.026898],[7.0111616,46.0268878],[7.0112689,46.0268496],[7.011352,46.0267779],[7.0114741,46.0266829],[7.0115519,46.0266233],[7.0116712,46.0265358],[7.0117544,46.0264483],[7.0117825,46.0263663],[7.0117557,46.0262779],[7.0117047,46.0261969],[7.0116323,46.026168],[7.0115333,46.0262162],[7.0114586,46.0262761],[7.011403,46.0262416],[7.011403,46.0261661],[7.0113547,46.0261363],[7.0112514,46.0261857],[7.0112032,46.0261484],[7.0111723,46.0260553],[7.0111549,46.0259557],[7.01112,46.0258579],[7.0110436,46.025816],[7.0109792,46.0258439],[7.0108733,46.0259091],[7.0108411,46.0258495],[7.0108102,46.0257601],[7.0106922,46.0257834],[7.0106486,46.0257811],[7.0106154,46.0257433],[7.0105869,46.025694],[7.0105675,46.025633],[7.0105306,46.0255595],[7.0104629,46.0255148],[7.0103824,46.0254389],[7.0103033,46.0253821],[7.0102255,46.0253555],[7.0101625,46.0253541],[7.0100988,46.025349],[7.0100693,46.0253048],[7.0100371,46.025282],[7.009966,46.0252415],[7.0099063,46.025228],[7.0098567,46.0251912],[7.0098205,46.0251642],[7.009785,46.0251479],[7.0097635,46.0251167],[7.0097186,46.025092],[7.0096656,46.0250701],[7.0096542,46.025004],[7.0096126,46.0249533],[7.0095664,46.0249053],[7.0095281,46.0248038],[7.009508,46.0247237],[7.0094792,46.0246716],[7.0094604,46.0246544],[7.0094047,46.0247],[7.0093623,46.0247362],[7.0093189,46.0247521],[7.0093008,46.0247773],[7.0092686,46.0247801],[7.0092686,46.0247275],[7.0092552,46.024707],[7.0092512,46.0246846],[7.0092478,46.0246562],[7.0092063,46.0246055],[7.0091473,46.0245258],[7.0090782,46.0244551],[7.0089608,46.0243857],[7.008869,46.0243168],[7.0087925,46.024246],[7.0087516,46.0241832],[7.0087094,46.0241501],[7.0086946,46.0241906],[7.0086756,46.0242475],[7.0086785,46.0243107],[7.0086819,46.0243778],[7.0086953,46.0244267],[7.0087034,46.0244853],[7.008708,46.0245286],[7.0087067,46.0245785],[7.0086832,46.0245827],[7.008651,46.0245407],[7.0086008,46.0244905],[7.0085049,46.0244448],[7.0084398,46.0243862],[7.0084353,46.0243369],[7.0083996,46.0242996],[7.008305,46.024246],[7.0082849,46.0241874],[7.0083292,46.0241091],[7.0083681,46.0239965],[7.0084412,46.023867],[7.0085015,46.0237595],[7.0084928,46.0237124],[7.008417,46.0237408],[7.0083131,46.0238018],[7.0081602,46.0238531],[7.0082112,46.0237758],[7.0082273,46.0236864],[7.0081213,46.0237404],[7.0080475,46.0237311],[7.0080757,46.0236584],[7.008073,46.0236109],[7.0080395,46.023624],[7.0079188,46.0236547],[7.0079134,46.023556],[7.0079148,46.0234666],[7.0078894,46.0234038],[7.0078524,46.0233015],[7.0077979,46.0232747],[7.0077551,46.0232419],[7.0077346,46.0232063],[7.007737,46.0231582],[7.0077113,46.0231158],[7.0076988,46.0230806],[7.0076783,46.0230744],[7.007658,46.023139],[7.0075922,46.0232624],[7.0075696,46.0233857],[7.0075858,46.0234204],[7.0075631,46.0234504],[7.0074715,46.0233478],[7.0073557,46.0232666],[7.0073395,46.0231869],[7.0073031,46.0231761],[7.007276,46.0230318],[7.0071969,46.022813],[7.0071305,46.0227894],[7.00705,46.022729],[7.0069877,46.0226611],[7.0069308,46.0225643],[7.0069189,46.0224954],[7.006895,46.0224871],[7.0068417,46.0225365],[7.0068104,46.0225476],[7.006771,46.0225476],[7.0067384,46.0225541],[7.0067137,46.0225755],[7.0067148,46.0226117],[7.0067347,46.0226396],[7.0067546,46.0226749],[7.0067503,46.0227158],[7.0067495,46.0227489],[7.0066897,46.0227642],[7.006621,46.0228071],[7.006594,46.0228448],[7.0065952,46.0229141],[7.0066428,46.0230475],[7.0066268,46.0230617],[7.0066042,46.0230182],[7.0065214,46.0229646],[7.0064951,46.0229109],[7.0064325,46.0228869],[7.0062619,46.02269],[7.0061638,46.0225744],[7.0061744,46.0225334],[7.0061546,46.0225051],[7.0061247,46.0224942],[7.0059786,46.0224067],[7.0058781,46.0223178],[7.0057748,46.0222727],[7.0056929,46.0222081],[7.005704,46.0221792],[7.0057301,46.0221643],[7.0057435,46.0221346],[7.0056975,46.0220602],[7.005689,46.0219616],[7.005651,46.0219282],[7.0055925,46.021852],[7.005572,46.0217907],[7.0055528,46.0217749],[7.0055365,46.0216943],[7.0055217,46.0216801],[7.0055042,46.0216873],[7.0054444,46.0217784],[7.0053738,46.0218164],[7.0052626,46.0218937],[7.0052373,46.022078],[7.0052796,46.0222464],[7.0053972,46.0223765],[7.0054585,46.0224483],[7.0054767,46.0224977],[7.0054706,46.0225279],[7.0055095,46.0225493],[7.005539,46.0225968],[7.0055944,46.022675],[7.0055929,46.022713],[7.0056304,46.022785],[7.0056236,46.0228021],[7.0055932,46.0228063],[7.005446,46.0227806],[7.0053633,46.0227949],[7.0053628,46.0228189],[7.0053369,46.0228345],[7.0052914,46.0228105],[7.0051734,46.0228136],[7.0051145,46.0227752],[7.0050595,46.0227919],[7.0050569,46.0228188],[7.0051104,46.0229772],[7.0051573,46.0230385],[7.0051251,46.0230923],[7.0050847,46.0230678],[7.0050398,46.0230618],[7.0050274,46.0230857],[7.0049518,46.0230351],[7.0049299,46.0230255],[7.0048819,46.0230373],[7.0048799,46.023076],[7.0048564,46.0230792],[7.0047545,46.0231012],[7.0047429,46.0231197],[7.0047347,46.0231462],[7.0047227,46.0231713],[7.0047186,46.0231862],[7.0047227,46.0232132],[7.0047146,46.0232383],[7.0046972,46.0232635],[7.0046771,46.0232784],[7.0046673,46.0232834],[7.0046516,46.0232914],[7.0046382,46.0233073],[7.004614,46.0233371],[7.004602,46.0233631],[7.0045953,46.0233799],[7.0045953,46.0233967],[7.004614,46.0234227],[7.0046288,46.023459],[7.0046288,46.0234898],[7.0046207,46.0235103],[7.0046288,46.0235289],[7.0046315,46.0235494],[7.0046301,46.0235829],[7.0046181,46.0236173],[7.0046181,46.0236388],[7.0046234,46.0236583],[7.0046408,46.0236779],[7.0046476,46.0236891],[7.0046435,46.023703],[7.0046556,46.0237319],[7.0046623,46.0237766],[7.0046636,46.0238157],[7.0046824,46.0238502],[7.0047106,46.0238921],[7.004728,46.0239302],[7.0047535,46.0239954],[7.0047911,46.0240522],[7.004842,46.0241304],[7.0048688,46.0241789],[7.0048796,46.0242338],[7.0048903,46.0242701],[7.0049077,46.0243185],[7.0049309,46.0243645],[7.0049698,46.0244316],[7.0050101,46.024493],[7.0050315,46.0245238],[7.0050405,46.0245514],[7.0050312,46.0245676],[7.0050195,46.0245968],[7.0050218,46.0246211],[7.0050522,46.0246519],[7.0051316,46.024673],[7.0051853,46.0247151],[7.00526,46.0247816],[7.0053534,46.0248902],[7.0054024,46.0249648],[7.0054305,46.025007],[7.0054678,46.0250361],[7.0055145,46.0250491],[7.0055776,46.0250913],[7.0056313,46.0251334],[7.0056756,46.0251885],[7.005734,46.0252518],[7.0057644,46.0253118],[7.00579,46.0253426],[7.0058391,46.0253718],[7.0058648,46.025409],[7.0058718,46.0254431],[7.0058718,46.0255015],[7.0058928,46.025555],[7.0059138,46.0255971],[7.0059768,46.0256441],[7.0060142,46.0256733],[7.0060446,46.0257171],[7.0060656,46.0257771],[7.0060913,46.02585],[7.0061006,46.0259019],[7.0061193,46.0259538],[7.0061216,46.0260122],[7.0060983,46.0260835],[7.0060891,46.0261072],[7.0060838,46.0261179],[7.0060764,46.0261254],[7.0060576,46.0261361],[7.0060341,46.0261459],[7.0060194,46.0261524],[7.0060073,46.0261608],[7.006002,46.0261724],[7.0060053,46.0261882],[7.006006,46.0262013],[7.006002,46.0262115],[7.0059946,46.0262255],[7.0059812,46.0262455],[7.0059704,46.0262548],[7.0059483,46.026265],[7.0059403,46.0262785],[7.0059282,46.0262883],[7.0059262,46.0262953],[7.0059269,46.0263051],[7.0059222,46.0263111],[7.0058947,46.0263218],[7.0058357,46.0263284],[7.0057995,46.0263279],[7.0057364,46.026313],[7.0057123,46.0263023],[7.0056888,46.0262869],[7.0056761,46.0262837],[7.0056553,46.0262832],[7.0056285,46.026292],[7.0055634,46.0263153],[7.00555,46.0263265],[7.0055346,46.02634],[7.0055205,46.0263442],[7.0054816,46.026353],[7.0054729,46.02636],[7.0054702,46.0263717],[7.0054756,46.0263866],[7.0054756,46.0263931],[7.0054642,46.0264098],[7.0054471,46.0264325],[7.0054109,46.0264762],[7.0053887,46.0264997],[7.0053385,46.0265524],[7.0053082,46.0265816],[7.0052988,46.0265962],[7.005293,46.0266205],[7.0052848,46.0266392],[7.0052615,46.0266684],[7.0052171,46.0267202],[7.0052078,46.0267405],[7.0052031,46.0267656],[7.0051646,46.0268248],[7.0051494,46.0268418],[7.0051459,46.0268572],[7.0051424,46.0268759],[7.0051272,46.026897],[7.0050969,46.026918],[7.005049,46.0269569],[7.0050163,46.0269902],[7.0049579,46.0270607],[7.0049498,46.0270874],[7.0049498,46.0271101],[7.0049311,46.0271409],[7.0049007,46.0271709],[7.0048774,46.0271969],[7.0048318,46.0272212],[7.0048085,46.0272382],[7.0047945,46.0272577],[7.0047735,46.027269],[7.004756,46.0272812],[7.0047408,46.0273015],[7.0047221,46.0273185],[7.0046859,46.0273355],[7.0046203,46.0273767],[7.0045655,46.0274156],[7.0045482,46.0274325],[7.004535,46.0274445],[7.0045319,46.02746],[7.0045187,46.0274748],[7.0045014,46.0274882],[7.0044719,46.0274953],[7.0044272,46.0275017],[7.0044038,46.0275115],[7.0043957,46.0275221],[7.0043866,46.0275348],[7.0043713,46.0275383],[7.0043469,46.0275376],[7.0043323,46.0275353],[7.0043135,46.0275339],[7.0043028,46.0275362],[7.0042981,46.0275418],[7.0042981,46.0275469],[7.0043095,46.0275516],[7.0043108,46.0275567],[7.0043055,46.0275614],[7.00429,46.0275614],[7.0042766,46.0275641],[7.0042739,46.0275697],[7.004278,46.0275781],[7.0042907,46.0275851],[7.0043088,46.0275856],[7.0043155,46.0275893],[7.0043242,46.0275986],[7.0043363,46.0276084],[7.0043504,46.0276163],[7.0043832,46.0276275],[7.004394,46.0276326],[7.0044,46.0276386],[7.0043987,46.0276433],[7.0043826,46.0276526],[7.0043739,46.0276601],[7.0043718,46.027668],[7.0043672,46.0276768],[7.0043591,46.0276805],[7.0043444,46.0276833],[7.0043249,46.0276838],[7.0043102,46.0276871],[7.0042961,46.0276899],[7.0042807,46.027688],[7.0042532,46.0276805],[7.0042089,46.0276698],[7.0041807,46.0276647],[7.0041546,46.0276661],[7.0041197,46.0276726],[7.0040621,46.0276815],[7.0040285,46.0276852],[7.0039843,46.0276843],[7.0039601,46.0276824],[7.0039333,46.0276773],[7.0039051,46.0276689],[7.003881,46.0276615],[7.0038703,46.027661],[7.0038496,46.0276638],[7.0038176,46.0276674],[7.003765,46.0276658],[7.0037302,46.0276639],[7.003702,46.0276658],[7.0036792,46.0276732],[7.0036001,46.0276983],[7.0035384,46.027717],[7.00347,46.0277272],[7.0034137,46.0277337],[7.0033158,46.0277402],[7.0032205,46.0277384],[7.0031575,46.0277309],[7.0031146,46.0277207],[7.0030824,46.0277104],[7.0030435,46.0276928],[7.0030167,46.0276713],[7.0029805,46.0276555],[7.0029228,46.0276378],[7.002845,46.0276276],[7.0027257,46.0276015],[7.0026237,46.0275875],[7.0025674,46.0275801],[7.0025097,46.0275661],[7.002444,46.0275447],[7.0023837,46.0275093],[7.002326,46.0274795],[7.0022858,46.0274572],[7.0022204,46.0274405],[7.0021366,46.0274061],[7.0021053,46.0273907],[7.0020728,46.0273868],[7.0020129,46.0273844],[7.0019702,46.0273873],[7.0019306,46.0273908],[7.0018889,46.0274007],[7.0018584,46.0274063],[7.0018289,46.0274021],[7.0018035,46.0273929],[7.0017873,46.0273915],[7.0017598,46.0273929],[7.00171,46.0273993],[7.0016612,46.0274028],[7.0016155,46.0274007],[7.0015799,46.0273957],[7.0015382,46.0273873],[7.0015006,46.0273816],[7.0014183,46.0273809],[7.0013645,46.0273781],[7.0013258,46.0273732],[7.0012903,46.0273647],[7.0012709,46.0273612],[7.0012425,46.0273597],[7.0011795,46.0273513],[7.0011246,46.0273343],[7.0010758,46.0273195],[7.0010321,46.0273089],[7.0010057,46.0272962],[7.0009549,46.0272857],[7.0009112,46.0272765],[7.000842,46.0272659],[7.0008093,46.0272573],[7.0007846,46.0272466],[7.0007754,46.0272412],[7.0007654,46.0272268],[7.0007546,46.0272177],[7.0007353,46.0272129],[7.0007161,46.0272134],[7.0006938,46.0272134],[7.0006668,46.0272102],[7.0006337,46.0271995],[7.0005821,46.0271904],[7.0005551,46.0271878],[7.0005343,46.0271862],[7.0005197,46.027184],[7.0004981,46.0271808],[7.0004673,46.0271792],[7.0004403,46.027176],[7.0004095,46.0271669],[7.0003895,46.0271664],[7.0003772,46.027169],[7.0003548,46.0271781],[7.0003294,46.0271792],[7.0003086,46.0271771],[7.0002932,46.0271707],[7.0002747,46.0271669],[7.0002624,46.0271674],[7.0002185,46.0271733],[7.0001946,46.0271717],[7.0001754,46.0271642],[7.0001446,46.0271567],[7.0001153,46.0271594],[7.0000945,46.0271674],[7.0000737,46.0271797],[7.0000421,46.0271904],[7.0000021,46.0271985],[6.9999697,46.0272006],[6.9999358,46.0271963],[6.9998996,46.0271974],[6.999868,46.0271979],[6.999828,46.027207],[6.9997671,46.0272257],[6.9996916,46.0272519],[6.9996462,46.027261],[6.9996331,46.0272653],[6.9996169,46.0272765],[6.9996077,46.0272872],[6.9995938,46.0273022],[6.999573,46.0273102],[6.9995499,46.0273177],[6.9994752,46.0273316],[6.9994221,46.0273434],[6.9993743,46.0273525],[6.9993304,46.0273643],[6.9993057,46.0273744],[6.9992857,46.0273926],[6.9992726,46.0274028],[6.9992649,46.0274145],[6.999258,46.0274209],[6.9992457,46.0274316],[6.9992102,46.0274546],[6.9991848,46.0274664],[6.9991463,46.0274776],[6.9990885,46.0275017],[6.9990362,46.027521],[6.9989745,46.0275343],[6.9989206,46.0275423],[6.998899,46.0275477],[6.9988736,46.0275584],[6.9988444,46.0275734],[6.9988212,46.0275771],[6.998792,46.0275744],[6.9987689,46.0275669],[6.998735,46.0275584],[6.998715,46.0275568],[6.9986918,46.02756],[6.9986526,46.0275595],[6.9985809,46.0275525],[6.9985486,46.0275525],[6.9985355,46.0275546],[6.9985201,46.0275643],[6.9985101,46.0275857],[6.9985054,46.0276065],[6.9984962,46.0276151],[6.99848,46.0276215],[6.9984561,46.0276279],[6.9984407,46.0276349],[6.998433,46.027645],[6.9984346,46.0276771],[6.9984315,46.0276969],[6.998413,46.0277167],[6.9983984,46.027729],[6.9983807,46.0277381],[6.9983606,46.0277466],[6.9983352,46.0277643],[6.9983013,46.0277755],[6.9982505,46.027783],[6.9982104,46.0277835],[6.9981842,46.0277878],[6.998148,46.0277916],[6.9981157,46.0278033],[6.998098,46.0278092],[6.9980726,46.0278151],[6.9980425,46.0278183],[6.9980202,46.027822],[6.9979932,46.0278343],[6.9979855,46.0278499],[6.9979855,46.0278686],[6.9979817,46.0278777],[6.9979678,46.0278852],[6.9979455,46.0278932],[6.997927,46.0278975],[6.9979139,46.0279049],[6.9979008,46.0279151],[6.9978931,46.0279392],[6.9978869,46.0279504],[6.9978715,46.0279648],[6.9978477,46.0279828],[6.9978336,46.0279981],[6.9978263,46.0280121],[6.9978283,46.0280265],[6.9978236,46.0280549],[6.9978055,46.0280712],[6.9977954,46.0280754],[6.997782,46.0280768],[6.9977713,46.0280796],[6.9977599,46.028088],[6.9977505,46.0281061],[6.9977371,46.0281243],[6.9977196,46.0281345],[6.9977049,46.0281415],[6.9976888,46.0281494],[6.9976841,46.028156],[6.997666,46.0281769],[6.9976311,46.0282086],[6.9975788,46.0282412],[6.9975379,46.0282551],[6.9974782,46.0282714],[6.9974367,46.0282765],[6.9973817,46.0282886],[6.99732,46.0282984],[6.997269,46.0283077],[6.9972529,46.0283152],[6.9972415,46.0283254],[6.9972288,46.0283496],[6.9972241,46.0283697],[6.9972114,46.0283841],[6.9971939,46.0283957],[6.9971731,46.0284092],[6.9971356,46.0284232],[6.9970953,46.0284372],[6.9970491,46.0284586],[6.9970095,46.0284721],[6.9969572,46.028486],[6.9969029,46.028507],[6.99687,46.0285261],[6.9968586,46.0285382],[6.9968506,46.0285517],[6.9968399,46.0285582],[6.9968184,46.0285666],[6.9967902,46.0285792],[6.9967795,46.0285866],[6.9967688,46.0285987],[6.9967574,46.0286159],[6.996744,46.0286234],[6.9967198,46.0286299],[6.996695,46.0286355],[6.9966662,46.0286355],[6.9966394,46.0286336],[6.9966119,46.0286346],[6.9965636,46.0286369],[6.9965147,46.0286364],[6.9964691,46.0286369],[6.9964121,46.0286443],[6.9963551,46.0286536],[6.9963256,46.0286597],[6.9963007,46.0286681],[6.9962759,46.0286779],[6.9962659,46.0286834],[6.9962585,46.0286946],[6.9962431,46.0287328],[6.9962344,46.0287589],[6.9962163,46.0287855],[6.9962078,46.0288099],[6.9961939,46.0288453],[6.996159,46.0288977],[6.9961577,46.0289098],[6.9961644,46.0289302],[6.9961577,46.0289507],[6.9961054,46.0290168],[6.9960759,46.0290615],[6.9960531,46.0291276],[6.9960222,46.0292096],[6.9960155,46.029272],[6.9960102,46.0292934],[6.9959954,46.0293139],[6.9959941,46.0293381],[6.9959994,46.0293697],[6.9960155,46.0293856],[6.9960303,46.0294088],[6.9960316,46.0294321],[6.9960397,46.0294498],[6.9960678,46.02946],[6.9960879,46.0294796],[6.9961054,46.0295122],[6.9961081,46.0295345],[6.9961014,46.0295494],[6.9960812,46.0295587],[6.996041,46.0295597],[6.9960155,46.0295699],[6.995982,46.0295857],[6.9959404,46.0295969],[6.9958801,46.0296062],[6.9957755,46.0296165],[6.9957258,46.0296239],[6.9956682,46.0296444],[6.9955837,46.0296789],[6.9954523,46.029718],[6.9953195,46.0297599],[6.9952886,46.0297738],[6.9952511,46.0297915],[6.995231,46.0298046],[6.9952095,46.0298129],[6.9951639,46.0298195],[6.9950955,46.0298297],[6.9950593,46.0298455],[6.9950137,46.0298669],[6.9949641,46.0299023],[6.9949024,46.0299303],[6.9948407,46.0299563],[6.9947495,46.0299768],[6.994653,46.0299777],[6.9945725,46.0299843],[6.9945349,46.0299936],[6.9945001,46.0300038],[6.9944572,46.0300122],[6.9944142,46.0300234],[6.9943727,46.030028],[6.9943204,46.0300299],[6.9942493,46.0300327],[6.9941501,46.030055],[6.994028,46.0300736],[6.9939677,46.0300951],[6.993914,46.0301239],[6.9938335,46.0301789],[6.9937906,46.0301956],[6.9937236,46.0302263],[6.993682,46.0302561],[6.9936096,46.0302971],[6.9935801,46.0303185],[6.9935519,46.0303381],[6.9935425,46.0303558],[6.9935224,46.0303856],[6.9934795,46.03042],[6.9934071,46.0304628],[6.9933186,46.0305094],[6.9932596,46.0305355],[6.9932287,46.0305513],[6.9931952,46.0305653],[6.9931697,46.0305736],[6.9931496,46.0305923],[6.9931013,46.0306491],[6.993045,46.0307152],[6.9929967,46.0307757],[6.9929766,46.0308083],[6.9929551,46.0308427],[6.9929136,46.0308828],[6.992872,46.030906],[6.9928358,46.0309331],[6.9927701,46.0309675],[6.9927271,46.0309889],[6.992707,46.031001],[6.9926842,46.0310271],[6.9926574,46.031083],[6.9926373,46.0311342],[6.9926131,46.0311891],[6.9926024,46.0312263],[6.9925971,46.0312701],[6.9925971,46.0313297],[6.9926038,46.0313558],[6.9926158,46.0313884],[6.9926225,46.0314209],[6.9926118,46.0314582],[6.9926158,46.0315615],[6.9926172,46.0316435],[6.9926149,46.031658],[6.9926136,46.0316714],[6.9926111,46.0316826],[6.9926169,46.0316984],[6.9926238,46.0317161],[6.992624,46.0317404],[6.9925949,46.0318016],[6.9925176,46.0318134],[6.9924478,46.0317882],[6.9921658,46.0317902],[6.9917927,46.0317085],[6.9915372,46.03163],[6.9913736,46.0316169],[6.9913156,46.0315685],[6.9909149,46.0315182],[6.9908564,46.031549],[6.9904523,46.0314419],[6.9903946,46.0314512],[6.9903508,46.0314344],[6.9902417,46.0313385],[6.9900727,46.0312659],[6.9899842,46.0312622],[6.9898581,46.0312082],[6.9897267,46.03121],[6.9895735,46.0311219],[6.9893673,46.0311076],[6.9891936,46.0311711],[6.989142,46.0311672],[6.9890006,46.0310996],[6.9888477,46.0309234],[6.9882694,46.0303786],[6.98764,46.0301393],[6.9875844,46.0300743],[6.987251,46.0298767],[6.9868832,46.029742],[6.9867843,46.0296663],[6.986661,46.0294931],[6.9863844,46.0293107],[6.986028,46.0292212],[6.9858804,46.0291318],[6.985808,46.0291225],[6.9857031,46.0290399],[6.9852206,46.0289121],[6.9849435,46.0287111],[6.9848451,46.0286476],[6.9846573,46.0286123],[6.9843945,46.028535],[6.9842493,46.0284662],[6.984027,46.0284223],[6.9839573,46.0283795],[6.9839197,46.0283217],[6.9838312,46.0282733],[6.9838165,46.0282333],[6.9837145,46.028224],[6.9835959,46.0281926],[6.9832998,46.0281126],[6.9830266,46.0280908],[6.9827221,46.0280294],[6.9822143,46.0280135],[6.9820127,46.0280405],[6.9818196,46.0280275],[6.9817083,46.0280433],[6.9815506,46.0280418],[6.9811812,46.0281132],[6.9808602,46.0281379],[6.9807078,46.0281495],[6.9805656,46.0281346],[6.9803501,46.0281858],[6.9802438,46.0280927],[6.980174,46.0280647],[6.9801198,46.0280139],[6.9799769,46.0278906],[6.9798589,46.0278562],[6.9797856,46.027768],[6.979364,46.0275927],[6.978941,46.0273769],[6.9788839,46.027372],[6.9787659,46.0273981],[6.9786237,46.0273692],[6.9785577,46.0273226],[6.9783823,46.0272463],[6.9781329,46.0271923],[6.9779237,46.0271178],[6.9776908,46.0270641],[6.9775608,46.0270693],[6.97741,46.0270247],[6.9772781,46.0269431],[6.9771901,46.026925],[6.9771619,46.0268887],[6.9770026,46.026877],[6.9767113,46.0268715],[6.9766004,46.026844],[6.9764891,46.026761],[6.9762332,46.0265713],[6.9758137,46.026409],[6.9755967,46.0264206],[6.9754752,46.0264439],[6.9752347,46.0264315],[6.9750847,46.02638],[6.9749624,46.0263189],[6.9748193,46.0263045],[6.9747788,46.0263216],[6.9747315,46.0263744],[6.9746487,46.0264334],[6.9745693,46.0264494],[6.9745333,46.0264762],[6.9744422,46.0264846],[6.9743476,46.0264734],[6.9743241,46.0264692],[6.9743125,46.0264508],[6.9743054,46.0263704],[6.9742155,46.0263418],[6.9740765,46.0262728],[6.9740368,46.0262639],[6.9739312,46.0262024],[6.9736807,46.0261191],[6.9735912,46.026112],[6.9734293,46.026065],[6.973364,46.0260744],[6.9730407,46.0260479],[6.9729625,46.0260265],[6.9729086,46.0260294],[6.9727263,46.0260091],[6.9726807,46.0260168],[6.9725517,46.0259973],[6.9724036,46.0259921],[6.9722993,46.0259969],[6.9722262,46.0259907],[6.9721461,46.0259951],[6.9720437,46.0259886],[6.9718851,46.0259888],[6.9718307,46.0260025],[6.9717876,46.0260265],[6.9717319,46.0260429],[6.9716481,46.0260444],[6.9715453,46.0260685],[6.9714534,46.0260716],[6.9713989,46.0260786],[6.971309,46.0261002],[6.9711859,46.0261677],[6.9710717,46.0262016],[6.9709567,46.0262569],[6.9708723,46.0262709],[6.9707398,46.0262763],[6.9706274,46.0262644],[6.9704973,46.0262686],[6.970447,46.0262718],[6.970345,46.0263075],[6.9702886,46.0263673],[6.970205,46.0264549],[6.970238,46.026566],[6.9702804,46.0266915],[6.9702671,46.0267354],[6.9702381,46.0267988],[6.9702424,46.0268522],[6.9702682,46.0269157],[6.970356,46.0270179],[6.9704873,46.0271532],[6.9705668,46.0272948]]}}]}
