{"type":"FeatureCollection","features":[{"type":"Feature","properties":{"osm_relation":9678375,"name":"Tour du Mont Blanc - Variante de la Tête Bernarda","ref":null,"roundtrip":false,"point_count":453,"length_m":10004.0,"source":"OpenStreetMap contributors (ODbL)","role":"alternative","slug":"tete-bernarda","label":"Tête Bernarda"},"geometry":{"type":"LineString","coordinates":[[7.0348327,45.8464385],[7.0348361,45.8464284],[7.0348462,45.8464142],[7.0348476,45.8463997],[7.0348582,45.846379],[7.0349576,45.8462823],[7.0349881,45.8461814],[7.0350041,45.8461543],[7.0349426,45.8460868],[7.0349426,45.8459765],[7.0350802,45.8458959],[7.0351459,45.8458008],[7.0353892,45.8456174],[7.0353779,45.8455633],[7.0355093,45.8454256],[7.0355442,45.8453055],[7.0356891,45.8451984],[7.0357695,45.8451934],[7.035872,45.8452138],[7.0359462,45.8449707],[7.0364484,45.8447232],[7.0367674,45.8445904],[7.0369363,45.8445133],[7.0371064,45.8443814],[7.0373232,45.8441328],[7.0375049,45.8440106],[7.0376525,45.8439396],[7.0379409,45.8436282],[7.0381933,45.8434323],[7.0384601,45.8433168],[7.038972,45.8432113],[7.0394912,45.8430355],[7.0401233,45.8428682],[7.0403615,45.8427784],[7.0407511,45.8426511],[7.0409671,45.8426284],[7.0412399,45.8425962],[7.0415446,45.8425772],[7.0416301,45.8425906],[7.041694,45.8425842],[7.0417294,45.8425467],[7.0417897,45.8425383],[7.0418246,45.8425177],[7.0418903,45.8425112],[7.0419332,45.8424831],[7.0421022,45.8424448],[7.0422897,45.8423397],[7.0425982,45.8421267],[7.042967,45.8418931],[7.0433492,45.8417231],[7.043714,45.8415465],[7.0438349,45.8415573],[7.0439355,45.8415489],[7.0440187,45.8415517],[7.0440656,45.8415321],[7.0441474,45.8415283],[7.0442426,45.8414984],[7.0443496,45.8414096],[7.0444998,45.8412377],[7.0449612,45.8409686],[7.0453367,45.840707],[7.0458195,45.8402884],[7.046077,45.8399895],[7.0463237,45.8398325],[7.0465249,45.8396079],[7.0466644,45.8394061],[7.0468924,45.8390402],[7.0470533,45.8387412],[7.0472679,45.8385544],[7.0474503,45.8382255],[7.04763,45.837956],[7.0478767,45.8376869],[7.0481342,45.8374029],[7.0484454,45.8370516],[7.0487029,45.8367675],[7.048778,45.8364013],[7.0487699,45.836155],[7.0488745,45.8358481],[7.0489925,45.835579],[7.0489818,45.8353324],[7.049014,45.8350483],[7.0490247,45.8348315],[7.0490676,45.8345325],[7.0492098,45.8343012],[7.0494002,45.8340616],[7.0495531,45.8337704],[7.0496041,45.8334187],[7.0497462,45.8330603],[7.049875,45.832851],[7.0499823,45.8325968],[7.0501513,45.8323647],[7.0502478,45.8320582],[7.0502827,45.8316923],[7.0502934,45.8313334],[7.0503015,45.8310939],[7.0503229,45.8308322],[7.0503041,45.830556],[7.0503659,45.8303239],[7.0504758,45.8300753],[7.0505764,45.8296831],[7.0505874,45.8294067],[7.0506287,45.8292744],[7.0506541,45.8291705],[7.0507,45.829088],[7.0507671,45.8290076],[7.0508365,45.8288221],[7.0507295,45.8287936],[7.0504114,45.8285898],[7.050398,45.8283502],[7.0501942,45.8280811],[7.0500654,45.8278643],[7.0500335,45.8277517],[7.0499302,45.8276928],[7.0499021,45.827662],[7.0499028,45.8276381],[7.0498951,45.8276269],[7.049778,45.8275718],[7.049768,45.8275564],[7.0498243,45.8274816],[7.049765,45.8273858],[7.0495531,45.8272143],[7.0492608,45.8271017],[7.0489604,45.8270718],[7.0487001,45.8270625],[7.048145,45.8271409],[7.0476649,45.8271619],[7.0471686,45.8271989],[7.046836,45.8271391],[7.0463211,45.8270943],[7.0458919,45.8269971],[7.0454091,45.8269821],[7.0450765,45.8269447],[7.0446366,45.8267877],[7.044287,45.826757],[7.0441487,45.8266873],[7.0440838,45.8266699],[7.0438762,45.8265261],[7.0436657,45.8265003],[7.0434028,45.8264737],[7.04292,45.8262794],[7.0426196,45.8262196],[7.0421261,45.8261896],[7.0418284,45.8262498],[7.0415467,45.8261672],[7.0412356,45.8260626],[7.040903,45.8259355],[7.0405704,45.8258457],[7.0403451,45.825756],[7.040101,45.8254872],[7.0397148,45.8252779],[7.0393071,45.8252331],[7.0391783,45.8252555],[7.039004,45.8253373],[7.0387787,45.8253],[7.0385346,45.8251583],[7.0382101,45.8249561],[7.0379418,45.8247617],[7.037738,45.8245523],[7.0374805,45.8242757],[7.0372364,45.8240219],[7.0370406,45.8237224],[7.0369038,45.8234836],[7.0368692,45.8233808],[7.0368059,45.8233411],[7.0365581,45.823164],[7.0365149,45.8231813],[7.0364548,45.8231696],[7.0363593,45.8230299],[7.0362694,45.8228579],[7.0363556,45.8226892],[7.0362628,45.8225691],[7.0362185,45.8224116],[7.036255,45.8223378],[7.0361973,45.8222902],[7.036236,45.8221972],[7.0362027,45.8221537],[7.0362993,45.8220696],[7.0362695,45.8219832],[7.0362711,45.8218986],[7.0361853,45.8218612],[7.0362121,45.8217303],[7.0361598,45.8216827],[7.0361772,45.8216322],[7.0361689,45.8215827],[7.0361316,45.8215705],[7.0360391,45.8216191],[7.0358446,45.8216724],[7.0355467,45.8216331],[7.0352838,45.8215134],[7.0353284,45.8212343],[7.0353588,45.8210642],[7.0354201,45.8208351],[7.0354568,45.8206274],[7.035206,45.8206121],[7.0350716,45.8205309],[7.0350451,45.8205149],[7.0346803,45.8203803],[7.0344362,45.820119],[7.0342538,45.8198498],[7.0338971,45.8196326],[7.0335752,45.8194157],[7.0332866,45.8193454],[7.0331461,45.8193111],[7.0328456,45.8193485],[7.0324406,45.8193638],[7.0321721,45.8193999],[7.0318142,45.8194263],[7.0314368,45.8192895],[7.031158,45.8191751],[7.0307694,45.8191326],[7.0304853,45.8189821],[7.0301324,45.818982],[7.0299086,45.8190871],[7.0297128,45.8191914],[7.0294231,45.819154],[7.0291657,45.8191765],[7.0289404,45.8192438],[7.0287472,45.8193559],[7.0286185,45.819483],[7.0283825,45.8196102],[7.0281598,45.8195806],[7.0279023,45.8196778],[7.0277033,45.8198317],[7.0275563,45.819984],[7.0273257,45.8200533],[7.0270496,45.8199321],[7.0267182,45.8199619],[7.0265612,45.8203134],[7.0263037,45.8204853],[7.0259175,45.8206125],[7.0259087,45.8206979],[7.0254106,45.8205224],[7.0252416,45.8203657],[7.0248875,45.820261],[7.02463,45.820104],[7.0243296,45.8199919],[7.0241446,45.8199018],[7.0238656,45.8197747],[7.0234901,45.8196475],[7.0231361,45.8196401],[7.0227054,45.819638],[7.0224135,45.8195733],[7.0224222,45.8196704],[7.0224027,45.8197008],[7.0224014,45.819727],[7.0223826,45.8197475],[7.0223411,45.8197616],[7.0222136,45.819791],[7.0221587,45.8197915],[7.0221286,45.8198036],[7.0218046,45.8200639],[7.0217805,45.8201153],[7.021649,45.8202092],[7.0215961,45.8202228],[7.0215699,45.8202424],[7.0215605,45.8202798],[7.0215297,45.8202957],[7.0215317,45.820313],[7.0215431,45.8203259],[7.0215753,45.8203303],[7.0216237,45.820326],[7.0216227,45.8203609],[7.0215847,45.8203705],[7.0215458,45.8203971],[7.0215404,45.82042],[7.0215283,45.8204317],[7.0215035,45.8204345],[7.0214841,45.8204602],[7.0214485,45.8204822],[7.0214284,45.8205069],[7.0213962,45.8205186],[7.0213506,45.8205709],[7.0213547,45.8206088],[7.0213138,45.8206214],[7.0213264,45.8206401],[7.0213506,45.8206565],[7.0212863,45.8207158],[7.0212856,45.8207392],[7.0212963,45.8207546],[7.0212306,45.8208125],[7.0212369,45.820837],[7.0213091,45.8208387],[7.0213386,45.820827],[7.0213573,45.8208429],[7.0214023,45.8208238],[7.0214202,45.8208392],[7.0213312,45.8209654],[7.0212674,45.8211084],[7.0212038,45.8212275],[7.0211964,45.821321],[7.0211512,45.8213388],[7.021124,45.8213728],[7.0210697,45.8213981],[7.021071,45.821421],[7.0210764,45.8214434],[7.0210469,45.8214504],[7.0209695,45.8214505],[7.0207247,45.8215415],[7.0206083,45.8216392],[7.0205527,45.8216621],[7.020484,45.8216784],[7.0202701,45.8217158],[7.0200998,45.8217187],[7.020025,45.8217313],[7.0199794,45.8217574],[7.0199107,45.8217692],[7.019805,45.8217733],[7.0196344,45.8217439],[7.0195797,45.8217602],[7.0195582,45.8217836],[7.0195017,45.8218686],[7.0195017,45.8220331],[7.0195097,45.8222047],[7.0195419,45.8223318],[7.0195955,45.8226084],[7.0194802,45.8228107],[7.0193407,45.8230275],[7.0191409,45.8231855],[7.0190594,45.8232771],[7.0189907,45.8233714],[7.0189226,45.8234154],[7.018811,45.8234471],[7.0186045,45.8235462],[7.018174,45.823607],[7.0178494,45.823663],[7.0174632,45.8237677],[7.017152,45.8238499],[7.0168624,45.8239097],[7.0165271,45.8240813],[7.016334,45.8243804],[7.016173,45.8246121],[7.0158941,45.8248439],[7.01554,45.8248663],[7.0148403,45.8248029],[7.0144401,45.8248552],[7.0141536,45.8248294],[7.0139334,45.8247766],[7.0137323,45.8247542],[7.0132199,45.8246982],[7.0126379,45.824605],[7.0123858,45.824657],[7.0119995,45.8245299],[7.0116777,45.8244476],[7.0115747,45.8244117],[7.0115961,45.8243705],[7.0115975,45.8243229],[7.0116337,45.8242808],[7.011631,45.8242593],[7.0115787,45.8242584],[7.0114752,45.8242925],[7.0112807,45.8242832],[7.0109843,45.8243766],[7.0107335,45.8244402],[7.0105393,45.8243818],[7.0104213,45.8243575],[7.010306,45.8243547],[7.0101568,45.8242962],[7.0097961,45.8242542],[7.0094353,45.8241561],[7.0091242,45.8240439],[7.0090413,45.823993],[7.0089743,45.8239967],[7.0088804,45.8240079],[7.0087474,45.8240592],[7.0084912,45.8240514],[7.0079762,45.8239692],[7.0075578,45.8238645],[7.0070964,45.8236701],[7.0066485,45.8235508],[7.0060665,45.823371],[7.0056829,45.8232966],[7.0050736,45.8230543],[7.0047146,45.8230495],[7.0042511,45.8228956],[7.0038161,45.822691],[7.0032984,45.8224888],[7.0026332,45.8223392],[7.002239,45.8222275],[7.0015067,45.8220925],[7.0009059,45.8218458],[7.0004446,45.8216589],[6.9995004,45.8213149],[6.9988165,45.8211433],[6.9982452,45.8210084],[6.9978267,45.8208065],[6.9971294,45.8205298],[6.9965393,45.8203504],[6.9958741,45.8199765],[6.9952411,45.8197597],[6.9946724,45.8195653],[6.9942272,45.8192886],[6.993841,45.8190082],[6.9934386,45.8188176],[6.9930631,45.8186119],[6.9925857,45.8184362],[6.9922692,45.8183652],[6.992001,45.8183054],[6.9915772,45.8180399],[6.9912982,45.8179091],[6.9909656,45.8177296],[6.9906821,45.8176615],[6.9902763,45.8176836],[6.9898976,45.817573],[6.9894073,45.8174268],[6.9889652,45.817315],[6.9886433,45.8172746],[6.9883762,45.817241],[6.988108,45.8170697],[6.9879771,45.8167018],[6.9877931,45.8164203],[6.9875152,45.8162237],[6.98721,45.8160053],[6.9867916,45.8158255],[6.9863919,45.8156236],[6.9860014,45.8153895],[6.9856527,45.8151622],[6.9854119,45.8149483],[6.9850578,45.8147782],[6.9846399,45.8146369],[6.9842134,45.8143138],[6.9840635,45.8142488],[6.9837929,45.8141314],[6.9835547,45.8139295],[6.9831014,45.8133567],[6.9823952,45.8128332],[6.9818072,45.812495],[6.9815752,45.8123331],[6.981289,45.8122316],[6.9811308,45.8120349],[6.9809599,45.8120035],[6.9808866,45.8119344],[6.9809379,45.811854],[6.9811136,45.8116878],[6.9811496,45.8115998],[6.9810407,45.8115384],[6.9810757,45.8114754],[6.9811579,45.8114253],[6.9814009,45.8114208],[6.981498,45.8114011],[6.981577,45.8114136],[6.9815302,45.8113492],[6.9812255,45.8111615],[6.9811598,45.811097],[6.9809395,45.8110082],[6.980622,45.8108373],[6.9806061,45.81079],[6.9804106,45.8107726],[6.9802944,45.8107391],[6.9803,45.8107003],[6.9800677,45.8106737],[6.9800233,45.8106032],[6.9798078,45.8105227],[6.9796747,45.8104545]]}}]}
