{"type":"FeatureCollection","features":[{"type":"Feature","properties":{"osm_relation":9678726,"name":"Tour Du Mont Blanc - Variante de Vallorcine","ref":null,"roundtrip":false,"point_count":1352,"length_m":14259.7,"source":"OpenStreetMap contributors (ODbL)","role":"alternative","slug":"vallorcine","label":"Vallorcine"},"geometry":{"type":"LineString","coordinates":[[6.9940163,46.0524733],[6.9939171,46.0524838],[6.993826,46.0524806],[6.9936901,46.0524374],[6.9936346,46.0524334],[6.9935697,46.0524423],[6.9933608,46.0524935],[6.9931961,46.0525415],[6.9928478,46.0526998],[6.9928464,46.0524488],[6.992838,46.0522132],[6.9927962,46.0521132],[6.9926905,46.0519295],[6.9925736,46.0517452],[6.9925234,46.0516595],[6.9924389,46.0516135],[6.9923375,46.0515021],[6.9922359,46.0513436],[6.9921917,46.0513653],[6.9921273,46.0514286],[6.9920924,46.0513708],[6.9919448,46.0514893],[6.9918296,46.051637],[6.991764,46.0517868],[6.9917744,46.0520308],[6.991674,46.052231],[6.9915467,46.0525571],[6.991345,46.052974],[6.9912516,46.053183],[6.9912534,46.0534763],[6.9911627,46.053589],[6.9911014,46.0539201],[6.9909871,46.0541148],[6.9909615,46.0544388],[6.9907138,46.0542486],[6.9906346,46.054136],[6.9906268,46.0540235],[6.990513,46.0537846],[6.9903114,46.053505],[6.9901825,46.05324],[6.9899426,46.0527586],[6.9899273,46.0526841],[6.9898823,46.0527176],[6.9898609,46.0527669],[6.9898398,46.052786],[6.9897911,46.0527195],[6.9897938,46.0526283],[6.9897537,46.0526108],[6.9893418,46.0522336],[6.9891162,46.0518373],[6.9889366,46.0515007],[6.9887348,46.0517606],[6.9885545,46.0519939],[6.9885074,46.0521489],[6.9883838,46.0519194],[6.9882409,46.0515895],[6.9881237,46.0512465],[6.9879565,46.051087],[6.9879256,46.0509941],[6.9879059,46.0508852],[6.9879888,46.0507928],[6.9879699,46.0507221],[6.9875944,46.0504299],[6.9875457,46.0503708],[6.9875867,46.0502961],[6.98753,46.0501674],[6.9874842,46.0501285],[6.9873199,46.0500686],[6.987177,46.049913],[6.9871476,46.0497448],[6.9869909,46.0495605],[6.9869807,46.0494896],[6.9868809,46.0494153],[6.9868702,46.0493222],[6.9866798,46.0492515],[6.9866225,46.049186],[6.9866744,46.0490299],[6.98661,46.0489369],[6.9866096,46.0488423],[6.9865537,46.048788],[6.9864678,46.0486632],[6.9864759,46.0485888],[6.9863475,46.0485076],[6.9863054,46.0484532],[6.9863209,46.0483705],[6.9862882,46.0483358],[6.9862351,46.0483083],[6.9861243,46.0482904],[6.9861755,46.0483635],[6.986184,46.0484286],[6.9860897,46.0483617],[6.985709,46.0482338],[6.9855371,46.0481403],[6.9853418,46.0479713],[6.9852724,46.0478589],[6.9852324,46.0478143],[6.9851821,46.047987],[6.98518,46.0481651],[6.9849281,46.047943],[6.9847968,46.0478683],[6.9847623,46.047792],[6.9844535,46.047671],[6.9842066,46.0474556],[6.9842159,46.0473782],[6.9840968,46.0473111],[6.9838781,46.0469568],[6.9837802,46.0468221],[6.983588,46.0463723],[6.9835772,46.0462454],[6.983492,46.0459118],[6.9832948,46.0457982],[6.9830762,46.0457004],[6.9829802,46.0456977],[6.9826671,46.0455812],[6.9826443,46.0455264],[6.9825947,46.0454966],[6.9824338,46.0454659],[6.9822554,46.0453588],[6.9822811,46.0454884],[6.9823158,46.0455776],[6.9823614,46.0456418],[6.982352,46.0456828],[6.9824003,46.0458127],[6.9822453,46.0457484],[6.9823681,46.0459304],[6.9824005,46.0460402],[6.9824117,46.0461463],[6.9823858,46.0461826],[6.9823433,46.0461738],[6.9823252,46.0461272],[6.9823147,46.0460993],[6.982258,46.046043],[6.9820332,46.0459726],[6.9817565,46.045759],[6.9817377,46.0458085],[6.9817383,46.0459331],[6.9816895,46.0459797],[6.9816385,46.0458857],[6.981499,46.0457524],[6.9814749,46.0458084],[6.9814494,46.0459667],[6.9813864,46.0460774],[6.9813462,46.0461119],[6.9813421,46.0461947],[6.981145,46.0464442],[6.9811276,46.0465903],[6.9810954,46.0466211],[6.9811343,46.0466732],[6.9811316,46.0467216],[6.9811222,46.0467421],[6.9811446,46.0468012],[6.9810243,46.0467653],[6.9809546,46.0467048],[6.9809076,46.0466341],[6.9808905,46.046649],[6.9808647,46.0467421],[6.9808272,46.0468323],[6.9808768,46.047093],[6.9809426,46.0472274],[6.9808955,46.0472493],[6.9808245,46.047254],[6.9805211,46.0470938],[6.9804275,46.0470027],[6.9803513,46.0469111],[6.9803229,46.0469226],[6.9802058,46.0471018],[6.9800013,46.0472467],[6.9798241,46.0473466],[6.9796365,46.0474584],[6.9794352,46.0476216],[6.9794266,46.047676],[6.9793659,46.0477352],[6.9793361,46.0478484],[6.9793329,46.0478871],[6.9793523,46.0479325],[6.9793663,46.048032],[6.9793547,46.0481338],[6.9792651,46.0483665],[6.9790827,46.0485693],[6.9790686,46.0486691],[6.979083,46.0487364],[6.9790627,46.0487971],[6.9790488,46.0489256],[6.9790385,46.0489938],[6.9790195,46.0490185],[6.9789933,46.0490351],[6.9789524,46.0490586],[6.9789266,46.0490831],[6.9789088,46.0491133],[6.9788993,46.0491814],[6.9788933,46.0492022],[6.9788766,46.0492387],[6.978837,46.0493073],[6.9787906,46.0493797],[6.9787115,46.0494512],[6.9785017,46.0495382],[6.9782513,46.0495513],[6.9782269,46.049554],[6.9782048,46.0495611],[6.9781545,46.0495863],[6.9781354,46.0495929],[6.9781056,46.0495972],[6.9780238,46.0496041],[6.9779938,46.0496117],[6.9779729,46.0496133],[6.9779481,46.0496043],[6.9779007,46.0495676],[6.9778825,46.0495489],[6.9778657,46.049538],[6.9777608,46.0495024],[6.9774465,46.0493859],[6.9773895,46.049371],[6.9773552,46.0493566],[6.977286,46.0493072],[6.9772431,46.0492698],[6.9772061,46.0492324],[6.9770251,46.0490977],[6.9769768,46.0490669],[6.976847,46.0489992],[6.9766587,46.0489062],[6.976299,46.0485204],[6.9757838,46.0481733],[6.97562,46.0480249],[6.9755288,46.0479538],[6.9753286,46.0478497],[6.9750282,46.0476226],[6.9744691,46.0473459],[6.9742615,46.0472869],[6.9741324,46.0471889],[6.9740596,46.0471643],[6.973973,46.0471536],[6.9737002,46.0469629],[6.9735128,46.0467644],[6.9733683,46.0465836],[6.9733304,46.0464926],[6.9731446,46.046336],[6.9729619,46.0461603],[6.9727832,46.0459434],[6.9725462,46.0453989],[6.9724366,46.0452301],[6.9722893,46.0450528],[6.9721554,46.0449037],[6.9719869,46.0448121],[6.9716196,46.0445576],[6.9713596,46.0443174],[6.9711996,46.0439744],[6.9711567,46.0436072],[6.9712361,46.0432719],[6.9713951,46.0429666],[6.9715291,46.0428439],[6.9715626,46.0426795],[6.9715942,46.0426483],[6.9716645,46.0426241],[6.9718452,46.0423374],[6.9719483,46.042213],[6.9719817,46.0420351],[6.9720308,46.0419677],[6.9720759,46.0418839],[6.9720766,46.0418097],[6.9720186,46.0417392],[6.9719743,46.0416663],[6.9718778,46.0415746],[6.9717915,46.0414519],[6.9717506,46.0413914],[6.9717152,46.0413284],[6.9716198,46.0412304],[6.9715816,46.0411787],[6.9715748,46.0411585],[6.9715843,46.0411257],[6.9716057,46.0411047],[6.9716084,46.0410856],[6.971589,46.0410665],[6.9715367,46.0410549],[6.9715132,46.0410382],[6.9714729,46.0410233],[6.9714376,46.041011],[6.9713943,46.0409954],[6.9713242,46.040968],[6.9712517,46.040933],[6.9711819,46.0408842],[6.9710029,46.0406932],[6.9709714,46.0406537],[6.970937,46.0406324],[6.9708627,46.0405666],[6.9708071,46.040548],[6.97074,46.0405648],[6.9706294,46.0405746],[6.9704986,46.0405708],[6.9704597,46.0405573],[6.9704302,46.0405317],[6.9703962,46.0404376],[6.9703799,46.0403749],[6.9703558,46.0403572],[6.9703592,46.040332],[6.970335,46.0402929],[6.9703022,46.0402106],[6.9702968,46.040151],[6.9703545,46.0399974],[6.970396,46.0399601],[6.9704745,46.0398186],[6.9705302,46.0397437],[6.9705751,46.0396622],[6.9705791,46.0396315],[6.9705939,46.0395994],[6.9705971,46.0395722],[6.970612,46.0395231],[6.9706167,46.0394635],[6.9705818,46.0392438],[6.9705563,46.039147],[6.9705208,46.0390711],[6.970502,46.0390101],[6.9705,46.0389631],[6.9704846,46.0389496],[6.9704604,46.0389524],[6.9703478,46.038991],[6.9702304,46.039019],[6.9701982,46.0390371],[6.9701714,46.039038],[6.9701198,46.0390543],[6.9700393,46.0390571],[6.9698777,46.0390501],[6.9697577,46.0390753],[6.9696651,46.039099],[6.9694184,46.039147],[6.9693882,46.0391884],[6.9693842,46.03922],[6.9694103,46.0393462],[6.9694246,46.0393866],[6.969411,46.0394258],[6.9693895,46.039456],[6.9692092,46.039557],[6.9691656,46.0395859],[6.9691455,46.0396092],[6.9691099,46.0396925],[6.969122,46.0397674],[6.9691052,46.0397861],[6.969069,46.0397958],[6.9687626,46.0398163],[6.968626,46.039796],[6.9685203,46.0397466],[6.9684032,46.0396311],[6.9683589,46.0395738],[6.9683235,46.0395554],[6.9682965,46.0395049],[6.9682449,46.0394663],[6.9681517,46.0394295],[6.9680335,46.0393657],[6.9679819,46.0393774],[6.9679056,46.0393768],[6.967859,46.0393533],[6.967793,46.0393299],[6.9676896,46.0393078],[6.9675998,46.039234],[6.967566,46.0392228],[6.9675321,46.0392275],[6.9674932,46.0392582],[6.9674925,46.0393066],[6.967518,46.0393457],[6.9675811,46.0394044],[6.9675979,46.0394493],[6.9676018,46.0394989],[6.9676227,46.0395524],[6.967679,46.0396632],[6.967736,46.0397502],[6.9677782,46.0397944],[6.9678091,46.0398503],[6.9678533,46.0399881],[6.9678533,46.0400044],[6.967838,46.0400169],[6.9677985,46.0399997],[6.9677761,46.0399772],[6.9676293,46.0398694],[6.9675616,46.0398252],[6.9674659,46.0397537],[6.9674074,46.0397204],[6.9673531,46.0396529],[6.9672941,46.0396129],[6.9672284,46.0395752],[6.9671271,46.0395058],[6.9670922,46.0394602],[6.9670245,46.0394132],[6.9670084,46.0393899],[6.9669829,46.0393988],[6.9669782,46.0394351],[6.966995,46.0395049],[6.9670688,46.039719],[6.9670942,46.0398331],[6.9671492,46.0399001],[6.9671584,46.0399477],[6.9671445,46.0399894],[6.9671076,46.0400486],[6.9670976,46.0401044],[6.9670741,46.0401635],[6.966999,46.0402771],[6.9669547,46.0403255],[6.9668884,46.040379],[6.9668314,46.0404368],[6.9667998,46.0404614],[6.9667556,46.0404591],[6.966699,46.0403973],[6.9665925,46.0403252],[6.96653,46.0402505],[6.9664409,46.0401705],[6.9664002,46.0401463],[6.9663365,46.0401193],[6.9662909,46.0401054],[6.966221,46.0400956],[6.9661253,46.0400914],[6.9660328,46.040092],[6.9659825,46.0401072],[6.9659314,46.0401311],[6.9658215,46.0401454],[6.9655486,46.0401938],[6.9654688,46.0402245],[6.9654044,46.0402664],[6.9653407,46.0403311],[6.9653139,46.0403781],[6.9652831,46.0404978],[6.9652858,46.0405466],[6.9653146,46.0406555],[6.9653072,46.0406988],[6.9652911,46.0407421],[6.9652938,46.0408347],[6.9653092,46.0408589],[6.9653971,46.0409357],[6.9654346,46.0409823],[6.9654614,46.0410335],[6.9654715,46.0410712],[6.9655017,46.0411052],[6.9654963,46.0411136],[6.9654823,46.0411202],[6.9654205,46.0410847],[6.9653682,46.0410628],[6.9652817,46.0410377],[6.9651932,46.041027],[6.9650464,46.0409748],[6.9649289,46.0409419],[6.9648833,46.0409178],[6.9648314,46.0409026],[6.9648315,46.0409237],[6.9648697,46.0409784],[6.964925,46.0410335],[6.9649277,46.0410475],[6.9649109,46.0410591],[6.9648807,46.0410521],[6.9647741,46.0410149],[6.9647522,46.041017],[6.9647386,46.0410321],[6.9647533,46.0410614],[6.9647823,46.0410938],[6.9648968,46.0411876],[6.9650451,46.0413373],[6.9650669,46.0413633],[6.965075,46.0413855],[6.9648854,46.0413039],[6.9648004,46.041262],[6.9647721,46.0412639],[6.9647713,46.0412867],[6.9648794,46.0414412],[6.9649431,46.041512],[6.9649739,46.0415562],[6.9650395,46.0415982],[6.9650834,46.0416534],[6.9651013,46.0416856],[6.9650956,46.0417163],[6.9650671,46.0417577],[6.9650212,46.0418918],[6.9650155,46.0419434],[6.9650279,46.0419937],[6.965051,46.0420179],[6.9650524,46.0420323],[6.96504,46.0420393],[6.9649132,46.0420307],[6.9648898,46.0420205],[6.9648663,46.042027],[6.964863,46.0420479],[6.9648787,46.0421385],[6.9648747,46.0421887],[6.9648546,46.0422171],[6.9648579,46.0422953],[6.9648844,46.0423803],[6.9649049,46.0424159],[6.9649501,46.042518],[6.9649562,46.0425523],[6.9649287,46.0427347],[6.9649314,46.0427726],[6.964921,46.0428736],[6.9649029,46.0428876],[6.9648562,46.0428791],[6.9648381,46.0428469],[6.9648016,46.0428283],[6.9647433,46.0427759],[6.9647023,46.0427632],[6.9644918,46.0427703],[6.9644302,46.0427693],[6.9644159,46.0427748],[6.9643424,46.0427411],[6.96433,46.0427134],[6.9642893,46.042677],[6.9642793,46.0426519],[6.9642694,46.0426139],[6.9642558,46.042569],[6.9642437,46.0425057],[6.9642176,46.0424582],[6.9641925,46.0423749],[6.9641662,46.0423017],[6.9641295,46.0422698],[6.9640595,46.0422697],[6.9640459,46.0422777],[6.9639876,46.0422991],[6.9638856,46.0423358],[6.9638173,46.0423605],[6.9637562,46.042374],[6.963602,46.0424024],[6.9635584,46.0424303],[6.9635134,46.042434],[6.9634391,46.0424303],[6.9633888,46.0424145],[6.9633237,46.0423996],[6.9632453,46.0424024],[6.9631702,46.0424173],[6.9631226,46.0424387],[6.963089,46.0424368],[6.9630354,46.0424178],[6.9629583,46.0423931],[6.9628976,46.0423892],[6.962755,46.0423782],[6.9626653,46.0424145],[6.9626263,46.0424243],[6.9625754,46.0424773],[6.9625278,46.0425285],[6.9624118,46.0425997],[6.96233,46.042616],[6.962332,46.042663],[6.9622958,46.0426872],[6.962208,46.0426887],[6.9621496,46.0427072],[6.9620014,46.042778],[6.9617564,46.0428855],[6.9615327,46.04292],[6.9614397,46.0429179],[6.961243,46.0429916],[6.9611156,46.0429982],[6.96098,46.0429347],[6.9607631,46.0427817],[6.9606677,46.0427589],[6.960608,46.0427766],[6.960309,46.0426284],[6.960087,46.0426044],[6.9599475,46.0425634],[6.9597569,46.042551],[6.9595747,46.0425467],[6.9594513,46.0425169],[6.9589684,46.0424859],[6.9585702,46.0424164],[6.9582299,46.042336],[6.9577715,46.0422115],[6.9574941,46.042109],[6.9573012,46.0420559],[6.9572539,46.042024],[6.9572284,46.0420068],[6.9571902,46.0419898],[6.9571221,46.0419558],[6.957098,46.0419465],[6.9570772,46.0419421],[6.957049,46.0419404],[6.9570266,46.0419397],[6.9570028,46.0419335],[6.9569867,46.0419246],[6.9569531,46.0418974],[6.956867,46.0418271],[6.9567463,46.0417424],[6.9567034,46.0417079],[6.9566578,46.04166],[6.9566296,46.0416372],[6.9565934,46.0416218],[6.9565444,46.0416139],[6.9564405,46.0416018],[6.9563822,46.0415897],[6.9563305,46.0415697],[6.9562943,46.0415488],[6.9562574,46.0415213],[6.9562145,46.0415101],[6.956173,46.0415055],[6.9561287,46.0414878],[6.9560724,46.0414771],[6.9560087,46.0414575],[6.9559678,46.0414254],[6.9559322,46.0413942],[6.9558839,46.041371],[6.955784,46.0413016],[6.9556593,46.041189],[6.9555607,46.0410814],[6.9555158,46.0410386],[6.955485,46.0410084],[6.9554682,46.040986],[6.9554481,46.040973],[6.9554233,46.0409641],[6.9554032,46.0409534],[6.955379,46.0409292],[6.9553348,46.0408939],[6.9552925,46.0408706],[6.9552523,46.0408585],[6.9552087,46.0408468],[6.9551752,46.0408236],[6.9551564,46.040805],[6.9551457,46.0407845],[6.9551343,46.040777],[6.9551175,46.0407705],[6.9550994,46.0407663],[6.955084,46.0407547],[6.9550632,46.0407282],[6.9550404,46.0407072],[6.9549814,46.04067],[6.954907,46.0406253],[6.9547923,46.0405471],[6.9547272,46.0404829],[6.954693,46.0404456],[6.9546501,46.040413],[6.9545918,46.0403767],[6.9545341,46.0403344],[6.9544832,46.0402911],[6.9544067,46.0402189],[6.9543531,46.0401663],[6.9542062,46.0400374],[6.9541439,46.0399853],[6.9540942,46.0399564],[6.9540393,46.0399331],[6.9539662,46.0399141],[6.9538388,46.0398847],[6.9537865,46.0398647],[6.9537516,46.0398475],[6.9537261,46.0398242],[6.9536772,46.0397581],[6.9535504,46.0396492],[6.9534767,46.0395952],[6.9534177,46.0395603],[6.9533493,46.0395263],[6.9532701,46.0394989],[6.9531816,46.0394691],[6.9530046,46.0394165],[6.9529107,46.0393895],[6.9528437,46.0393713],[6.9527759,46.0393569],[6.9527136,46.039349],[6.9526391,46.0393434],[6.952548,46.0393397],[6.9524621,46.0393383],[6.9524098,46.0393392],[6.9523528,46.0393369],[6.9522958,46.0393285],[6.9522395,46.0393136],[6.9521778,46.0392908],[6.9521349,46.0392671],[6.9520906,46.0392433],[6.9520229,46.0391986],[6.9519646,46.0391605],[6.9519156,46.0391214],[6.9518781,46.0390883],[6.9518419,46.0390459],[6.951807,46.0389989],[6.9516776,46.03883],[6.9516481,46.0387946],[6.9516125,46.0387671],[6.951575,46.0387443],[6.951514,46.0387141],[6.9514523,46.0386885],[6.9513825,46.0386629],[6.9512974,46.0386345],[6.951231,46.0386084],[6.9511646,46.0385795],[6.9511136,46.0385525],[6.951058,46.0385139],[6.9509956,46.0384683],[6.9509514,46.0384283],[6.9509205,46.0383943],[6.9508984,46.0383556],[6.9508897,46.038311],[6.9508796,46.0382095],[6.9508662,46.0381671],[6.9508427,46.0381364],[6.9508045,46.0381057],[6.950765,46.0380829],[6.9506878,46.0380433],[6.950606,46.0379991],[6.9505578,46.0379712],[6.9504954,46.0379274],[6.950435,46.0378809],[6.950372,46.0378324],[6.9503425,46.0378068],[6.9503063,46.0377878],[6.9502748,46.037778],[6.9502345,46.0377743],[6.950197,46.0377803],[6.9501682,46.0377971],[6.9501487,46.0378199],[6.9501333,46.0378543],[6.9501232,46.0379041],[6.9501152,46.0379893],[6.9501125,46.0380615],[6.9501031,46.0381983],[6.9501018,46.0382556],[6.9501105,46.0383277],[6.9501206,46.0383831],[6.9501326,46.0384269],[6.9501534,46.0384743],[6.9501755,46.0385079],[6.9502124,46.0385511],[6.9502754,46.038621],[6.9502989,46.0386447],[6.9503217,46.0386722],[6.9503298,46.0386968],[6.9503257,46.0387192],[6.9503117,46.0387373],[6.9502835,46.0387476],[6.9502406,46.0387476],[6.9501883,46.0387387],[6.9501387,46.0387262],[6.9500562,46.0387187],[6.9499341,46.0387164],[6.9498483,46.0387122],[6.9497631,46.0386992],[6.9496968,46.0386754],[6.9496599,46.0386512],[6.9496243,46.0386168],[6.9495922,46.0385721],[6.9495673,46.0385297],[6.9495378,46.0384902],[6.9494929,46.0384464],[6.9494131,46.0383645],[6.9493803,46.038324],[6.9493467,46.03827],[6.9492991,46.0382179],[6.9492515,46.0381755],[6.9492039,46.0381387],[6.9491476,46.0380996],[6.9490919,46.0380545],[6.949047,46.0380098],[6.9489927,46.0379502],[6.948937,46.0378757],[6.9488686,46.0378161],[6.9487949,46.0377608],[6.9487231,46.0377165],[6.9486601,46.0376858],[6.9485568,46.0376393],[6.9486218,46.0378091],[6.9486524,46.0379971],[6.9486862,46.0381722],[6.9486943,46.038391],[6.9487144,46.0385418],[6.9487332,46.0386582],[6.9487694,46.03885],[6.9488626,46.0391236],[6.9488049,46.0391216],[6.9487721,46.0391167],[6.9487365,46.0391058],[6.948702,46.0390902],[6.9486789,46.039075],[6.9486681,46.0390702],[6.9486577,46.0390709],[6.9486504,46.0390767],[6.9486527,46.0390967],[6.9486675,46.0391339],[6.948695,46.0391851],[6.9486883,46.0391926],[6.9486769,46.0391909],[6.9486591,46.0391849],[6.9485468,46.0391288],[6.948467,46.0390944],[6.9483845,46.0390427],[6.948363,46.0390315],[6.9483362,46.0390241],[6.9483067,46.0390269],[6.9482839,46.0390455],[6.9482718,46.0390655],[6.9482484,46.0390818],[6.9482175,46.0390823],[6.9481719,46.0390753],[6.9481304,46.0390585],[6.9480868,46.0390325],[6.9480405,46.0389971],[6.9479822,46.0389729],[6.9479131,46.038957],[6.947777,46.0389212],[6.9475906,46.0388593],[6.9474927,46.0388286],[6.9477072,46.0391158],[6.9477005,46.0394581],[6.947781,46.0397567],[6.9477193,46.0398117],[6.947663,46.0398452],[6.947608,46.0398656],[6.9475436,46.0398712],[6.947486,46.0398573],[6.9474162,46.0398126],[6.9473344,46.0397446],[6.9472526,46.0396916],[6.9471695,46.0396469],[6.947097,46.0396199],[6.9470045,46.0396003],[6.9469173,46.0395752],[6.9468328,46.0395324],[6.9467631,46.0394858],[6.9467269,46.0394477],[6.9466826,46.0394002],[6.9466133,46.039358],[6.946582,46.0393322],[6.9465566,46.0392885],[6.9465499,46.0392428],[6.9465499,46.0391879],[6.9465391,46.0391442],[6.9464868,46.0391004],[6.9464251,46.0390585],[6.9463567,46.039011],[6.946291,46.0389421],[6.9462387,46.0388667],[6.9462012,46.0387969],[6.946169,46.0387187],[6.9461153,46.0386172],[6.9460872,46.0385688],[6.9460362,46.038499],[6.9459705,46.0384385],[6.9458766,46.0383501],[6.9457492,46.03823],[6.9456587,46.0381369],[6.9456097,46.0380782],[6.9455387,46.0380633],[6.9454274,46.038027],[6.9453429,46.0379833],[6.9452906,46.0379465],[6.9451625,46.0378525],[6.9450632,46.0377961],[6.9450016,46.0377622],[6.9449694,46.0377277],[6.9449499,46.03769],[6.944903,46.037596],[6.9448614,46.0375387],[6.9448084,46.0374782],[6.9447769,46.0374489],[6.9447152,46.0374121],[6.9446556,46.0373637],[6.9445939,46.0373083],[6.9445583,46.037265],[6.9444966,46.0371803],[6.9444752,46.0371337],[6.9444698,46.0370937],[6.9444497,46.03707],[6.9444095,46.0370383],[6.9443639,46.0369964],[6.9442727,46.0369294],[6.944211,46.0368814],[6.944154,46.0368265],[6.9441097,46.0367874],[6.9440715,46.0367637],[6.9440353,46.0367409],[6.9439924,46.0366985],[6.943869,46.0365747],[6.9437979,46.0365216],[6.9436108,46.036399],[6.9434166,46.0362781],[6.9430682,46.0360734],[6.9428417,46.0359174],[6.9426503,46.0358987],[6.9425762,46.0358429],[6.9424293,46.0356393],[6.9420569,46.0354076],[6.9417312,46.0352002],[6.9414597,46.035072],[6.9413555,46.0350006],[6.9412361,46.0348865],[6.9412029,46.0349473],[6.9411144,46.0349547],[6.9409894,46.0349473],[6.9408174,46.0349876],[6.940759,46.0350041],[6.9407296,46.0349768],[6.9406641,46.0349011],[6.9406567,46.0348035],[6.9405695,46.0347409],[6.9404197,46.0346698],[6.9403245,46.0345302],[6.9401782,46.0344675],[6.940138,46.0344082],[6.940047,46.0343374],[6.9399144,46.0341755],[6.9397173,46.0339094],[6.9395605,46.0337931],[6.9395217,46.0338899],[6.9394441,46.0338239],[6.9393951,46.0337751],[6.9393423,46.0338313],[6.9392824,46.0337314],[6.9391895,46.0336546],[6.9389305,46.033356],[6.9387441,46.0332029],[6.9386723,46.0330439],[6.9384654,46.0328345],[6.9383681,46.0327712],[6.9380743,46.0325491],[6.9379643,46.0324359],[6.9379319,46.0323777],[6.9378948,46.032312],[6.9377173,46.0321923],[6.9375185,46.0320393],[6.9374435,46.0319714],[6.9373205,46.0318483],[6.9371363,46.0316939],[6.9370698,46.0316206],[6.9369663,46.0315842],[6.9368541,46.0315575],[6.9366542,46.031564],[6.9365754,46.031554],[6.936474,46.0314777],[6.9364137,46.0313129],[6.9363414,46.0312799],[6.9363226,46.0313534],[6.9362732,46.0313979],[6.9362542,46.0313376],[6.9361831,46.0312855],[6.9361429,46.0312855],[6.9360758,46.0312529],[6.9359914,46.031043],[6.9357524,46.0308046],[6.9356802,46.0307468],[6.9356395,46.0307261],[6.935524,46.0307035],[6.9354469,46.0306877],[6.9353925,46.0306737],[6.9353523,46.0306472],[6.9353,46.0306179],[6.9352558,46.0305983],[6.9352189,46.0305755],[6.935188,46.0305541],[6.9351605,46.0305594],[6.935129,46.0305694],[6.9350825,46.0306092],[6.9350325,46.0306421],[6.935005,46.0306495],[6.9349661,46.03065],[6.9348735,46.0306365],[6.9348226,46.0306318],[6.9347743,46.0306351],[6.9347354,46.0306449],[6.9347093,46.0306616],[6.9346724,46.0307031],[6.9346442,46.0307301],[6.9346029,46.0307454],[6.9345054,46.0307734],[6.93441,46.0308139],[6.9343197,46.0308648],[6.9342697,46.0309002],[6.9342419,46.030924],[6.9342275,46.0309372],[6.9342251,46.0309482],[6.9342318,46.0309561],[6.934256,46.0309712],[6.9343344,46.0310082],[6.9343586,46.0310171],[6.9343254,46.0310497],[6.9342824,46.0310832],[6.9342358,46.0311293],[6.9341899,46.0311558],[6.934146,46.0311849],[6.9341125,46.0312038],[6.9340478,46.0312273],[6.9339975,46.0312438],[6.9339799,46.0312514],[6.9339772,46.0312592],[6.9339827,46.0312629],[6.9339971,46.0312654],[6.9340246,46.0312668],[6.9340508,46.0312743],[6.9341104,46.0313013],[6.934142,46.0313199],[6.9341473,46.0313353],[6.9341406,46.0313511],[6.9341172,46.0313688],[6.9340595,46.0314153],[6.9340367,46.0314391],[6.9340219,46.031467],[6.9340166,46.0314908],[6.9340307,46.0315275],[6.9340407,46.0315666],[6.934036,46.0315918],[6.9340146,46.0316104],[6.933983,46.0316262],[6.9339703,46.0316388],[6.9339649,46.0316537],[6.9339589,46.0317701],[6.9339656,46.0318292],[6.9339757,46.0318813],[6.9339723,46.0319125],[6.9339616,46.0319363],[6.9339227,46.032001],[6.9339039,46.0320406],[6.9338664,46.032095],[6.9338409,46.0321239],[6.933802,46.0321453],[6.9337396,46.0321681],[6.9336914,46.0321728],[6.9336196,46.0321751],[6.9335566,46.0321765],[6.9334942,46.0320811],[6.9334493,46.032028],[6.9334023,46.0319963],[6.933346,46.0319689],[6.9332568,46.0319335],[6.9331824,46.0319],[6.9331221,46.0318641],[6.9330342,46.0318311],[6.932945,46.0318041],[6.9329189,46.0317612],[6.9328927,46.031717],[6.9328458,46.0316709],[6.9327717,46.0316057],[6.932646,46.0315043],[6.9325353,46.0314116],[6.9324072,46.0313115],[6.9323261,46.0312412],[6.9322711,46.0311821],[6.9322483,46.0311486],[6.9322249,46.031123],[6.9321524,46.0310657],[6.9321243,46.0310466],[6.9320995,46.0310294],[6.9320572,46.0310001],[6.9319928,46.0309489],[6.9319519,46.0309023],[6.9319204,46.0308497],[6.9318674,46.0307543],[6.9318445,46.0307179],[6.9318031,46.0306519],[6.9317333,46.0305448],[6.9316737,46.0304461],[6.9316294,46.030379],[6.9315898,46.030339],[6.9315409,46.0303027],[6.9314819,46.0302729],[6.9314155,46.0302492],[6.9313397,46.030231],[6.9312673,46.030218],[6.931164,46.0301965],[6.9310661,46.0301728],[6.9309595,46.0301421],[6.9308697,46.0301123],[6.9307597,46.0300713],[6.9306933,46.0300392],[6.9306182,46.029994],[6.9305498,46.0299461],[6.9304875,46.0298921],[6.9302944,46.0297125],[6.9301073,46.0295653],[6.9299617,46.0294475],[6.9298712,46.02938],[6.9297016,46.0292608],[6.929483,46.0290988],[6.9293328,46.0289973],[6.9291564,46.0288697],[6.9290417,46.0287943],[6.928907,46.0287002],[6.9288097,46.0286267],[6.9287172,46.0285461],[6.9285489,46.0284046],[6.9284657,46.0283292],[6.9284181,46.0282878],[6.9283819,46.0282491],[6.928345,46.028196],[6.9282954,46.0281285],[6.9282713,46.0280787],[6.9282505,46.028027],[6.9282391,46.02798],[6.9282391,46.0279363],[6.9282471,46.0278925],[6.9282652,46.0278543],[6.9282907,46.0277998],[6.9282988,46.0277565],[6.9283015,46.0276741],[6.9283122,46.0276229],[6.9283336,46.0275633],[6.928345,46.027513],[6.9283497,46.0274716],[6.928345,46.0274209],[6.9283236,46.0273543],[6.9282813,46.0272598],[6.9282552,46.0271806],[6.9282123,46.0270251],[6.9281834,46.0269311],[6.92816,46.0268794],[6.9281264,46.0268221],[6.9280815,46.0267611],[6.9279836,46.0266289],[6.9279119,46.0265237],[6.9278455,46.0264357],[6.9277516,46.0262988],[6.9277254,46.0262537],[6.9277047,46.0262206],[6.9276939,46.0261801],[6.9276939,46.0261345],[6.9276845,46.0259459],[6.9276845,46.025891],[6.9276678,46.0258286],[6.9276416,46.025775],[6.927598,46.0257094],[6.9275471,46.025633],[6.9275001,46.0255502],[6.9273969,46.02539],[6.9273714,46.0253448],[6.927358,46.0252959],[6.9273459,46.0252424],[6.9272856,46.0251162],[6.9272581,46.0250487],[6.9272326,46.0250003],[6.9271924,46.0249537],[6.9271394,46.0249062],[6.9270448,46.0248476],[6.926963,46.0248066],[6.9268323,46.0247451],[6.9267283,46.0247051],[6.9265922,46.0246581],[6.9265064,46.0246301],[6.9264145,46.024605],[6.9263099,46.0245729],[6.9262046,46.0245352],[6.9259518,46.0244365],[6.9256628,46.0243107],[6.9256266,46.0243024],[6.9255824,46.0242972],[6.9253269,46.0242735],[6.9252464,46.0242605],[6.9251841,46.0242432],[6.9251277,46.024219],[6.9250848,46.0241888],[6.9250473,46.0241506],[6.9247576,46.0238102],[6.9247167,46.0237567],[6.9246912,46.0237341],[6.9246664,46.0237206],[6.9246372,46.0237122],[6.9246068,46.023707],[6.9245609,46.0237045],[6.9245377,46.0237047],[6.9245625,46.0236482],[6.9245671,46.0236142],[6.9245658,46.0235928],[6.9245598,46.023556],[6.9245443,46.0235215],[6.9245215,46.0234824],[6.9244853,46.0234443],[6.9243452,46.0232929],[6.924028,46.0229251],[6.9239113,46.0227901],[6.9238587,46.0227456],[6.9234151,46.0222094],[6.9231128,46.0218825],[6.922805,46.0215628],[6.9225209,46.0212316],[6.9224719,46.0211789],[6.9224169,46.0211501],[6.9223102,46.020885],[6.9221108,46.0205698],[6.9219734,46.0203478],[6.9219268,46.020047],[6.9218999,46.0198648],[6.9218845,46.0197874],[6.9218646,46.0197231],[6.921842,46.019696],[6.9218226,46.0196792],[6.9217837,46.0196541],[6.9217099,46.0196159],[6.9216194,46.019561],[6.9215684,46.0195246],[6.9215235,46.0194883],[6.9214906,46.0194554],[6.9214699,46.0194138],[6.9214283,46.0193514],[6.921372,46.0192886],[6.9211587,46.0190893],[6.9210286,46.0189747],[6.9210093,46.0189578],[6.9210177,46.0189271],[6.9210402,46.0188373],[6.9210036,46.0187704],[6.9209099,46.0186353],[6.9208342,46.0184085],[6.9208136,46.0182571],[6.9208592,46.0180098],[6.9209524,46.0177906],[6.9209736,46.017483],[6.920955,46.0171137],[6.9208732,46.0169434],[6.9206896,46.0166973],[6.9206816,46.0165506],[6.9207022,46.0164362],[6.9207646,46.0162719],[6.9209179,46.0160344],[6.9210929,46.0158212],[6.9214247,46.0154986],[6.9216817,46.0153192],[6.9218655,46.0151051],[6.9219702,46.014901],[6.922005,46.0147512],[6.9219827,46.0146197],[6.9219826,46.0144044],[6.9219969,46.014205],[6.9219965,46.0141528],[6.9220711,46.0141012],[6.9221236,46.0140421],[6.92227,46.0138596],[6.9224533,46.0136257],[6.9226563,46.0133299],[6.9227903,46.0131296],[6.9229454,46.0129146],[6.9229931,46.0128243],[6.923107,46.0127623],[6.9232308,46.0127176],[6.9233547,46.0126523],[6.9235528,46.0125181],[6.9238153,46.0123393],[6.9241075,46.0121054],[6.9242263,46.0119643],[6.9242858,46.0118749],[6.9242858,46.0117683],[6.9242759,46.0115894],[6.9242858,46.0114587],[6.9243155,46.0113452],[6.9243947,46.011242],[6.9244591,46.0111354],[6.9244789,46.0110081],[6.9244789,46.0108258],[6.9244443,46.0107329],[6.9243749,46.0106503],[6.9242907,46.010554],[6.9242511,46.0104474],[6.9242313,46.0102548],[6.9242709,46.0099177],[6.924266,46.0097835],[6.9242858,46.009701],[6.9243551,46.0095943],[6.9244046,46.0095083],[6.9244393,46.009357],[6.924474,46.0091299],[6.9244836,46.0089605],[6.9244773,46.0089137],[6.9244591,46.0087722],[6.9244443,46.0086896],[6.9243898,46.0086105],[6.9243105,46.0085417],[6.9242511,46.008466],[6.9241818,46.0082768],[6.9240381,46.0079191],[6.9238995,46.0076508],[6.923741,46.007434],[6.9235726,46.0072689],[6.9234389,46.0071451],[6.9234132,46.0070181],[6.9234052,46.0068823],[6.9234197,46.0068011],[6.923378,46.0067287],[6.9233539,46.0066608],[6.9233171,46.0065962],[6.923292,46.0065028],[6.9232686,46.0064473],[6.923288,46.0063103],[6.9232991,46.006239],[6.9232301,46.0062227],[6.9233416,46.0061047],[6.9233989,46.006056],[6.9235052,46.0059737],[6.9236787,46.0058664],[6.9238492,46.0057934],[6.9242537,46.0056559],[6.9244449,46.0055884],[6.9245383,46.0055322],[6.9245893,46.0054857],[6.9246114,46.0054368],[6.9246195,46.0053711],[6.9246047,46.0053003],[6.9245705,46.0052015],[6.9245142,46.0050758],[6.9243693,46.0048029],[6.9242916,46.0046724],[6.9241963,46.0044996],[6.9241139,46.0043902],[6.9240206,46.0042919],[6.9239276,46.0042032],[6.9239657,46.0041764],[6.923748,46.0039498],[6.9236789,46.0037844],[6.9236717,46.0036931],[6.923684,46.0035294],[6.9236854,46.0034535],[6.9237236,46.0032565],[6.9237551,46.0030692],[6.9237564,46.0030101],[6.9237524,46.0029812],[6.9237524,46.0029561],[6.9237524,46.0029207],[6.9237464,46.0028559],[6.9237276,46.0027548],[6.9236867,46.0025634],[6.9236787,46.0025154],[6.9236773,46.0024796],[6.9236847,46.0024516],[6.9237055,46.0024041],[6.9237236,46.0023333],[6.923737,46.0022583],[6.9237444,46.0022308],[6.9237578,46.0021899],[6.9237752,46.0021191],[6.9237813,46.0020687],[6.9238,46.0019602],[6.9238155,46.0018983],[6.9238222,46.0018708],[6.9238302,46.0018433],[6.9238403,46.0018172],[6.9238691,46.0017297],[6.9238997,46.0015725],[6.9239181,46.0014888],[6.9239449,46.0013607],[6.9240092,46.0011157],[6.9240428,46.0009493],[6.9241011,46.0007533],[6.9241548,46.0005596],[6.924195,46.0004087],[6.9242245,46.0002643],[6.9242339,46.0001972],[6.9242312,46.000132],[6.9242138,46.000064],[6.924191,45.9999298],[6.9241253,45.9996023],[6.9241179,45.9994845],[6.9241232,45.9994384],[6.9241355,45.9994015],[6.9241527,45.9993685],[6.9241843,45.9993285],[6.9242077,45.9992907],[6.9242498,45.9992076],[6.9242435,45.9991258],[6.9241737,45.9990249],[6.9242245,45.9989917],[6.9242701,45.998933],[6.9243251,45.9988249],[6.9243915,45.9986195],[6.9244136,45.9985561],[6.9244384,45.9985156],[6.9244699,45.9984858],[6.9245215,45.9984364],[6.9245584,45.9984141],[6.9246174,45.9983908],[6.9246878,45.9983684],[6.9247408,45.9983474],[6.924997,45.9982343]]}}]}
